BuildingNumber,BuildingName,FullAddress,Agency,Phone,Fax,Address,City,State,ZipCode,Latitude,Longitude,Region
1.0,1.0,"950 22ND STREET NORTH, BIRMINGHAM, AL, 35203.0","OSHA,WHD, OLMS","(205)-731-1534



",(205)-731-0504,950 22ND STREET NORTH,BIRMINGHAM,AL,35203.0,33.5252438,-86.8095992,
2.0,2.0,"1141 MONTLIMAR DRIVE, MOBILE, AL, 36609.0","OSHA,WHD","(251)-441-6131



",(251)-441-6396,1141 MONTLIMAR DRIVE, MOBILE,AL,36609.0,30.6677141,-88.132427,
3.0,3.0,"649 MONROE STREET, MONTGOMERY, AL, 36131.0",VETS,"



",(334)-242-8927,649 MONROE STREET,MONTGOMERY,AL,36131.0,32.3792935,-86.3006966,
4.0,4.0,"135 GEMINI CIRCLE, BIRMINGHAM, AL, 35209.0",MSHA,"



",(205)-290-7389,135 GEMINI CIRCLE, BIRMINGHAM,AL,35209.0,33.4616648,-86.8359471,
5.0,5.0,"222 WEST 8TH AVENUE, ANCHORAGE, AK, 99513.0",OSHA,"



",,222 WEST 8TH AVENUE,ANCHORAGE,AK,99513.0,61.2143349,-149.8863414,
6.0,6.0,"1111 WEST 8TH STREET, JUNEAU, AK, 99811.0",VETS,"(907)-465-2723



",(907)-465-5528,1111 WEST 8TH STREET, JUNEAU,AK,99811.0,58.2996406,-134.423772,
7.0,7.0,"230 NORTH FIRST AVENUE, PHOENIX, AZ, 85003.0","WHD, OLMS","(602)-514-7100



",,230 NORTH FIRST AVENUE, PHOENIX,AZ,85003.0,33.4511472,-112.0755031,
8.0,8.0,"1400 WEST WASHINGTON STREET, PHOENIX, AZ, 85007.0",VETS,"(602)-542-2516



",(602)-542-4103,1400 WEST WASHINGTON STREET, PHOENIX,AZ,85007.0,33.4484688,-112.0908758,
9.0,9.0,"10810 EXECUTIVE CENTER DRIVE, DANVILLE BLDG #2, LITTLE ROCK, AR, 72211.0","OSHA, WHD","(501)-224-1841



",(501)-224-4431,10810 EXECUTIVE CENTER DRIVE,LITTLE ROCK,AR,72211.0,34.7446913,-92.4159308,
10.0,11.0,"90 7TH STREET, SAN FRANCISCO, CA 94103, 94103.0","OPA, ALJ, WB, BLS, WHD, OFCCP, OLMS, OWCP, ETA, OA, JC, MSHA, OASAM, OIG, OSHA, EBSA, SOL, VETS","(415)-625-2481



",(415)-625-2450,90 7TH STREET, SAN FRANCISCO, CA 94103,94103.0,37.7793739,-122.4111351,
11.0,12.0,"1055 EAST COLORADO BOULEVARD, PASADENA, CA, 91106.0",EBSA,"(626)-229-1000



",(626)-229-1098,1055 EAST COLORADO BOULEVARD, PASADENA,CA,91106.0,34.1463823,-118.1287416,
12.0,13.0,"915 WILSHIRE BOULEVARD, LOS ANGELES, CA, 90017.0",WHD,"



",,915 WILSHIRE BOULEVARD, LOS ANGELES,CA,90017.0,34.0509576,-118.2600449,
13.0,14.0,"770 THE CITY DRIVE SOUTH, ORANGE, CA, 92868.0",WHD,"



",,770 THE CITY DRIVE SOUTH, ORANGE,CA,92868.0,33.7759475,-117.8925591,
14.0,15.0,"2800 COTTAGE WAY, SACRAMENTO, CA, 95825.0",WHD,"(916)-978-6123



",,2800 COTTAGE WAY,SACRAMENTO,CA,95825.0,38.6027301,-121.3975241,
15.0,16.0,"550 CORPORATE CENTER, SAN DIEGO, CA, 92101.0",WHD,"(619)-557-5110



",,550 CORPORATE CENTER,SAN DIEGO,CA,92101.0,32.5729139,-117.0023281,
16.0,17.0,"60 SOUTH MARKET STREET, SAN JOSE, CA, 95113.0",WHD,"(408)-291-7730



",,60 SOUTH MARKET STREET, SAN JOSE,CA,95113.0,37.3345277,-121.8909797,
17.0,18.0,"100 NORTH BARRANCA STREET, WEST COVINA, CA, 91791.0","WHD, VETS","(626)-966-0478



",,100 NORTH BARRANCA STREET, WEST COVINA,CA,91791.0,34.073109,-117.880728,
18.0,19.0,"800 CAPITOL MALL, SACRAMENTO, CA, 94280.0",VETS,"(916)-654-8178



",(916)-654-9469,800 CAPITOL MALL,SACRAMENTO,CA,94280.0,38.5771832,-121.4973719,
19.0,20.0,"209 EAST 7TH STREET, MADERA, CA, 93638.0",VETS,"



",,209 EAST 7TH STREET,MADERA,CA,93638.0,36.9609268,-120.0560983,
20.0,21.0,"4071 PORT CHICAGO HIGHWAY, CONCORD, CA, 94520.0",VETS,"(925)-602-5032



",(925)-602-1585,4071 PORT CHICAGO HIGHWAY, CONCORD,CA,94520.0,38.014674,-122.025479,
21.0,22.0,"320 CAMPUS LANE FAIRFIELD, FAIRFIELD, CA, 94534.0",VETS,"(707)-863-3583



",(707)-864-3489,320 CAMPUS LANE FAIRFIELD,FAIRFIELD,CA,94534.0,38.2309877,-122.124624,
22.0,23.0,"13160 MINDANAO WAY, MARINA DEL REY, CA, 90292.0",VETS,"(310)-574-6473



",(310)-574-6496,13160 MINDANAO WAY, MARINA DEL REY,CA,90292.0,33.984469,-118.43679,
23.0,24.0,"2450 EAST LINCOLN AVENUE, ANAHEIM, CA, 92806.0",VETS,"(714)-687-4845



",(714)-518-2391,2450 EAST LINCOLN AVENUE,ANAHEIM,CA,92806.0,33.838138,-117.880907,
24.0,25.0,"1949 AVENIDA DEL ORO, OCEANSIDE, CA, 92056.0",VETS,"(760)-639-3761



",(760)-639-3892,1949 AVENIDA DEL ORO, OCEANSIDE,CA,92056.0,33.2066449,-117.2902194,
25.0,26.0,"5675 RUFFIN ROAD, SAN DIEGO, CA, 92123.0",WB,"(858)-467-7030



",(858)-467-7014,5675 RUFFIN ROAD, SAN DIEGO,CA,92123.0,32.8375641,-117.1261867,
26.0,27.0,"WORLD TRADE CENTER, LOS ANGELES, CA, 90071.0","SOL, BLS","(415)-625-2270



",,WORLD TRADE CENTER, LOS ANGELES,CA,90071.0,34.0539143,-118.2552584,
27.0,28.0,"2060 PEABODY ROAD, VACAVILLE, CA, 95687.0",OALJ,"(707)-447-9844



",,2060 PEABODY ROAD, VACAVILLE,CA,95687.0,38.334065,-121.970936,
28.0,29.0,"915 WILSHIRE BOULEVARD, LOS ANGELES, CA, 90017.0",MSHA,"(213)-534-6405



",(213)-534-6413,915 WILSHIRE BOULEVARD, LOS ANGELES,CA,90017.0,34.0509576,-118.2600449,
29.0,30.0,"1999 BROADWAY, DENVER, CO, 80202.0","OPA, OALJ, WB, BLS, WHD, OFCCP, OLMS, OWCP, ETA, OA, JC, MSHA, OASAM, OIG, OSHA, EBSA, SOL, VETS ","



",(720)-264-6585,1999 BROADWAY, DENVER,CO,80202.0,39.7477971,-104.9877172,
30.0,31.0,"1391 SPEER BOULEVARD, DENVER, CO, 80204.0",OSHA,"(303)-844-5285



",(303)-844-6676,1391 SPEER BOULEVARD, DENVER,CO,80204.0,39.7382999,-104.9980262,
31.0,32.0,"7935 EAST PRENTICE AVENUE, ENGLEWOOD, CO, 80111.0",OSHA,"(303)-843-4500



",(303)-843-4515,7935 EAST PRENTICE AVENUE, ENGLEWOOD,CO,80111.0,39.621605,-104.8964191,
32.0,33.0,"633 17TH STREET, DENVER, CO, 80202.0",VETS,"(303)-844-2151

(303)-844-2152

",(303)-844-2017,633 17TH STREET, DENVER,CO,80202.0,39.746652,-104.9898142,
33.0,34.0,"1259 LAKE PLAZA DRIVE, #120, COLORADO SPRINGS, CO, 80906.0",VETS,"(719)-527-4315



",(719)-576-0451,1259 LAKE PLAZA DRIVE,COLORADO SPRINGS,CO,80906.0,38.7937173,-104.8054933,
34.0,35.0,"1057 BROAD STREET, BRIDGEPORT, CT, 6604.0",OSHA,"(203)-579-5581



",(203)-579-5516,1057 BROAD STREET,BRIDGEPORT,CT,6604.0,41.1776054,-73.191166,
35.0,36.0,"450 MAIN STREET HARTFORD, HARTFORD, CT, 6103.0",OSHA,"(860)-240-3152



",(860)-240-3155,450 MAIN STREET HARTFORD,HARTFORD,CT,6103.0,41.7612161,-72.6741202,
36.0,37.0,"135 HIGH STREET HARTFORD, HARTFORD, CT, 6103.0",WHD,"(860)-240-4160



",,135 HIGH STREET HARTFORD,HARTFORD,CT,6103.0,41.7700927,-72.6801297,
37.0,38.0,"150 COURT STREET NEW HAVEN, NEW HAVEN, CT, 6510.0",WHD,"(203)-773-2249



",,150 COURT STREET NEW HAVEN,NEW HAVEN,CT,6510.0,41.3064261,-72.923862,
38.0,39.0,"200 FOLLY BROOK BOULEVARD, WETHERSFIELD, CT, 6109.0",VETS,"



",(860)-263-6498,200 FOLLY BROOK BOULEVARD,WETHERSFIELD,CT,6109.0,41.721393,-72.677501,
39.0,40.0,"919 MARKET STREET, MELLON BANK BUILDING, WILMINGTON, DE, 19801.0",OSHA,"(302)-573-6518



",(302)-573-6532,919 MARKET STREET,WILMINGTON,DE,19801.0,39.7312603,-75.5451379,
40.0,41.0,"4425 NORTH MARKET STREET, WILMINGTON, DE, 19802.0",VETS,"(302)-761-8138

(302)-761-8139

",(302)-761-4676,4425 NORTH MARKET STREET,WILMINGTON,DE,19802.0,34.2408848,-77.9469765,
41.0,42.0,"64 NEW YORK AVENUE, NORTH EAST, WASHINGTON, DC, 20002.0",VETS,"(202)-671-2179



",(202)-671-1503,"64 NEW YORK AVENUE, NORTH EAST",WASHINGTON,DC,20002.0,38.9093546,-77.0069743,
42.0,43.0,"800 K STREET, NORTH WEST, WASHINGTON, DC, 20001.0",OALJ,"(202)-693-7300



",(202)-693-7365,"800 K STREET, NORTH WEST",WASHINGTON,DC,20001.0,38.9017024,-77.0227306,
43.0,44.0,"800 NORTH CAPITOL STREET, NORTH WEST, WASHINGTON, DC, 20002.0","OLMS, OIG","(202)-513-7300



",(202)-513-7301,"800 NORTH CAPITOL STREET, NORTH WEST",WASHINGTON,DC,20002.0,38.9005114,-77.0094721,
44.0,45.0,"1000 S PINE ISLAND ROAD, PLANTATION, FL, 33324.0","EBSA, OSHA","(954)-424-4022



",(954)-424-0548,1000 S PINE ISLAND ROAD, PLANTATION,FL,33324.0,26.1088816,-80.2589454,
45.0,46.0,"RIBAULT BUILDING, JACKSONVILLE, FL, 32207.0",OSHA,"(904)-232-2895



",(904)-232-1294,RIBAULT BUILDING, JACKSONVILLE,FL,32207.0,30.4094209,-81.6973056,
46.0,47.0,"5807 BRECKENRIDGE PARKWAY, TAMPA, FL, 33610.0",OSHA,"(813)-626-1177



",(813)-626-7015,5807 BRECKENRIDGE PARKWAY, TAMPA,FL,33610.0,28.0010747,-82.3579685,
47.0,48.0,"299 EAST BROWARD BOULEVARD, FEDERAL BUILDING, FORT LAUDERDALE, FL, 33301.0",WHD,"(954)-356-6896



",,299 EAST BROWARD BOULEVARD,FORT LAUDERDALE,FL,33301.0,26.1242719,-80.128901,
48.0,49.0,"400 WEST BAY STREET, JACKSONVILLE, FL, 32202.0",WHD,"(904)-359-9292



",,400 WEST BAY STREET,JACKSONVILLE,FL,32202.0,30.3269298,-81.6637258,
49.0,50.0,"10300 SUNSET DRIVE, MIAMI, FL, 33173.0",WHD,"(305)-598-6607



",,10300 SUNSET DRIVE,MIAMI,FL,33173.0,25.7002045,-80.3611234,
50.0,51.0,"1001 EXECUTIVE CENTER DRIVE, #103, ORLANDO, FL, 32803.0",WHD,"(407)-648-6471



",,1001 EXECUTIVE CENTER DRIVE,ORLANDO,FL,32803.0,28.5597436,-81.3422747,
51.0,52.0,"227 NORTH BRONOUGH STREET, TALLAHASSEE, FL, 32301.0",WHD,"(850)-942-8341



",,227 NORTH BRONOUGH STREET,TALLAHASSEE,FL,32301.0,30.4438924,-84.2839622,
52.0,53.0,"4905 WEST LAUREL AVENUE, TAMPA, FL, 33607.0",WHD,"(813)-288-1242



",,4905 WEST LAUREL AVENUE, TAMPA,FL,33607.0,27.956426,-82.526402,
53.0,54.0,"107 EAST MADISON STREET, TALLAHASSEE, FL, 32399.0",VETS,"(850)-245-7199



",,107 EAST MADISON STREET, TALLAHASSEE,FL,32399.0,30.4362265,-84.2813516,
54.0,55.0,"215 MARKET STREET, JACKSONVILLE, FL, 32202.0",VETS,"(904)-353-2187



",(904)-359-6151,215 MARKET STREET, JACKSONVILLE,FL,32202.0,30.3272522,-81.6536622,
55.0,56.0,"2550 WEST OAKLAND PARK BOULEVARD, FORT LAUDERDALE, FL, 33311.0",VETS,"(954)-677-5818



",(954)-677-5816,2550 WEST OAKLAND PARK BOULEVARD,FORT LAUDERDALE,FL,33311.0,26.164934,-80.1770559,
56.0,57.0,"38500 U.SOUTH HIGHWAY 19 NORTH, NORTH PALM HARBOR, FL, 34684.0",VETS,"



",(727)-324-2855,38500 U.SOUTH HIGHWAY 19 NORTH,NORTH PALM HARBOR,FL,34684.0,28.1214648,-82.7401433,
57.0,58.0,"13805 58TH STREET NORTH, CLEARWATER, FL, 33760.0",VETS,"(727)-328-3355



",(727)-328-3392,13805 58TH STREET NORTH, CLEARWATER,FL,33760.0,27.8974251,-82.7114511,
58.0,59.0,"400 WEST BAY STREET, JACKSONVILLE, FL, 32202.0",OWCP,"(904)-357-4776



",,400 WEST BAY STREET,JACKSONVILLE,FL,32202.0,30.3269298,-81.6637258,
59.0,60.0,"ONE EAST BROWARD BOULEVARD, FORT LAUDERDALE, FL, 33301.0",OLMS,"(954)-356-6850



",(954)-356-6852,ONE EAST BROWARD BOULEVARD, FORT LAUDERDALE,FL,33301.0,26.1227632,-80.143212,
60.0,61.0,"500 ZACK STREET, TAMPA, FL, 3360.0",OLMS,"(813)-228-2031



",(813)-228-2032,500 ZACK STREET,TAMPA,FL,3360.0,27.9508739,-82.4569026,
61.0,62.0,"61 FORSYTH ST, SOUTH WEST, ATLANTA, GA, 30303.0","OPA, OALJ, WB, BLS, WHD, OFCCP, OLMS, OWCP, ETA, OA, JC, MSHA, OASAM, OIG, OSHA, EBSA, SOL, VETS","(404)-302-3900



",(404)-302-3975,"61 FORSYTH ST, SOUTH WEST",ATLANTA,GA,30303.0,33.7530289,-84.3933404,
62.0,63.0,"2183 NORTH LAKE PARKWAY, BUILDING 7, TUCKER, GA, 30084.0",OSHA,"(770)-493-6644



",(770)-493-7725,2183 NORTH LAKE PARKWAY,TUCKER,GA,30084.0,33.8481597,-84.2450644,
63.0,64.0,"2400 HERODIAN WAY, SMYRNA, GA, 30080.0",OSHA,"(770)-984-8700



",(770)-984-8855,2400 HERODIAN WAY, SMYRNA,GA,30080.0,33.8942146,-84.4734785,
64.0,65.0,"450 MALL BOULEVARD, SAVANNAH, GA, 31406.0",OSHA,"(912)-652-4393



",(912)-652-4329,450 MALL BOULEVARD, SAVANNAH,GA,31406.0,32.0034392,-81.1105199,
65.0,66.0,"124 BARNARD STREET, SAVANNAH, GA, 31401.0",WHD,"(912)-652-4221



",,124 BARNARD STREET, SAVANNAH,GA,31401.0,32.0782409,-81.0940563,
66.0,67.0,"463 COMMERCE PARK DRIVE, MARIETTA, GA, 30060.0",VETS,"(770)-528-8065



",,463 COMMERCE PARK DRIVE, MARIETTA,GA,30060.0,33.9400449,-84.5307138,
67.0,68.0,"300 ALA MOANA BOULEVARD, HONOLULU, HI, 96850.0","WHD, OLMS","(808)-541-1361



",,300 ALA MOANA BOULEVARD,HONOLULU,HI,96850.0,21.303405,-157.8617926,
68.0,69.0,"830 PUNCHBOWL STREET, HONOLULU, HI, 96813.0",VETS,"(808)-522-8216



",(808)-586-9258,830 PUNCHBOWL STREET,HONOLULU,HI,96813.0,21.3041532,-157.8610278,
69.0,70.0,"1150 NORTH CURTIS ROAD, BOISE, ID, 83706.0",OSHA,"(208)-321-2960



",(208)-321-2966,1150 NORTH CURTIS ROAD, BOISE,ID,83706.0,43.6147398,-116.2525069,
70.0,71.0,"317 WEST MAIN STREET, BOISE, ID, 83702.0",VETS,"



",(208)-334-6389,317 WEST MAIN STREET, BOISE,ID,83702.0,43.6127139,-116.198365,
71.0,72.0,"230 SOUTH DEARBORN STREET, CHICAGO, IL, 60604.0","OPA, OALJ, WB, BLS, WHD, OFCCP, OLMS, OWCP, ETA, OA, JC, MSHA, OASAM, OIG, OSHA, EBSA, SOL, VETS","(312)-353-2220



",(312)-353-7774,230 SOUTH DEARBORN STREET,CHICAGO,IL,60604.0,41.8784148,-87.6298137,
72.0,73.0,"200 WEST ADAMS STREET, CHICAGO, IL, 60606.0",EBSA,"(312)-353-0900



",(312)-353-1023,200 WEST ADAMS STREET, CHICAGO,IL,60606.0,41.8796875,-87.6343426,
73.0,74.0,"1600 167TH STREET, CALUMET CITY, IL, 60409.0",OSHA,"(708)-891-3800



",(708)-862-9659,1600 167TH STREET, CALUMET CITY,IL,60409.0,41.5869824,-87.5609356,
74.0,75.0,"701 LEE STREET, STE 950, DES PLAINES, IL, 60016.0",OSHA,"(847)-803-4800



",(847)-390-8220,701 LEE STREET,DES PLAINES,IL,60016.0,42.0403857,-87.8884563,
75.0,76.0,"11 EXECUTIVE DRIVE, FAIRVIEW HEIGHTS, IL, 62208.0",OSHA,"(618)-632-8612



",(618)-632-5712,11 EXECUTIVE DRIVE, FAIRVIEW HEIGHTS,IL,62208.0,38.6010306,-89.9789088,
76.0,77.0,"365 SMOKE TREE PLAZA, NORTH AURORA, IL, 60542.0",OSHA,"(630)-896-8700



",(630)-892-2160,365 SMOKE TREE PLAZA,NORTH AURORA,IL,60542.0,41.8061399,-88.3272952,
77.0,78.0,"1320 WEST COMMERCE DRIVE, PEORIA, IL, 61615.0",OSHA,"(309)-589-7033



",,1320 WEST COMMERCE DRIVE,PEORIA,IL,61615.0,40.800938,-89.612891,
78.0,79.0,"3161 WEST WHITE OAKS DRIVE, SPRINGFIELD, IL, 62704.0",WHD,"(217)-793-5028



",,3161 WEST WHITE OAKS DRIVE, SPRINGFIELD,IL,62704.0,39.7598214,-89.7097772,
79.0,80.0,"33 SOUTH STATE STREET, 8TH FLOOR, CHICAGO, IL, 60603.0",VETS,"(312)-793-3433



",(312)-793-4795,33 SOUTH STATE STREET,CHICAGO,IL,60603.0,41.8811838,-87.6274898,
80.0,81.0,"800 LANCER LANE, GRAYSLAKE, IL, 60030.0",OIG,"(847)-543-7400



",(847)-543-7465,800 LANCER LANE, GRAYSLAKE,IL,60030.0,42.3596084,-88.0112953,
81.0,82.0,"46 EAST OHIO STREET, INDIANAPOLIS, IN, 46204.0",OSHA,"(317)-226-7290



",(317)-226-7292,46 EAST OHIO STREET,INDIANAPOLIS,IN,46204.0,39.7703387,-86.1565602,
82.0,83.0,"46 EAST OHIO STREET, INDIANAPOLIS, IN, 46204.0",WHD,"(317)-226-6801



",,46 EAST OHIO STREET,INDIANAPOLIS,IN,46204.0,39.7703387,-86.1565602,
83.0,84.0,"2420 VIRIDIAN DRIVE, SOUTH BEND, IN, 46628.0",WHD,"(574)-236-8331



",,2420 VIRIDIAN DRIVE, SOUTH BEND,IN,46628.0,41.7106487,-86.2947093,
84.0,85.0,"10 NORTH SENATE AVENUE, INDIANAPOLIS, IN, 46204.0",VETS,"(317)-232-6805



",(317)-233-5720,10 NORTH SENATE AVENUE,INDIANAPOLIS,IN,46204.0,39.767623,-86.164142,
85.0,86.0,"2300 WILLOW STREET, VINCENNES, IN, 47591.0",MSHA,"(812)-882-7617



",,2300 WILLOW STREET, VINCENNES,IN,47591.0,38.657403,-87.5302768,
86.0,87.0,"210 WALNUT STREET, ROOM 815, DES MOINES, IA, 50309.0","OSHA, WHD","(515)-284-4794



",(515)-284-4058,210 WALNUT STREET,DES MOINES,IA,50309.0,41.5863408,-93.6200909,
87.0,88.0,"430 EAST GRAND AVENUE, DES MOINES, IA, 50309.0",VETS,"(515)-281-9061



",(515)-281-9063,430 EAST GRAND AVENUE,DES MOINES,IA,50309.0,41.590811,-93.612223,
88.0,89.0,"271 WEST 3RD STREET, NORTH WICHITA, KS, 67202.0","EBSA, OSHA","(316)-269-6644



",(316)-269-6185,271 WEST 3RD STREET,NORTH WICHITA,KS,67202.0,37.69117,-97.339982,
89.0,90.0,"400 STATE AVENUE, KANSAS CITY, KS, 66101.0",VETS,"(913)-551-5721



",,400 STATE AVENUE, KANSAS CITY,KS,66101.0,39.117372,-94.618262,
90.0,91.0,"900 SOUTH WEST JACKSON, TOPEKA, KS, 66612.0",VETS,"(785)-296-5032



",,900 SOUTH WEST JACKSON, TOPEKA,KS,66612.0,39.04776,-95.676616,
91.0,92.0,"1885 DIXIE HWY, FORT WRIGHT, KY, 41011.0",EBSA,"(859)-578-4680



",(859)-578-4688,1885 DIXIE HWY,FORT WRIGHT,KY,41011.0,39.0575375,-84.5429981,
92.0,93.0,"330 WEST BROADWAY, FRANKFORT, KY, 40601.0",OSHA,"(502)-227-7024



",(502)-227-2348,330 WEST BROADWAY,FRANKFORT,KY,40601.0,38.2007836,-84.8775554,
93.0,94.0,"332 WEST BROADWAY, LOUISVILLE, KY, 40202.0",WHD,"



",,332 WEST BROADWAY, LOUISVILLE,KY,40202.0,38.2457868,-85.7580405,
94.0,95.0,"275 EAST MAIN STREET, FRANKFORT, KY, 40621.0",VETS,"(502)-564-7062



",(502)-564-1476,275 EAST MAIN STREET,FRANKFORT,KY,40621.0,38.1974157,-84.8612337,
95.0,96.0,"100 FAE RAMSEY LANE, PIKEVILLE, KY, 41501.0",MSHA,"(606)-432-0943



",,100 FAE RAMSEY LANE,PIKEVILLE,KY,41501.0,37.5230383,-82.5699108,
96.0,97.0,"3837 SOUTH US HIGHWAY, 25E, BARBOURVILLE, KY, 40906.0",MSHA,"(606)-546-5123



",,3837 SOUTH US HIGHWAY,BARBOURVILLE,KY,40906.0,36.8688208,-83.8396897,
97.0,98.0,"100 YMCA DRIVE, MADISONVILLE, KY, 42431.0",MSHA,"



",,100 YMCA DRIVE,MADISONVILLE,KY,42431.0,37.3556723,-87.4965139,
98.0,99.0,"9100 BLUEBONNET CENTRE BOULEVARD, BATON ROUGE, LA, 70809.0",OSHA,"(225)-298-5458



",(225)-298-5457,9100 BLUEBONNET CENTRE BOULEVARD, BATON ROUGE,LA,70809.0,30.3972319,-91.0867646,
99.0,100.0,"600 SOUTH MAESTRI PLACE, NEW ORLEANS, LA, 70130.0",WHD,"(504)-589-6171



",,600 SOUTH MAESTRI PLACE,NEW ORLEANS,LA,70130.0,29.9475171,-90.0704498,
100.0,101.0,"1001 NORTH 23RD STREET, BATON ROUGE, LA, 70802.0",VETS,"(225)-389-0339



",(225)-342-3152,1001 NORTH 23RD STREET,BATON ROUGE,LA,70802.0,30.4579478,-91.1657356,
101.0,102.0,"5100 VILLAGE WALK, CONVINGTON, LA, 70433.0",OALJ,"(985)-809-5173



",(985)-893-7351,5100 VILLAGE WALK, CONVINGTON,LA,70433.0,30.4778249,-90.0920444,
102.0,103.0,"600 SOUTH MAESTRI PLACE, NEW ORLEANS, LA, 70130.0",OLMS,"(504)-589-6174



",,600 SOUTH MAESTRI PLACE,NEW ORLEANS,LA,70130.0,29.9475171,-90.0704498,
103.0,104.0,"382 HARLOW STREET, BANGOR, ME, 4401.0",OSHA,"(207)-941-8177



",(207)-941-8179,382 HARLOW STREET,BANGOR,ME,4401.0,44.8055505,-68.7744272,
104.0,105.0,"40 WESTERN AVENUE, AUGUSTA, ME, 4330.0",OSHA,"(207)-626-9160



",(207)-622-8213,40 WESTERN AVENUE,AUGUSTA,ME,4330.0,44.310975,-69.7837465,
105.0,106.0,"5 MOLLISON WAY, STEAST 104, LEWISTON, ME, 4240.0",VETS,"(207)-753-9090



",(207)-783-5304,5 MOLLISON WAY,LEWISTON,ME,4240.0,44.123716,-70.1996659,
106.0,107.0,"1335 EAST-WEST HWY, SILVER SPRING, MD, 20910.0",EBSA,"(202)-693-8700



",(202)-693-8736,1335 EAST-WEST HWY, SILVER SPRING,MD,20910.0,38.9933883,-77.0315732,
107.0,108.0,"1099 WINTERSON ROAD, LINTHICUM, MD, 21090.0",OSHA,"(410)-865-2055

(410)-865-2056

",(410)-865-2068,1099 WINTERSON ROAD, LINTHICUM,MD,21090.0,39.2050353,-76.6767743,
108.0,109.0,"103 SOUTH GAY STREET, BALTIMORE, MD, 21202.0",WHD,"(410)-962-6211



",,103 SOUTH GAY STREET,BALTIMORE,MD,21202.0,39.2875397,-76.608596,
109.0,110.0,"6525 BELCREST ROAD, HYATTSVILLE, MD, 20782.0",WHD,"(410)-962-6211



",,6525 BELCREST ROAD, HYATTSVILLE,MD,20782.0,38.969569,-76.953156,
110.0,111.0,"POST OFFICE BUILDING, STE 114, SALISBURY, MD, 21803.0",WHD,"(410)-962-6211



",,POST OFFICE BUILDING,SALISBURY,MD,21803.0,38.294073,-75.690774,
111.0,112.0,"1100 NORTH EUTAW STREET, BALTIMORE, MD, 21201.0",VETS,"(410)-767-2110

(410)-767-2111

",(410)-333-5136,1100 NORTH EUTAW STREET,BALTIMORE,MD,21201.0,39.3022741,-76.6248692,
112.0,113.0,"14 NORTH POTOMAC STREET, STE 100, HAGERSTOWN, MD, 21740.0",VETS,"(301)-393-8253



",(301)-393-2654,14 NORTH POTOMAC STREET,HAGERSTOWN,MD,21740.0,39.642218,-77.7194414,
113.0,114.0,"15 NEW SUDBURY STREET, BOSTON, MA, 2203.0","OPA, ALJ, WB, BLS, WHD, OFCCP, OLMS, OWCP, ETA, OA, JC, MSHA, OASAM, OIG, OSHA, EBSA, SOL, VETS","(617)-565-9600



",(617)-565-9666,15 NEW SUDBURY STREET,BOSTON,MA,2203.0,NA,NA,
114.0,115.0,"138 RIVER ROAD, ANDOVER, MA, 1810.0",OSHA,"(978)-837-4460



",(978)-837-4455,138 RIVER ROAD, ANDOVER,MA,1810.0,42.690849,-71.210585,
115.0,116.0,"639 GRANITE STREET, 4TH FLOOR, 4TH FLOOR BRAINTREE, MA, 2184.0",OSHA,"(617)-565-6924



",(617)-565-6923,639 GRANITE STREET, 4TH FLOOR BRAINTREE,MA,2184.0,42.209873,-71.021621,
116.0,117.0,"1441 MAIN STREET, SPRINGFIELD, MA, 1103.0",OSHA,"(413)-785-0123



",(413)-785-0136,1441 MAIN STREET,SPRINGFIELD,MA,1103.0,42.1031799,-72.5904228,
117.0,118.0,"104 DEAN STREET, TAUNTON, MA, 2780.0",VETS,"(508)-821-9106



",,104 DEAN STREET,TAUNTON,MA,2780.0,41.9050553,-71.0749527,
118.0,119.0,"19 STANIFORD STREET, 1ST FLOOR, BOSTON, MA, 2114.0",VETS,"(617)-626-6699



",(617)-727-2330,19 STANIFORD STREET,BOSTON,MA,2114.0,42.3620373,-71.0635527,
119.0,120.0,"211 WEST FORT STREET, DETROIT, MI, 48226.0","EBSA, WHD","(313)-226-7450



",(313)-226-4257,211 WEST FORT STREET, DETROIT,MI,48226.0,42.3294776,-83.0491958,
120.0,121.0,"315 WEST ALLEGAN STREET, LANSING, MI, 48933.0",OSHA,"(517)-487-4996



",(517)-487-4997,315 WEST ALLEGAN STREET, LANSING,MI,48933.0,42.732087,-84.556241,
121.0,122.0,"800 MONROE AVENUE, NORTH WEST, GRAND RAPIDS, MI, 49503.0",WHD,"(616)-456-2004



",,"800 MONROE AVENUE, NORTH WEST",GRAND RAPIDS,MI,49503.0,42.9768973,-85.6718133,
122.0,123.0,"331 SECOND AVENUE SOUTH, TRI-TECH CENTER, MINNEAPOLIS, MN, 55401.0",WHD,"(612)-370-3341



",,331 SECOND AVENUE SOUTH,MINNEAPOLIS,MN,55401.0,44.9836543,-93.2693572,
123.0,124.0,"1ST BANK BUILDING, ST PAUL, MN, 55101.0",VETS,"(651)-259-7511



",(651)-282-2711,1ST BANK BUILDING,ST PAUL,MN,55101.0,44.9468547,-93.0908888,
124.0,125.0,"515 WEST 1ST STREET, #333, DULUTH, MN, 55802.0",MSHA,"



",,515 WEST 1ST STREET,DULUTH,MN,55802.0,46.7826122,-92.106712,
125.0,126.0,"900 SECOND AVENUE SOUTH, MINNEAPOLIS, MN, 55402.0",OLMS,"(612)-370-3111



",(612)-370-3107,900 SECOND AVENUE SOUTH, MINNEAPOLIS,MN,55402.0,44.97367,-93.2718809,
126.0,127.0,"3780 I-55 NORTH, JACKSON, MS, 39211.0",OSHA,"(601)-965-4606



",(601)-965-4610,3780 I-55 NORTH, JACKSON,MS,39211.0,32.3386912,-90.1594708,
127.0,128.0,"100 WEST CAPITOL STREET, JACKSON, MS, 39269.0",WHD,"(601)-965-4347



",,100 WEST CAPITOL STREET, JACKSON,MS,39269.0,32.3008392,-90.1889894,
128.0,129.0,"1235 ECHELON PARKWAY, JACKSON, MS, 39215.0",VETS,"



",(601)-321-6187,1235 ECHELON PARKWAY,JACKSON,MS,39215.0,32.3965542,-90.1843507,
129.0,130.0,"201 NORTH WASHINGTON SQUARE, LANSING, MS, 48913.0",VETS,"(517)-241-6937



",(517)-373-1117,201 NORTH WASHINGTON SQUARE,LANSING,MS,48913.0,42.734868,-84.552716,
130.0,131.0,"2 PERSHING SQUARE 2300 MAIN STREET, KANSAS CITY, MO, 64108.0","OPA, ALJ, WB, BLS, WHD, OFCCP, OLMS, OWCP, ETA, OA, JC, MSHA, OASAM, OIG, OSHA, EBSA, SOL, VETS","



",,2 PERSHING SQUARE 2300 MAIN STREET,KANSAS CITY,MO,64108.0,39.085806,-94.5847469,
131.0,132.0,"1222 SPRUCE STREET, ST LOUIS, MO, 63103.0","WHD, OSHA, EBSA, OLMS","(314)-425-4249



",(314)-425-4289,1222 SPRUCE STREET,ST LOUIS,MO,63103.0,38.6242212,-90.1999297,
132.0,133.0,"2300 MAIN STREET, KANSAS CITY, MO, 64108.0",OSHA,"



",,2300 MAIN STREET, KANSAS CITY,MO,64108.0,39.085806,-94.5847469,
133.0,134.0,"421 EAST DUNKLIN STREE, JEFFERSON CITY, MO, 65101.0",VETS,"(573)-751-3921



",(573)-751-6710,421 EAST DUNKLIN STREE,JEFFERSON CITY,MO,65101.0,38.5699429,-92.1721247,
134.0,135.0,"2300 MAIN STREET, KANSAS CITY, MO, 64108.0",VETS,"(816)-285-1800



",(816)-285-1888,2300 MAIN STREET, KANSAS CITY,MO,64108.0,39.085806,-94.5847469,
135.0,136.0,"2900 4TH AVENUE NORTH, BILLINGS, MT, 59101.0",OSHA,"(406)-247-7494



",(406)-247-7499,2900 4TH AVENUE NORTH, BILLINGS,MT,59101.0,45.783552,-108.509375,
136.0,137.0,"715 FRONT STREET, HELENA, MT, 59601.0",OSHA,"(406)-447-3233



",(406)-447-3213,715 FRONT STREET,HELENA,MT,59601.0,46.593887,-112.036895,
137.0,138.0,"444 REGENCY PARKWAY DRIVE, OMAHA, NE, 68114.0",OSHA,"(402)-553-0171



",(402)-551-1288,444 REGENCY PARKWAY DRIVE, OMAHA,NE,68114.0,41.2546789,-96.0755031,
138.0,139.0,"111 SOUTH 18TH PLAZA, OMAHA, NE, 68102.0",WHD,"(402)-221-4682



",,111 SOUTH 18TH PLAZA, OMAHA,NE,68102.0,41.259166,-95.9397038,
139.0,140.0,"550 SOUTH 16TH STREET, LINCOLN, NE, 68508.0",VETS,"



",,550 SOUTH 16TH STREET,LINCOLN,NE,68508.0,40.808419,-96.697805,
140.0,141.0,"600 LAS VEGAS BOULEVARD SOUTH, LAS VEGAS, NV, 89101.0",WHD,"(702)-388-6001



",,600 LAS VEGAS BOULEVARD SOUTH, LAS VEGAS,NV,89101.0,36.1632674,-115.1449685,
141.0,142.0,"59 EAST WINNIE LANE, CARSON CITY, NV, 89706.0",VETS,"(775)-687-4632



",(775)-687-3976,59 EAST WINNIE LANE,CARSON CITY,NV,89706.0,39.1791628,-119.7663416,
142.0,143.0,"53 PLEASANT STREET, CONCORD, NH, 3301.0","OSHA, VETS","(603)-225-1629



",(603)-225-1580,53 PLEASANT STREET,CONCORD,NH,3301.0,43.2024699,-71.5394765,
143.0,144.0,"1750 ELM STREET, MANCHESTER, NH, 3104.0",WHD,"



",,1750 ELM STREET, MANCHESTER,NH,3104.0,43.0038057,-71.4658029,
144.0,145.0,"299 CHERRY HILL ROAD, PARSIPPANY, NJ, 7054.0",OSHA,"(973)-263-1003



",(973)-299-7161,299 CHERRY HILL ROAD, PARSIPPANY,NJ,7054.0,40.8693077,-74.4381301,
145.0,146.0,"701 ROUTE 73 SOUTH, MARLTON, NJ, 8053.0",OSHA,"(856)-396-2594



",(856)-396-2593,701 ROUTE 73 SOUTH, MARLTON,NJ,8053.0,39.9048055,-74.9379291,
146.0,147.0,"500 ROUTE 17 SOUTH, HASBROUCK HEIGHTS, NJ, 7604.0",OSHA,"(201)-288-1700



",(201)-288-7315,500 ROUTE 17 SOUTH,HASBROUCK HEIGHTS,NJ,7604.0,40.8692127,-74.0632296,
147.0,148.0,"1030 ST. GEORGES AVENUE, PLAZA 35, AVENEL, NJ, 7001.0",OSHA,"(732)-750-3270



",(732)-750-4737,1030 ST. GEORGES AVENUE,AVENEL,NJ,7001.0,NA,NA,
148.0,149.0,"200 SHEFFIELD STREET, MOUNTAINSIDE, NJ, 7092.0",WHD,"(908)-317-8611



",,200 SHEFFIELD STREET,MOUNTAINSIDE,NJ,7092.0,40.7250627,-74.3440848,
149.0,150.0,"3131 PRINCETON PIKE, BLD. 5, LAWRENCEVILLE, NJ, 8648.0",WHD,"(609)-538-8310



",,3131 PRINCETON PIKE,LAWRENCEVILLE,NJ,8648.0,40.2833838,-74.7160816,
150.0,151.0,"2 EXECUTIVE CAMPUS, CHERRY HILL, NJ, 8002.0",OALJ,"(856)-486-3800



",(856)-486-3806,2 EXECUTIVE CAMPUS, CHERRY HILL,NJ,8002.0,39.9289893,-75.0531242,
151.0,152.0,"500 GOLD, SOUTH WEST, ALBUQUERQUE, NM, 87102.0",WHD,"(505)-248-6100



",,"500 GOLD, SOUTH WEST",ALBUQUERQUE,NM,87102.0,35.0835546,-106.6534318,
152.0,153.0,"401 BROADWAY BOULEVARD NORTH EAST, ALBUQUERQUE, NM, 87102.0",VETS,"(505)-346-7502



",(505)-242-6179,401 BROADWAY BOULEVARD NORTH EAST,ALBUQUERQUE,NM,87102.0,35.0869973,-106.6447176,
153.0,154.0,"201 VARICK STREET, NEW YORK, NY, 10014.0","OPA, ALJ, WB, BLS, WHD, OFCCP, OLMS, OWCP, ETA, OA, JC, MSHA, OASAM, OIG, OSHA, EBSA, SOL, VETS","(212)-337-2378



",(212)-337-2371,201 VARICK STREET,NEW YORK,NY,10014.0,40.7282299,-74.0056049,
154.0,155.0,"33 WHITEHALL STREET, NEW YORK, NY, 10004.0",EBSA,"(212)-607-8600



",(212)-607-8681,33 WHITEHALL STREET, NEW YORK,NY,10004.0,40.7033309,-74.0128766,
155.0,156.0,"660 WHITE PLAINS ROAD, 4TH FLOOR TARRYTOWN, NY, 10591.0",EBSA,"(914)-524-7510



",(914)-524-7515,660 WHITE PLAINS ROAD, 4TH FLOOR TARRYTOWN,NY,10591.0,41.0602037,-73.8346634,
156.0,157.0,"3300 VICKERY ROAD, NORTH SYRACUSE, NY, 13212.0",EBSA,"(315)-451-0808



",(315)-451-1351,3300 VICKERY ROAD,NORTH SYRACUSE,NY,13212.0,43.107977,-76.158497,
157.0,158.0,"1400 OLD COUNTRY ROAD, WESTBURY, NY, 11590.0",EBSA,"(516)-334-3344



",(516)-334-3326,1400 OLD COUNTRY ROAD, WESTBURY,NY,11590.0,40.7557628,-73.5517743,
158.0,159.0,"130 SOUTH ELMWOOD AVENUE, BUFFALO, NY, 14202.0",EBSA,"(716)-551-3053



",(716)-551-3126,130 SOUTH ELMWOOD AVENUE, BUFFALO,NY,14202.0,42.8890285,-78.8795419,
159.0,160.0,"45-17 MARATHON PARKWAY, LITTLE NECK, NY, 11362.0",EBSA,"(718)-279-9060



",(718)-279-9057,45-17 MARATHON PARKWAY,LITTLE NECK,NY,11362.0,40.7681021,-73.7369413,
160.0,161.0,"401 NEW KARNER ROAD, ALBANY, NY, 12205.0",OSHA,"(518)-464-4338



",(518)-464-4337,401 NEW KARNER ROAD, ALBANY,NY,12205.0,42.7337304,-73.8475288,
161.0,162.0,"RM 822, ALBANY, NY, 12207.0",WHD,"(518)-431-4278



",,RM 822,ALBANY,NY,12207.0,42.6542443,-73.7479008,
162.0,163.0,"625 FULTON STREET, 7TH FLOOR, BROOKLYN, NY, 11201.0",WHD,"(718)-254-9410



",,625 FULTON STREET,BROOKLYN,NY,11201.0,40.6888433,-73.9796855,
163.0,164.0,"625 FULTON STREET, 7TH FLOOR, BROOKLYN, NY, 11201.0",WHD,"(718)-254-9410



",,625 FULTON STREET,BROOKLYN,NY,11201.0,40.6888433,-73.9796855,
164.0,165.0,"1400 OLD COUNTRY ROAD, WESTBURY, NY, 11590.0",WHD,"(516)-338-1890



",,1400 OLD COUNTRY ROAD, WESTBURY,NY,11590.0,40.7557628,-73.5517743,
165.0,166.0,"26 FEDERAL PLAZA, NEW YORK, NY, 10278.0",WHD,"(212)-264-8185



",,26 FEDERAL PLAZA,NEW YORK,NY,10278.0,40.7155856,-74.0042622,
166.0,167.0,"100 SOUTH CLINTON STREET, SYRACUSE, NY, 13261.0",WHD,"(315)-448-0630



",,100 SOUTH CLINTON STREET,SYRACUSE,NY,13261.0,43.0502279,-76.154804,
167.0,168.0,"140 GRAND STREET, WHITE PLAINS, NY, 10601.0",WHD,"(914)-682-6348



",,140 GRAND STREET, WHITE PLAINS,NY,10601.0,41.0292774,-73.7682851,
168.0,169.0,"450 SOUTH SALINA STREET, SYRACUSE, NY, 13202.0",VETS,"(315)-479-3203



",(315)-479-3200,450 SOUTH SALINA STREET,SYRACUSE,NY,13202.0,43.0456343,-76.1527741,
169.0,170.0,"9 BOND STREET, BROOKLYN, NY, 11201.0",VETS,"(718)-613-3677



",(718)-613-3685,9 BOND STREET,BROOKLYN,NY,11201.0,40.6891527,-73.9828687,
170.0,171.0,"130 SOUTH ELMWOOD STREET, BUFFALO, NY, 14202.0",OLMS,"(716)-842-2900



",(716)-842-2901,130 SOUTH ELMWOOD STREET, BUFFALO,NY,14202.0,42.8890285,-78.8795419,
171.0,172.0,"4407 BLAND ROAD, SOMERSET PARK, RALEIGH, NC, 27609.0","OSHA, WHD","(919)-790-8096



",(919)-790-8224,4407 BLAND ROAD,RALEIGH,NC,27609.0,35.8409242,-78.6228504,
172.0,173.0,"3800 ARCO CORPORATE DRIVE, CHARLOTTE, NC, 28273.0",WHD,"(704)-749-3360



",,3800 ARCO CORPORATE DRIVE, CHARLOTTE,NC,28273.0,35.1523929,-80.949275,
173.0,174.0,"700 WADE AVENUE, RALEIGH, NC, 27605.0",VETS,"(919)-733-7402

(919)-733-7407

",(919)-733-1508,700 WADE AVENUE,RALEIGH,NC,27605.0,35.7976047,-78.6533335,
174.0,175.0,"1640 EAST CAPITOL AVENUE, BISMARCK, ND, 58501.0",OSHA,"(701)-250-4521



",(701)-250-4520,1640 EAST CAPITOL AVENUE,BISMARCK,ND,58501.0,46.8296404,-100.7676126,
175.0,176.0,"1000 EAST DIVIDE AVENUE, BISMARCK, ND, 58501.0",VETS,"(701)-250-4337



",(701)-328-2890,1000 EAST DIVIDE AVENUE,BISMARCK,ND,58501.0,46.8239558,-100.7772089,
176.0,177.0,"1240 EAST 9TH STREET, CLEVELAND, OH, 44199.0","OSHA, WHD, SOL, OLMS","(216)-615-4266



",(216)-615-4234,1240 EAST 9TH STREET,CLEVELAND,OH,44199.0,41.5048281,-81.6918989,
177.0,178.0,"200 NORTH HIGH STREET, COLUMBUS, OH, 43215.0","OSHA, WHD","(614)-469-5582



",(614)-469-6791,200 NORTH HIGH STREET,COLUMBUS,OH,43215.0,39.966703,-83.000987,
178.0,179.0,"36 TRIANGLE PARK DRIVE, CINCINNATI, OH, 45246.0",OSHA,"(513)-841-4132



",(513)-841-4114,36 TRIANGLE PARK DRIVE,CINCINNATI,OH,45246.0,39.2884515,-84.446299,
179.0,180.0,"420 MADISON AVENUE, TOLEDO, OH, 43604.0",OSHA,"(419)-259-7542



",(419)-259-6355,420 MADISON AVENUE, TOLEDO,OH,43604.0,41.6518868,-83.5354172,
180.0,181.0,"550 MAIN STREET, CINCINNATI, OH, 45202.0",WHD,"(513)-684-2908



",,550 MAIN STREET,CINCINNATI,OH,45202.0,39.1025458,-84.5095669,
181.0,182.0,"4020 EAST 5TH AVENUE, COLUMBUS, OH, 43219.0",VETS,"(614)-466-2768



",(614)-752-5007,4020 EAST 5TH AVENUE,COLUMBUS,OH,43219.0,39.9871865,-82.8980153,
182.0,183.0,"36 EAST 7TH STREET, CINCINNATI, OH, 45202.0",OALJ,"(513)-684-3252



",(513)-684-6108,36 EAST 7TH STREET, CINCINNATI,OH,45202.0,39.1040044,-84.5126292,
183.0,184.0,"36 EAST SEVENTH STREET, CINCINNATI, OH, 45202.0",OLMS,"(513)-684-6840



",(513)-684-6845,36 EAST SEVENTH STREET,CINCINNATI,OH,45202.0,39.1040044,-84.5126292,
184.0,185.0,"55 NORTH ROBINSON, STE 315, OKLAHOMA CITY, OK, 73102.0",OSHA,"(405)-278-9560



",(405)-278-9572,55 NORTH ROBINSON,OKLAHOMA CITY,OK,73102.0,35.467301,-97.516899,
185.0,186.0,"OLD POST OFFICE BUILDING, OKLAHOMA CITY, OK, 73102.0",WHD,"(405)-231-4158



",,OLD POST OFFICE BUILDING,OKLAHOMA CITY,OK,73102.0,35.4711808,-97.516602,
186.0,187.0,"1645 SOUTH 101 EAST AVENUE, TULSA, OK, 74128.0",WHD,"(918)-581-6303



",,1645 SOUTH 101 EAST AVENUE, TULSA,OK,74128.0,36.1392777,-95.8633837,
187.0,188.0,"1220 SOUTHWEST 3RD AVENUE, PORTLAND, OR, 97204.0",OSHA,"(503)-326-2251



",(503)-326-3574,1220 SOUTHWEST 3RD AVENUE,PORTLAND,OR,97204.0,45.514475,-122.677077,
188.0,189.0,"620 SOUTH WEST MAIN STREET, PORTLAND, OR, 97205.0",WHD,"(503)-326-3057



",,620 SOUTH WEST MAIN STREET,PORTLAND,OR,97205.0,45.5163022,-122.6807008,
189.0,190.0,"875 UNION STREET, NORTH EAST, SALEM, OR, 97311.0",VETS,"(503)-947-1490



",(503)-947-1492,"875 UNION STREET, NORTH EAST",SALEM,OR,97311.0,44.944149,-123.0285156,
190.0,191.0,"7795 SOUTH WEST MOHAWK STREET, TUALATIN, OR, 97062.0",VETS,"(503)-612-4328



",(503)-612-4250,7795 SOUTH WEST MOHAWK STREET,TUALATIN,OR,97062.0,45.3765772,-122.7572084,
191.0,192.0,"170 S INDEPENDENCE MALL WEST, PHILADELPHIA, PA, 19106.0","OPA, ALJ, WB, BLS, WHD, OFCCP, OLMS, OWCP, ETA, OA, JC, MSHA, OASAM, OIG, OSHA, EBSA, SOL, VETS ","



",,170 S INDEPENDENCE MALL WEST, PHILADELPHIA,PA,19106.0,39.9480642,-75.1512499,
192.0,193.0,"1000 LIBERTY AVENUE, PITTSBURGH, PA, 15222.0","WHD, OALJ, OLMS","(412)-395-4996



",,1000 LIBERTY AVENUE, PITTSBURGH,PA,15222.0,40.4435483,-79.9944514,
193.0,194.0,"7 NORTH WILKES-BARRE BLVD, WILKES-BARRE, PA, 18702.0","MSHA, WHD","(570)-826-6321



",,7 NORTH WILKES-BARRE BLVD, WILKES-BARRE,PA,18702.0,41.2421334,-75.8784188,
194.0,195.0,"US CUSTOM HOUSE, PHILADELPHIA, PA, 19106.0",WHD,"(215)-597-4950



",,US CUSTOM HOUSE,PHILADELPHIA,PA,19106.0,39.9483066,-75.1446729,
195.0,196.0,"1000 LIBERTY AVENUE, PITTSBURGH, PA, 15222.0",WHD,"(412)-395-4996



",,1000 LIBERTY AVENUE, PITTSBURGH,PA,15222.0,40.4435483,-79.9944514,
196.0,197.0,"7 NORTH WILKES BARRE BOULEVARD, STEGMAIER BLDG, WILKES BARRE, PA, 18702.0",WHD,"(570)-826-6316



",,7 NORTH WILKES BARRE BOULEVARD,WILKES BARRE,PA,18702.0,41.2459149,-75.8813075,
197.0,198.0,"651 BOSA STREET, HARRISBURG, PA, 17121.0",VETS,"(717)-787-5834



",(717)-783-2631,651 BOSA STREET,HARRISBURG,PA,17121.0,40.269291,-76.8827971,
198.0,199.0,"218 NORTH KIMBERLY AVENUE, SOMERSET, PA, 15501.0",VETS,"(814)-445-4161



",(814)-445-3913,218 NORTH KIMBERLY AVENUE,SOMERSET,PA,15501.0,40.009751,-79.075853,
199.0,200.0,"425 6TH AVENUE, PITTSBURGH, PA, 15219.0",VETS,"(412)-552-7023



",(412)-552-7051,425 6TH AVENUE,PITTSBURGH,PA,15219.0,40.5319681,-80.0229428,
200.0,201.0,"841 VOGELSONG RD, YORK, PA, 17404.0",VETS,"



",,841 VOGELSONG RD,YORK,PA,17404.0,39.983315,-76.753734,
201.0,202.0,"701 CROSBY STREET, CHESTER, PA, 19013.0",VETS,"(610)-447-3306



",,701 CROSBY STREET, CHESTER,PA,19013.0,39.852167,-75.3583139,
202.0,203.0,"631 EXCEL DRIVE, MT. PLEASANT, PA, 15666.0",MSHA,"(724)-925-5150



",,631 EXCEL DRIVE, MT. PLEASANT,PA,15666.0,40.1489607,-79.5411497,
203.0,204.0,"547 KEYSTONE DRIVE, WARRENDALE, PA, 15086.0",MSHA,"



",,547 KEYSTONE DRIVE, WARRENDALE,PA,15086.0,40.66777,-80.112291,
204.0,205.0,"380 WESTMINSTER MALL, PROVIDENCE, RI, 2903.0","OSHA, WHD","(401)-528-4669



",(401)-528-4663,380 WESTMINSTER MALL,PROVIDENCE,RI,2903.0,NA,NA,
205.0,206.0,"249 BLACKSTONE BOULEVARD, PROVIDENCE, RI, 2906.0",VETS,"(401)-243-1281



",(401)-243-1240,249 BLACKSTONE BOULEVARD,PROVIDENCE,RI,2906.0,41.842132,-71.385101,
206.0,207.0,"1835 ASSEMBLY STREET, COLUMBIA, SC, 29201.0","OSHA, WHD","(803)-765-5904



",(803)-765-5591,1835 ASSEMBLY STREET,COLUMBIA,SC,29201.0,34.0091659,-81.0400781,
207.0,208.0,"631 HAMPTON STREET, COLUMBIA, SC, 29202.0",VETS,"(803)-737-7650

(803)-737-7652

(803)-737-7649",(803)-737-7656,631 HAMPTON STREET, COLUMBIA,SC,29202.0,34.0025542,-81.0442553,
208.0,209.0,"1550 GADSDEN STREET, COLUMBIA, SC, 29201.0",VETS,"(803)-737-4893



",,1550 GADSDEN STREET,COLUMBIA,SC,29201.0,34.0041472,-81.0417974,
209.0,210.0,"420 SOUTH ROOSEVELT STREET, ABERDEEN, SD, 57402.0",VETS,"(605)-626-2325



",(605)-626-2359,420 SOUTH ROOSEVELT STREET,ABERDEEN,SD,57402.0,45.460518,-98.4549274,
210.0,211.0,"51 CENTURY BOULEVARD, NASHVILLE, TN, 37214.0",OSHA,"(615)-232-3803



",(615)-232-3827,51 CENTURY BOULEVARD,NASHVILLE,TN,37214.0,36.1472401,-86.6833645,
211.0,212.0,"1321 MURFREESBORO ROAD, NASHVILLE, TN, 37217.0",WHD,"(615)-781-5344



",,1321 MURFREESBORO ROAD, NASHVILLE,TN,37217.0,36.1147092,-86.6958704,
212.0,213.0,"710 LOCUST STREET, KNOXVILLE, TN, 37902.0",WHD,"(865)-545-4619



",,710 LOCUST STREET,KNOXVILLE,TN,37902.0,35.9617668,-83.9197342,
213.0,214.0,"167 NORTH MAIN STREET, MEMPHIS, TN, 38103.0",WHD,"(901)-544-3418



",,167 NORTH MAIN STREET,MEMPHIS,TN,38103.0,35.149687,-90.0515906,
214.0,215.0,"350 PAGEANT LANE, STE 406, CLARKSVILLE, TN, 37040.0",VETS,"(931)-572-1688



",(931)-648-6331,350 PAGEANT LANE,CLARKSVILLE,TN,37040.0,36.5207876,-87.3409037,
215.0,216.0,"2238 ROSA L. PARKS BOULEVARD, NASHVILLE, TN, 37228.0",VETS,"(615)-736-7680



",(615)-741-4241,2238 ROSA L. PARKS BOULEVARD,NASHVILLE,TN,37228.0,36.1933595,-86.8039175,
216.0,217.0,"618 CHURCH STREET, NASHVILLE, TN, 37219.0",SOL,"



",,618 CHURCH STREET, NASHVILLE,TN,37219.0,36.1624058,-86.782446,
217.0,218.0,"233 CUMBERLAND BEND DRIVE, NASHVILLE, TN, 37228.0",OLMS,"(615)-736-5906



",(615)-736-7148,233 CUMBERLAND BEND DRIVE,NASHVILLE,TN,37228.0,36.267973,-86.708167,
218.0,219.0,"525 SOUTH GRIFFIN STREET, DALLAS, TX, 75202.0","OPA, ALJ, WB, BLS, WHD, OFCCP, OLMS, OWCP, ETA, OA, JC, MSHA, OASAM, OIG, OSHA, EBSA, SOL, VETS","(972)-850-4500



",(214)-767-1055,525 SOUTH GRIFFIN STREET,DALLAS,TX,75202.0,32.7763675,-96.8025969,
219.0,220.0,"WASHINGTON SQUARE BLVD, SAN ANTONIO, TX, 78207.0","OSHA, WHD","(210)-472-5040



",(210)-472-5045,WASHINGTON SQUARE BLVD, SAN ANTONIO,TX,78207.0,29.4234656,-98.522929,
220.0,221.0,"606 NORTH CARANCAHUA, CORPUS CHRISTI, TX, 78476.0","OSHA, WHD","(361)-888-3420



",(361)-888-3424,606 NORTH CARANCAHUA, CORPUS CHRISTI,TX,78476.0,27.795777,-97.3972639,
221.0,222.0,"1205 TEXAS AVENUE, LUBBOCK, TX, 79401.0",OSHA,"(806)-472-7681



",(806)-472-7686,1205 TEXAS AVENUE,LUBBOCK,TX,79401.0,33.5839923,-101.845121,
222.0,223.0,"1033 LA POSADA DRIVE, STEAST 375, AUSTIN, TX, 78752.0",OSHA,"(512)-374-0271



",(512)-374-0086,1033 LA POSADA DRIVE,AUSTIN,TX,78752.0,30.325015,-97.701644,
223.0,224.0,"8344 EAST RL THORNTON FREEWAY, DALLAS, TX, 75228.0",OSHA,"(214)-320-2400



",(214)-320-2598,8344 EAST RL THORNTON FREEWAY, DALLAS,TX,75228.0,32.7930018,-96.6977821,
224.0,225.0,"4849 NORTH MESA, EL PASO, TX, 79912.0",OSHA,"(915)-534-6251



",(915)-534-6259,4849 NORTH MESA, EL PASO,TX,79912.0,31.807477,-106.5101759,
225.0,226.0,"NORTH STARR II, FORT WORTH, TX, 76180.0",OSHA,"(817)-428-2470



",(817)-581-7723,NORTH STARR II, FORT WORTH,TX,76180.0,32.857956,-97.285833,
226.0,227.0,"507 NORTH SAM HOUSTON PARKWAY EAST, HOUSTON, TX, 77060.0",OSHA,"(281)-591-2438



",(281)-999-7457,507 NORTH SAM HOUSTON PARKWAY EAST, HOUSTON,TX,77060.0,29.9407341,-95.3926138,
227.0,228.0,"17625 EL CAMINO REAL, HOUSTON, TX, 77058.0",OSHA,"(281)-286-0583



",(281)-286-6352,17625 EL CAMINO REAL, HOUSTON,TX,77058.0,29.5496513,-95.1091141,
228.0,229.0,"1205 TEXAS AVENUE, LUBBOCK, TX, 79401.0",OSHA,"(806)-472-7681



",(806)-472-7686,1205 TEXAS AVENUE,LUBBOCK,TX,79401.0,33.5839923,-101.845121,
229.0,230.0,"1117 TRINITY STREET, AUSTIN, TX, 78701.0",OSHA,"(512)-463-2814



",(512)-475-2999,1117 TRINITY STREET,AUSTIN,TX,78701.0,30.2724565,-97.7370989,
230.0,231.0,"4615 WALZEM ROAD, SAN ANTONIO, TX, 78218.0",VETS,"(210)-582-1622



",(210)-826-6068,4615 WALZEM ROAD, SAN ANTONIO,TX,78218.0,29.511161,-98.4007041,
231.0,232.0,"10405 KATY FREEWAY, HOUSTON, TX, 77024.0",VETS,"(713)-465-1677



",(713)-465-4729,10405 KATY FREEWAY, HOUSTON,TX,77024.0,29.7830882,-95.5547153,
232.0,233.0,"1359 LOMALAND DRIVE, STEAST 210, EL PASO, TX, 79935.0",VETS,"(915)-887-2624



",(915)-629-2092,1359 LOMALAND DRIVE,EL PASO,TX,79935.0,31.748881,-106.329144,
233.0,234.0,"301 WEST 13TH STREET, FORT WORTH, TX, 76102.0",VETS,"(817)-336-3727



",(817)-335-0731,301 WEST 13TH STREET, FORT WORTH,TX,76102.0,32.7476121,-97.3316211,
234.0,235.0,"1100 COMMERCE STREET, DALLAS, TX, NA",MSHA,"



",,1100 COMMERCE STREET,DALLAS,TX,   NA,32.778798,-96.8022431,
235.0,236.0,"2320 LABRANCH STREET, HOUSTON, TX, 77004.0",OLMS,"(713)-718-3755



",(713)-718-3757,2320 LABRANCH STREET,HOUSTON,TX,77004.0,29.7444905,-95.3688111,
236.0,237.0,"150 EAST SOCIAL HALL AVENUE, SALT LAKE CITY, UT, 84111.0",WHD,"(801)-524-5706



",,150 EAST SOCIAL HALL AVENUE, SALT LAKE CITY,UT,84111.0,40.767991,-111.8862328,
237.0,238.0,"140 EAST 300 SOUTH, SALT LAKE CITY, UT, 84111.0",VETS,"(801)-524-5703



",(801)-524-3099,140 EAST 300 SOUTH,SALT LAKE CITY,UT,84111.0,40.7624035,-111.8870881,
238.0,239.0,"400 NORTH 8TH STREET, RICHMOND, VA, 23219.0",WHD,"(804)-771-2995



",,400 NORTH 8TH STREET,RICHMOND,VA,23219.0,37.5429387,-77.4340674,
239.0,240.0,"81 RIVER STREET, MONTPELIER, VT, 5602.0",VETS,"(802)-828-2057



",(802)-828-2069,81 RIVER STREET, MONTPELIER,VT,5602.0,44.2485274,-72.5639254,
240.0,241.0,"FEDERAL OFFICE BUILDING, NORFOLK, VA, 23510.0",OSHA,"(757)-441-3820



",(757)-441-3594,FEDERAL OFFICE BUILDING,NORFOLK,VA,23510.0,38.8231329,-77.0467572,
241.0,242.0,"703 EAST MAIN STREET RICHMOND, RICHMOND, VA, 23219.0",VETS,"(804)-786-7270

(804)-786-7269

(804)-786-6599",(804)-786-4548,703 EAST MAIN STREET RICHMOND,RICHMOND,VA,23219.0,37.538866,-77.438083,
242.0,243.0,"1100 WILSON BOULEVARD, ARLINGTON, VA, 22209.0",SOL,"



",,1100 WILSON BOULEVARD,ARLINGTON,VA,22209.0,38.8947171,-77.0702878,
243.0,244.0,"11870 MERCHANTS WALK, STE 2014, NEWPORT NEWS, VA, 23606.0",OALJ,"(757)-591-5140



",(757)-591-5150,11870 MERCHANTS WALK,NEWPORT NEWS,VA,23606.0,37.0872054,-76.4751216,
244.0,245.0,"1111 THIRD AVENUE, SEATTLE, WA, 98101.0","OPA, ALJ, WB, BLS, WHD, OFCCP, OLMS, OWCP, ETA, OA, JC, MSHA, OASAM, OIG, OSHA, EBSA, SOL, VETS ","(206)-553-0574



",(206)-553-0913,1111 THIRD AVENUE, SEATTLE,WA,98101.0,47.6067371,-122.3355595,
245.0,246.0,"505 106TH AVENUE NORTH EAST, BELLEVUE, WA, 98004.0",OSHA,"(425)-450-5480



",,505 106TH AVENUE NORTH EAST, BELLEVUE,WA,98004.0,47.6145692,-122.1999558,
246.0,247.0,"605 WOODLAND SQUARE LOOP, SOUTH EAST, THIRD FLOOR, LACEY, WA, 98503.0",VETS,"(360)-438-4600



",(360)-438-3160,"605 WOODLAND SQUARE LOOP, SOUTH EAST",LACEY,WA,98503.0,47.0424834,-122.8281191,
247.0,248.0,"405 CAPITOL STREET, CHARLESTON, WV, 25301.0",OSHA,"(304)-347-5937



",,405 CAPITOL STREET, CHARLESTON,WV,25301.0,38.3517711,-81.6319612,
248.0,249.0,"500 QUARRIER STREET, CHARLESTON, WV, 25301.0",WHD,"(304)-347-5206



",,500 QUARRIER STREET, CHARLESTON,WV,25301.0,38.3518987,-81.6373232,
249.0,250.0,"112 CALIFORNIA AVENUE, CAPITOL COMPLEX, CHARLESTON, WV, 25305.0",VETS,"(304)-558-4001



",(304)-344-4591,112 CALIFORNIA AVENUE,CHARLESTON,WV,25305.0,38.3379699,-81.6107001,
250.0,251.0,"604 CHEAT ROAD, MORGANTOWN, WV, 26508.0",MSHA,"(304)-225-6800



",,604 CHEAT ROAD,MORGANTOWN,WV,26508.0,39.6729502,-79.8541372,
251.0,252.0,"100 BLUESTONE ROAD, MT. HOPE, WV, 25880.0",MSHA,"(304)-877-3900



",,100 BLUESTONE ROAD,MT. HOPE,WV,25880.0,37.895833,-81.1677224,
252.0,253.0,"310 WEST WISCONSIN AVENUE, MILWAUKEE, WI, 53203.0","OSHA, WHD, OLMS","(414)-297-3315



",(414)-297-4299,310 WEST WISCONSIN AVENUE,MILWAUKEE,WI,53203.0,43.0389801,-87.9148085,
253.0,254.0,"1310 WEST CLAIREMONT AVENUE, EAU CLAIRE, WI, 54701.0",OSHA,"(715)-832-9019



",(715)-832-1147,1310 WEST CLAIREMONT AVENUE,EAU CLAIRE,WI,54701.0,44.7971132,-91.5266494,
254.0,255.0,"1648 TRI PARK WAY, APPLETON, WI, 54914.0",OSHA,"(920)-734-4521



",(920)-734-2661,1648 TRI PARK WAY,APPLETON,WI,54914.0,44.277842,-88.4519229,
255.0,256.0,"1310 WEST CLAIREMONT AVENUE, EAU CLAIRE, WI, 54701.0",OSHA,"(715)-832-9019



",(715)-832-1147,1310 WEST CLAIREMONT AVENUE,EAU CLAIRE,WI,54701.0,44.7971132,-91.5266494,
256.0,257.0,"4802 EAST BROADWAY, MADISON, WI, 53716.0",OSHA,"(608)-441-5388



",(608)-441-5400,4802 EAST BROADWAY,MADISON,WI,53716.0,43.048543,-89.299644,
257.0,258.0,"201 EAST WASHINGTON AVE, MADISON, WI, 53708.0",VETS,"(608)-266-3110



",(608)-261-6710,201 EAST WASHINGTON AVE,MADISON,WI,53708.0,43.0763429,-89.3812299,
258.0,259.0,"100 WEST MIDWEST AVENUE, CASPER, WY, 82602.0",VETS,"



",,100 WEST MIDWEST AVENUE,CASPER,WY,82602.0,42.847394,-106.3256,
259.0,260.0,"61 FORSYTH STREET, SOUTH WEST, ATLANTA, GA, 30303.0",EBSA,"(404)-302-3900



",(404)-302-3975,"61 FORSYTH STREET, SOUTH WEST",ATLANTA,GA,30303.0,33.7530289,-84.3933404,
260.0,261.0,"1057 BROAD STREET, BOSTON, MA, 2203.0",OSHA,"(617)-565-9860



",(617)-565-9827,1057 BROAD STREET, BOSTON,MA,2203.0,42.3573134,-71.0525676,
261.0,262.0,"950 22ND STREET, NORTH BIRMINGHAM, AL, 35203.0",WHD,"(205)-397-7100



",,950 22ND STREET,NORTH BIRMINGHAM,AL,35203.0,33.5252438,-86.8095992,
262.0,263.0,"1141 MONTLIMAR DRIVE, MOBILE, AL, 36609.0",WHD,"(251)-441-5311



",,1141 MONTLIMAR DRIVE, MOBILE,AL,36609.0,30.6677141,-88.132427,
263.0,265.0,"10810 EXECUTIVE CENTER DRIVE, LITTLE ROCK, AR, 72221.0",WHD,"(501)-223-9114



",,10810 EXECUTIVE CENTER DRIVE, LITTLE ROCK,AR,72221.0,34.7400491,-92.3970612,
264.0,268.0,"2800 COTTAGE WAY, SACRAMENTO, CA, 95825.0",WHD,"(916)-978-6123



",,2800 COTTAGE WAY,  SACRAMENTO,CA,95825.0,38.6027301,-121.3975241,
265.0,269.0,"550 CORPORATE CENTER, SAN DIEGO, CA, 92101.0",WHD,"(619)-557-5110



",,550 CORPORATE CENTER, SAN DIEGO,CA,92101.0,32.5729139,-117.0023281,
266.0,270.0,"770 THE CITY DRIVE, SOUTH ORANGE, CA, 92868.0",WHD,"(714)-621-1650



",,770 THE CITY DRIVE,SOUTH ORANGE,CA,92868.0,33.7759475,-117.8925591,
267.0,274.0,"135 HIGH STREET, HARTFORD, CT, 6103.0",WHD,"(860)-240-4160



",,135 HIGH STREET, HARTFORD,CT,6103.0,41.7700927,-72.6801297,
268.0,275.0,"150 COURT STREET, NEW HAVEN, CT, 6510.0",WHD,"(203)-773-2249



",,150 COURT STREET, NEW HAVEN,CT,6510.0,41.3064261,-72.923862,
269.0,276.0,"299 EAST BROWARD BOULEVARD, FT. LAUDERDALE, FL, 33301.0",WHD,"(954)-356-6896



",,299 EAST BROWARD BOULEVARD, FT. LAUDERDALE,FL,33301.0,26.1228295,-80.1409047,
270.0,277.0,"400 WEST BAY STREET, JACKSONVILLE, FL, 32202.0",WHD,"(904)-359-9292



",,400 WEST BAY STREET, JACKSONVILLE,FL,32202.0,30.3269298,-81.6637258,
271.0,278.0,"10300 SUNSET DRIVE, MIAMI, FL, 33173.0",WHD,"(305)-598-6607



",,10300 SUNSET DRIVE, MIAMI,FL,33173.0,25.7002045,-80.3611234,
272.0,279.0,"1001 EXECUTIVE CENTER DRIVE, ORLANDO, FL, 32803.0",WHD,"(407)-648-6471



",,1001 EXECUTIVE CENTER DRIVE, ORLANDO,FL,32803.0,28.5597436,-81.3422747,
273.0,280.0,"227 NORTH BRONOUGH STREET, TALLASSEE, FL, 32301.0",WHD,"(850)-942-8341



",,227 NORTH BRONOUGH STREET, TALLASSEE,FL,32301.0,30.4438924,-84.2839622,
274.0,282.0,"61 FORSYTH STREET, SOUTH WEST, ATLANTA, GA, 30303.0",WHD,"(404)-893-4600



",,"61 FORSYTH STREET, SOUTH WEST",ATLANTA,GA,30303.0,33.7530289,-84.3933404,
275.0,284.0,"520 WEST SOLEDAD AVE, HONOLULU, HI, 96850.0",WHD,"(671)-473-9178



",,520 WEST SOLEDAD AVE, HONOLULU,HI,96850.0,21.3039859,-157.8625674,
276.0,285.0,"230 SOUTH DEARBORN STREET, CHICAGO, IL, 60604.0",WHD,"(312)-596-7230



",,230 SOUTH DEARBORN STREET, CHICAGO,IL,60604.0,41.8784148,-87.6298137,
277.0,286.0,"3161 WEST WHITE OAKS DRIVE, SPRINGFIELD, IL, 62704.0",WHD,"(217)-793-5028



",,3161 WEST WHITE OAKS DRIVE, SPRINGFIELD,IL,62704.0,39.7598214,-89.7097772,
278.0,287.0,"46 EAST OHIO STREET, INDIANAPOLIS, IN, 46204.0",WHD,"(317)-226-6801



",,46 EAST OHIO STREET, INDIANAPOLIS,IN,46204.0,39.7703387,-86.1565602,
279.0,288.0,"2420 VIRIDIAN DRIVE, SOUTH BEND, IL, 46628.0",WHD,"(574)-236-8331



",,2420 VIRIDIAN DRIVE, SOUTH BEND,IL,46628.0,41.7106487,-86.2947093,
280.0,289.0,"210 WALNUT STREET, DES MOINES, IA, 50309.0",WHD,"(515)-284-4625



",,210 WALNUT STREET, DES MOINES,IA,50309.0,41.5863408,-93.6200909,
281.0,290.0,"400 STATE AVENUE, KANSAS CITY, MO, 66101.0",WHD,"(913)-551-5721



",,400 STATE AVENUE, KANSAS CITY,MO,66101.0,39.117372,-94.618262,
282.0,292.0,"600 SOUTH MAESTRI PLACE, NEW ORLEANS, LA, 70130.0",WHD,"(504)-589-6171



",,600 SOUTH MAESTRI PLACE, NEW ORLEANS,LA,70130.0,29.9475171,-90.0704498,
283.0,293.0,"103 SOUTH GAY STREET, BALTIMORE, MD, 21202.0",WHD,"(410)-962-6211



",,103 SOUTH GAY STREET, BALTIMORE,MD,21202.0,39.2875397,-76.608596,
284.0,295.0,"6525 BELCREST ROAD, HYATTSVILLE, MD, 20782.0",WHD,"(410)-962-6211



",,6525 BELCREST ROAD, HYATTSVILLE,MD,20782.0,38.969569,-76.953156,
285.0,296.0,"129 MAIN STREET, SALISBURY, MD, 21803.0",WHD,"(410)-962-6211



",,129 MAIN STREET, SALISBURY,MD,21803.0,38.365859,-75.599214,
286.0,297.0,"104 DEAN STREET, TAUNTON, MA, 2780.0",WHD,"(508)-821-9106



",,104 DEAN STREET,  TAUNTON,MA,2780.0,41.9050553,-71.0749527,
287.0,298.0,"211 WEST FORT STREET, DETROIT, MI, 48226.0",WHD,"(313)-226-7447



",,211 WEST FORT STREET, DETROIT,MI,48226.0,42.3294776,-83.0491958,
288.0,299.0,"800 MONROE AVENUE, GRAND RAPIDS, MI, 49503.0",WHD,"(616)-456-2004



",,800 MONROE AVENUE,GRAND RAPIDS,MI,49503.0,42.9768973,-85.6718133,
289.0,300.0,"331 SECOND AVENUE SOUTH, MINNEAPOLIS, MN, 55401.0",WHD,"(612)-370-3341



",,331 SECOND AVENUE SOUTH, MINNEAPOLIS,MN,55401.0,44.978677,-93.266543,
290.0,301.0,"100 WEST CAPITOL STREET, JACKSON, MS, 39269.0",WHD,"(601)-965-4347



",,100 WEST CAPITOL STREET, JACKSON,MS,39269.0,32.3008392,-90.1889894,
291.0,302.0,"1222 SPRUCE STREET, ST. LOUIS, MO, 63103.0",WHD,"(314)-539-2706



",,1222 SPRUCE STREET, ST. LOUIS,MO,63103.0,38.6242212,-90.1999297,
292.0,306.0,"200 SHEFFIELD STREET, MOUNTAINSIDE, NJ, 7092.0",WHD,"(908)-317-8611



",,200 SHEFFIELD STREET,  MOUNTAINSIDE,NJ,7092.0,40.6847232,-74.338056,
293.0,307.0,"3131 PRINCETON PIKE, LAWRENCEVILLE, NJ, 8648.0",WHD,"(609)-538-8310



",,3131 PRINCETON PIKE, LAWRENCEVILLE,NJ,8648.0,40.2833838,-74.7160816,
294.0,309.0,"625 FULTON STREET, 7TH FLOOR, BROOKLYN, NY, 11201.0",WHD,"(718)-254-9410



",,625 FULTON STREET,BROOKLYN,NY,11201.0,40.6888433,-73.9796855,
295.0,311.0,"1400 OLD COUNTRY ROAD, WESTBURY, WY, 11590.0",WHD,"(516)-338-1890



",,1400 OLD COUNTRY ROAD, WESTBURY,WY,11590.0,40.7557628,-73.5517743,
296.0,312.0,"26 FEDERAL PLAZA, NEW YORK, NY, 10278.0",WHD,"(212)-264-8185



",,26 FEDERAL PLAZA, NEW YORK,NY,10278.0,40.7155856,-74.0042622,
297.0,313.0,"100 SOUTH CLINTON STREET, SYRACUSE, NY, 13261.0",WHD,"(315)-448-0630



",,100 SOUTH CLINTON STREET, SYRACUSE,NY,13261.0,43.0502279,-76.154804,
298.0,314.0,"140 GRAND STREET, WHITE PLAINS, NY, 10601.0",WHD,"(914)-682-6348



",,140 GRAND STREET, WHITE PLAINS,NY,10601.0,41.0292774,-73.7682851,
299.0,316.0,"3800 ARCO CORPORATE DRIVE, CHARLOTTE, NC, 28273.0",WHD,"(704)-749-3360



",,3800 ARCO CORPORATE DRIVE, CHARLOTTE,NC,28273.0,35.1523929,-80.949275,
300.0,317.0,"550 MAIN STREET, CINCINNATI, OH, 45202.0",WHD,"(513)-684-2908



",,550 MAIN STREET, CINCINNATI,OH,45202.0,39.1025458,-84.5095669,
301.0,318.0,"1240 EAST 9TH STREET, CLEVELAND, OH, 44199.0",WHD,"(216)-357-5400



",,1240 EAST 9TH STREET, CLEVELAND,OH,44199.0,41.5048281,-81.6918989,
302.0,319.0,"200 NORTH HIGH STREET, COLUMBUS, OH, 43215.0",WHD,"(614)-469-5678



",,200 NORTH HIGH STREET, COLUMBUS,OH,43215.0,39.966703,-83.000987,
303.0,320.0,"215 DEAN A. MCGEE AVENUE, OKLAHOMA CITY, OK, 73102.0",WHD,"(405)-231-4158



",,215 DEAN A. MCGEE AVENUE, OKLAHOMA CITY,OK,73102.0,35.4714075,-97.5170593,
304.0,321.0,"1645 SOUTH 101 EAST AVENUE, TULSA, OK, 74128.0",WHD,"(918)-581-6303



",,1645 SOUTH 101 EAST AVENUE, TULSA,OK,74128.0,36.1392777,-95.8633837,
305.0,322.0,"620 SW MAIN STREET, PORTLAND, OR, 97205.0",WHD,"(503)-326-3057



",,620 SW MAIN STREET,PORTLAND,OR,97205.0,45.5163022,-122.6807008,
306.0,324.0,"7 NORTH WILKES BARRE BOULEVARD, WILKES BARRE, OR, 18702.0",WHD,"(570)-826-6316



",,7 NORTH WILKES BARRE BOULEVARD, WILKES BARRE,OR,18702.0,41.2459149,-75.8813075,
307.0,325.0,"7 TABONUCO STREET, GUAYNABO, PR, 968.0",WHD,"(787)-775-1924



",,7 TABONUCO STREET, GUAYNABO,PR,968.0,18.2164994,-65.8198401,
308.0,326.0,"380 WESTMINSTER, PROVIDENCE, RI, 2903.0",WHD,"(401)-528-4431



",,380 WESTMINSTER, PROVIDENCE,RI,2903.0,41.8211299,-71.414581,
309.0,327.0,"1321 MURFREESBORO ROAD, NASHVILLE, TN, 37217.0",WHD,"(615)-781-5344



",,1321 MURFREESBORO ROAD, NASHVILLE,TN,37217.0,36.1147092,-86.6958704,
310.0,328.0,"167 NORTH MAIN STREET, MEMPHIS, TN, 38103.0",WHD,"(901)-544-3418



",,167 NORTH MAIN STREET, MEMPHIS,TN,38103.0,35.149687,-90.0515906,
311.0,331.0,"320 NORTH MAIN STREET, MCALLEN, TX, 78501.0",WHD,"(956)-682-4631



",,320 NORTH MAIN STREET, MCALLEN,TX,78501.0,26.2069408,-98.2336651,
312.0,334.0,"150 EAST SOCIAL HALL AVENUE, SALT LAKE CITY, UT, 84111.0",WHD,"(801)-524-5706



",,150 EAST SOCIAL HALL AVENUE, SALT LAKE CITY,UT,84111.0,40.767991,-111.8862328,
313.0,335.0,"400 NORTH 8TH STREET, RICHMOND, VA, 23219.0",WHD,"(804)-771-2995



",,400 NORTH 8TH STREET, RICHMOND,VA,23219.0,37.5429387,-77.4340674,
314.0,337.0,"500 QUARRIER STREET, CHARLESTON, SC, 25301.0",WHD,"(304)-347-5206



",,500 QUARRIER STREET, CHARLESTON,SC,25301.0,38.3518987,-81.6373232,
315.0,339.0,"201 VARICK STREET, NEW YORK, NY, 10014.0",WB,"(617)-565-1988



",(617)-565-1986,201 VARICK STREET, NEW YORK,NY,10014.0,40.7282299,-74.0056049,
316.0,341.0,"15 SUDBURY STREET, BOSTON, MA, 2203.0",VETS,"(617)-565-2080



",(617)-565-2082,15 SUDBURY STREET,  BOSTON,MA,2203.0,42.3612042,-71.0595013,
317.0,342.0,"200 FOLLY BROOK BOULEVARD, WETHERSFIELD, WY, 6109.0",VETS,"



",(860)-263-6498,200 FOLLY BROOK BOULEVARD,WETHERSFIELD,WY,6109.0,41.721393,-72.677501,
318.0,343.0,"5 MOLLISON WAY, LEWISTON, WY, 4240.0",VETS,"(207)-753-9090



",(207)-783-5304,5 MOLLISON WAY, LEWISTON,WY,4240.0,44.123716,-70.1996659,
319.0,344.0,"19 STANIFORD STREET, BOSTON, MA, 2114.0",VETS,"(617)-626-6699



",(617)-727-2330,19 STANIFORD STREET, BOSTON,MA,2114.0,42.3620373,-71.0635527,
320.0,345.0,"53 PLEASANT STREET, CONCORD, MA, 3301.0",VETS,"(603)-225-1424



",(603)-225-1545,53 PLEASANT STREET, CONCORD,MA,3301.0,42.452349,-71.395681,
321.0,346.0,"450 SOUTH SALINA STREET, SYRACUSE, WY, 13202.0",VETS,"(315)-479-3203



",(315)-479-3200,450 SOUTH SALINA STREET, SYRACUSE,WY,13202.0,43.0456343,-76.1527741,
322.0,347.0,"9 BOND STREET, BROOKLYN, NY, 11201.0",VETS,"(718)-613-3677



",(718)-613-3685,9 BOND STREET, BROOKLYN,NY,11201.0,40.6891527,-73.9828687,
323.0,348.0,"249 BLACKSTONE BOULEVARD, PROVIDENCE, RI, 2906.0",VETS,"(401)-243-1281



",(401)-243-1240,249 BLACKSTONE BOULEVARD, PROVIDENCE,RI,2906.0,41.842132,-71.385101,
324.0,350.0,"170 SOUTH INDEPENDENCE MALL, PHILADELPHIA, PA, 19106.0",VETS,"(215)-861-5390



",(215)-861-5389,170 SOUTH INDEPENDENCE MALL, PHILADELPHIA,PA,19106.0,39.9480642,-75.1512499,
325.0,351.0,"4425 NORTH MARKET STREET, WILMINGTON, DE, 19802.0",VETS,"(302)-761-8138

(302)-761-8139

",(302)-761-4676,4425 NORTH MARKET STREET,  WILMINGTON,DE,19802.0,39.7623978,-75.5194588,
326.0,352.0,"64 NEW YORK AVE, NORTH EAST, WASHINGTON, DC, 20002.0",VETS,"(202)-671-2179



",(202)-671-1503,"64 NEW YORK AVE, NORTH EAST",WASHINGTON,DC,20002.0,38.9093546,-77.0069743,
327.0,353.0,"1100 NORTH EUTAW STREET, BALTIMORE, MD, 21201.0",VETS,"(410)-767-2110



",(410)-333-5136,1100 NORTH EUTAW STREET, BALTIMORE,MD,21201.0,39.3022741,-76.6248692,
328.0,354.0,"14 NORTH POTOMAC STREET, HAGERSTOWN, MD, 21740.0",VETS,"(301)-393-8253



",(301)-393-2654,14 NORTH POTOMAC STREET, HAGERSTOWN,MD,21740.0,39.642218,-77.7194414,
329.0,355.0,"651 BOSA STREET, HARRISBURG, PA, 17121.0",VETS,"(717)-787-5834



",(717)-783-2631,651 BOSA STREET, HARRISBURG,PA,17121.0,40.269291,-76.8827971,
330.0,356.0,"218 NORTH KIMBERLY AVENUE, SOMERSET, PA, 15501.0",VETS,"(814)-445-4161



",(814)-445-3913,218 NORTH KIMBERLY AVENUE, SOMERSET,PA,15501.0,40.009751,-79.075853,
331.0,357.0,"425 6TH AVENUE, PITTSBURGH, PA, 15219.0",VETS,"(412)-552-7023



",(412)-552-7051,425 6TH AVENUE, PITTSBURGH,PA,15219.0,40.5319681,-80.0229428,
332.0,358.0,"841 VOGELSONG ROAD, YORK, PA, 17404.0",VETS,"(717)-767-7618

(760)-223-1

",(717)-767-7625,841 VOGELSONG ROAD, YORK,PA,17404.0,39.983315,-76.753734,
333.0,360.0,"703 EAST MAIN STREET, RICHMOND, VA, 23219.0",VETS,"(804)-786-7270

(804)-786-7269

(804)-786-6599",(804)-786-4548,703 EAST MAIN STREET,  RICHMOND,VA,23219.0,37.538866,-77.438083,
334.0,361.0,"112 CALIFORNIA AVENUE, CHARLESTON, SC, 25305.0",VETS,"(304)-558-4001



",(304)-344-4591,112 CALIFORNIA AVENUE, CHARLESTON,SC,25305.0,32.7709105,-80.1011439,
335.0,362.0,"649 MONROE STREET, MONTGOMERY, AL, 36131.0",VETS,"



",(334)-242-8927,649 MONROE STREET,  MONTGOMERY,AL,36131.0,32.3792935,-86.3006966,
336.0,365.0,"2550 WEST OAKLAND PARK BOULEVARD, FT. LAUDERDALE, FL, 33311.0",VETS,"(954)-677-5818



",(954)-677-5816,2550 WEST OAKLAND PARK BOULEVARD, FT. LAUDERDALE,FL,33311.0,26.164934,-80.1770559,
337.0,366.0,"19 NORTH, NORTH PALM HARBOR, FL, 34684.0",VETS,"



",(727)-324-2855,19 NORTH,NORTH PALM HARBOR,FL,34684.0,28.053386,-82.7380567,
338.0,367.0,"13805 58TH STREET NORTH, CLEARWATER, FL, 33760.0",VETS,"(727)-328-3355



",(727)-328-3392,13805 58TH STREET NORTH, CLEARWATER,FL,33760.0,27.8974251,-82.7114511,
339.0,369.0,"275 EAST MAIN STREET, FRANKFORT, KY, 40621.0",VETS,"(502)-564-7062



",(502)-564-1476,275 EAST MAIN STREET, FRANKFORT,KY,40621.0,38.1974157,-84.8612337,
340.0,370.0,"1235 ECHELON PARKWAY, JACKSON, MS, 39215.0",VETS,"



",(601)-321-6187,1235 ECHELON PARKWAY, JACKSON,MS,39215.0,32.3965542,-90.1843507,
341.0,371.0,"700 WADE AVENUE, RALEIGH, NC, 27605.0",VETS,"(919)-733-7402

(919)-733-7407

",(919)-733-1508,700 WADE AVENUE, RALEIGH,NC,27605.0,35.7976047,-78.6533335,
342.0,373.0,"1550 GADSDEN STREET, COLUMBIA, SC, 29201.0",VETS,"



",(803)-737-4423,1550 GADSDEN STREET, COLUMBIA,SC,29201.0,34.0041472,-81.0417974,
343.0,374.0,"350 PAGEANT LANE, CLARKSVILLE, TN, 37040.0",VETS,"(931)-572-1688



",(931)-648-6331,350 PAGEANT LANE, CLARKSVILLE,TN,37040.0,36.5207876,-87.3409037,
344.0,375.0,"2238 ROSA L. PARKS BOULEVARD, NASHVILLE, TN, 37228.0",VETS,"(615)-736-7680



",(615)-741-4241,2238 ROSA L. PARKS BOULEVARD, NASHVILLE,TN,37228.0,36.1933595,-86.8039175,
345.0,377.0,"33 SOUTH STATE STREET, CHICAGO, IL, 60603.0",VETS,"(312)-793-3433



",(312)-793-4795,33 SOUTH STATE STREET, CHICAGO,IL,60603.0,41.8811838,-87.6274898,
346.0,379.0,"10 NORTH SENATE AVENUE, INDIANAPOLIS, IN, 46204.0",VETS,"(317)-232-6805



",(317)-233-5720,10 NORTH SENATE AVENUE, INDIANAPOLIS,IN,46204.0,39.767623,-86.164142,
347.0,380.0,"430 EAST GRAND AVENUE, DES MOINES, IA, 50309.0",VETS,"(515)-281-9061



",(515)-281-9063,430 EAST GRAND AVENUE,  DES MOINES,IA,50309.0,41.590811,-93.612223,
348.0,382.0,"201 NORTH WASHINGTON SQUARE, LANSING, MI, 48913.0",VETS,"(517)-241-6937



",(517)-373-1117,201 NORTH WASHINGTON SQUARE, LANSING,MI,48913.0,42.734868,-84.552716,
349.0,383.0,"1ST BANK BUILDING STREET, PAUL, MN, 55101.0",VETS,"(651)-259-7511

(651)-259-7512

",(651)-282-2711,1ST BANK BUILDING STREET, PAUL,MN,55101.0,44.9468547,-93.0908888,
350.0,384.0,"421 EAST DUNKLIN STREET, JEFFERSON CITY, MO, 65101.0",VETS,"(573)-751-3921



",(573)-751-6710,421 EAST DUNKLIN STREET, JEFFERSON CITY,MO,65101.0,38.5699429,-92.1721247,
351.0,385.0,"550 SOUTH 16TH STREET, LINCOLN, NE, 68508.0",VETS,"(402)-471-9833



",(402)-471-2092,550 SOUTH 16TH STREET,  LINCOLN,NE,68508.0,40.808419,-96.697805,
352.0,386.0,"4020 EAST 5TH AVENUE, COLUMBUS, OH, 43219.0",VETS,"(614)-466-2768



",(614)-752-5007,4020 EAST 5TH AVENUE, COLUMBUS,OH,43219.0,39.9871865,-82.8980153,
353.0,387.0,"201 EAST WASHINGTON AVENUE, MADISON, WI, 53708.0",VETS,"(608)-266-3110



",(608)-261-6710,201 EAST WASHINGTON AVENUE, MADISON,WI,53708.0,43.0763429,-89.3812299,
354.0,388.0,"2 CAPITOL MALL, LITTLE ROCK, AR, 72201.0",VETS,"(501)-682-3786



",(501)-682-3752,2 CAPITOL MALL, LITTLE ROCK,AR,72201.0,34.7471478,-92.2916847,
355.0,390.0,"1259 LAKE PLAZA DRIVE, COLORADO SPRINGS, CO, 80906.0",VETS,"(719)-527-4315



",(719)-576-0451,1259 LAKE PLAZA DRIVE, COLORADO SPRINGS,CO,80906.0,38.7937173,-104.8054933,
356.0,391.0,"715 FRONT STREET, HELENA, MT, 59601.0",VETS,"(406)-447-3233

(406)-447-3239

",(406)-447-3213,715 FRONT STREET, HELENA,MT,59601.0,46.593887,-112.036895,
357.0,392.0,"401 BROADWAY BOULEVARD NORTH EAST, ALBUQUERQUE, NM, 87102.0",VETS,"(505)-346-7502



",(505)-242-6179,401 BROADWAY BOULEVARD NORTH EAST, ALBUQUERQUE,NM,87102.0,35.0869973,-106.6447176,
358.0,393.0,"1000 EAST DIVIDE AVENUE, BISMARCK, ND, 58501.0",VETS,"(701)-250-4337



",(701)-328-2890,1000 EAST DIVIDE AVENUE, BISMARCK,ND,58501.0,46.8239558,-100.7772089,
359.0,394.0,"420 SOUTH ROOSEVELT STREET, ABERDEEN, SD, 57402.0",VETS,"(605)-626-2325



",(605)-626-2359,420 SOUTH ROOSEVELT STREET, ABERDEEN,SD,57402.0,45.460518,-98.4549274,
360.0,395.0,"1117 TRINITY STREET, AUSTIN, TX, 78701.0",VETS,"(512)-463-2814



",(512)-475-2999,1117 TRINITY STREET, AUSTIN,TX,78701.0,30.2724565,-97.7370989,
361.0,398.0,"1359 LOMALAND DRIVE, EL PASO, TX, 79935.0",VETS,"(915)-887-2624



",(915)-629-2092,1359 LOMALAND DRIVE, EL PASO,TX,79935.0,31.748881,-106.329144,
362.0,400.0,"140 EAST 300 SOUTH, SALT LAKE CITY, UT, 84111.0",VETS,"(801)-524-5703



",(801)-524-3099,140 EAST 300 SOUTH, SALT LAKE CITY,UT,84111.0,40.7624035,-111.8870881,
363.0,401.0,"100 WEST MIDWEST AVENUE, CASPER, WY, 82602.0",VETS,"(307)-261-5454



",(307)-235-3272,100 WEST MIDWEST AVENUE, CASPER,WY,82602.0,42.847394,-106.3256,
364.0,402.0,"90 7TH STREET, SAN FRANCISCO, CA, 94103.0",VETS,"



",(925)-602-1585,90 7TH STREET, SAN FRANCISCO,CA,94103.0,37.7793739,-122.4111351,
365.0,405.0,"800 CAPITOL MALL, SACRAMENTO, CA, 94280.0",VETS,"(916)-654-8178



",(916)-654-9469,800 CAPITOL MALL, SACRAMENTO,CA,94280.0,38.5771832,-121.4973719,
366.0,406.0,"209 EAST 7TH STREET, MADERA, CA, 93638.0",VETS,"



",,209 EAST 7TH STREET, MADERA,CA,93638.0,36.9609268,-120.0560983,
367.0,408.0,"320 CAMPUS LANE, FAIRFIELD, CA, 94534.0",VETS,"(707)-863-3583



",(707)-864-3489,320 CAMPUS LANE, FAIRFIELD,CA,94534.0,38.2309877,-122.124624,
368.0,410.0,"2450 EAST LINCOLN AVENUE, ANAHEIM, CA, 92806.0",VETS,"(714)-687-4845



",(714)-518-2391,2450 EAST LINCOLN AVENUE, ANAHEIM,CA,92806.0,33.838138,-117.880907,
369.0,411.0,"1949 AVENIDA DEL ORO, OCEANSIDE, CA, 92056.0",VETS,"(760)-639-3761



",(760)-639-3892,1949 AVENIDA DEL ORO, OCEANSIDE,CA,92056.0,33.2066449,-117.2902194,
370.0,412.0,"830 PUNCHBOWL STREET, HONOLULU, HI, 96813.0",VETS,"(808)-522-8216



",(808)-586-9258,830 PUNCHBOWL STREET,HONOLULU,HI,96813.0,21.3041532,-157.8610278,
371.0,413.0,"317 WEST MAIN STREET, BOISE, ID, 83702.0",VETS,"



",(208)-334-6389,317 WEST MAIN STREET, BOISE,ID,83702.0,43.6127139,-116.198365,
372.0,414.0,"59 EAST WINNIE LANE, CARSON CITY, NV, 89706.0",VETS,"(775)-687-4632



",(775)-687-3976,59 EAST WINNIE LANE, CARSON CITY,NV,89706.0,39.1791628,-119.7663416,
373.0,415.0,"875 UNION STREET, NORTH EAST, SALEM, OR, 97311.0",VETS,"(503)-947-1490



",(503)-947-1492,"875 UNION STREET, NORTH EAST",SALEM,OR,97311.0,44.944149,-123.0285156,
374.0,416.0,"7795 SW MOHAWK STREET, TUALATIN, OR, 97062.0",VETS,"(503)-612-4328



",(503)-612-4250,7795 SW MOHAWK STREET,TUALATIN,OR,97062.0,45.3765772,-122.7572084,
375.0,417.0,"605 WOODLAND SQUARE LOOP, LACEY, WA, 98503.0",VETS,"(360)-438-4600



",(360)-438-3160,605 WOODLAND SQUARE LOOP, LACEY,WA,98503.0,47.0424834,-122.8281191,
376.0,418.0,"201 VARICK STREET, NEW YORK, WY, 10014.0",OFCCP,"(646)-264-3170



",(646)-264-3009,201 VARICK STREET,NEW YORK,WY,10014.0,40.7282299,-74.0056049,
377.0,419.0,"400 WEST BAY STREET, JACKSONVILLE, FL, 32202.0",OWCP,"(904)-357-4776



",(215)-861-5400,400 WEST BAY STREET, JACKSONVILLE,FL,32202.0,30.3269298,-81.6637258,
378.0,420.0,"201 VARICK STREET BOSTON, BOSTON, MA, 2203.0",SOL,"(617)-565-2500



",(617)-565-2142,201 VARICK STREET BOSTON,BOSTON,MA,2203.0,42.284191,-71.1685965,
379.0,422.0,"2 PERSHING SQUARE KANSAS CITY, KANSAS CITY, MO, 64108.0",OASAM,"(816)-285-7201



",(816)-285-7219,2 PERSHING SQUARE KANSAS CITY,KANSAS CITY,MO,64108.0,39.0841372,-94.5840506,
380.0,426.0,"230 SOUTH DEARBORN STREET, CHICAGO, IL, 60604.0",OCIA,"(312)-353-4591



",(312)-353-8679,230 SOUTH DEARBORN STREET,CHICAGO,IL,60604.0,41.8784148,-87.6298137,
381.0,427.0,"170 SOUTH INDEPENDENCE MALL, BOSTON, MA, 2203.0",ETA,"(617)-788-0170



",(617)-788-0101,170 SOUTH INDEPENDENCE MALL, BOSTON,MA,2203.0,42.3604802,-71.0590624,
382.0,428.0,"800 K STREET, NORTH WEST, WASHINGTON, DC, 20001.0",OALJ,"(202)-693-7300



",(202)-693-7365,"800 K STREET, NORTH WEST",WASHINGTON,DC,20001.0,38.9017024,-77.0227306,
383.0,429.0,"7 NORTH WILKES-BARRE BLVD, WILKES-BARRE, PA, 18702.0",MSHA,"(570)-826-6321



",,7 NORTH WILKES-BARRE BLVD, WILKES-BARRE,PA,18702.0,41.2421334,-75.8784188,
384.0,430.0,"100 YMCA DRIVE, DENVER, CO, 80225.0",MSHA,"(303)-231-5458



",(205)-290-7389,100 YMCA DRIVE, DENVER,CO,80225.0,39.72,-105.12,
385.0,431.0,"515 WEST 1ST STREET, DULUTH, MN, 55802.0",MSHA,"



",,515 WEST 1ST STREET,  DULUTH,MN,55802.0,46.7826122,-92.106712,
386.0,433.0,"7 TABANUCO STREET, GUAYNABO, PR, 968.0",OLMS,"(787)-277-1547



",(787)-277-1548,7 TABANUCO STREET,GUAYNABO,PR,968.0,18.2164994,-65.8198401,
387.0,434.0,"61 FORSYTH STREET, ATLANTA, GA, 30303.0",OJC,"(404)-302-5400



",(404)-302-5415,61 FORSYTH STREET, ATLANTA,GA,30303.0,33.7530289,-84.3933404,
388.0,435.0,"230 SOUTH DEARBORN STREET, CHICAGO, WY, 60604.0",OJC,"(312)-596-5470



",(312)-596-5471,230 SOUTH DEARBORN STREET, CHICAGO,WY,60604.0,41.8784148,-87.6298137,
389.0,436.0,"525 GRIFFIN STREET, DALLAS, TX, 75205.0",OJC,"(972)-850-4100



",(972)-850-4101,525 GRIFFIN STREET,  DALLAS,TX,75205.0,32.7763675,-96.8025969,
390.0,437.0,"170 SOUTH INDEPENDENCE MALL WEST, PHILADELPHIA, PA, 19106.0",OJC,"(215)-861-5500



",(215)-861-5520,170 SOUTH INDEPENDENCE MALL WEST, PHILADELPHIA,PA,19106.0,39.9480642,-75.1512499,
391.0,439.0,"201 VARICK STREET, NEW YORK, NY, 10014.0",OIG,"(646)-264-3550



",,201 VARICK STREET,NEW YORK,NY,10014.0,40.7282299,-74.0056049,
AK0001,ANCHORAGE FED BUILD,"605 WEST 4TH AVENUE, ANCHORAGE, AK, 99501-2248","ATELS, BLS", - - , - - ,605 WEST 4TH AVENUE,ANCHORAGE,AK,99501-2248,61.2188,-149.893581633,SAN FRANCISCO/SEATTLE
AK0031,"FEDERAL BLDG, USCT","222 WEST 7TH AVE, ANCHORAGE, AK, 99513-7500",MSHA, - - , - - ,222 WEST 7TH AVE,ANCHORAGE,AK,99513-7500,61.2154,-149.884220408,SAN FRANCISCO/SEATTLE
AK0032,FED BLD-USCH-ANNEX,"222 WEST 8TH AVE, ANCHORAGE, AK, 99513-7502","MSHA, OSHA, WHD", - - , - - ,222 WEST 8TH AVE,ANCHORAGE,AK,99513-7502,61.2144,-149.885771429,SAN FRANCISCO/SEATTLE
AKJCC633,ALASKA JOB CORPS CENTER,"800 EAST LYNN MARTIN DRIVE, PALMER, AK, 99645",JCC, - - , - - ,800 EAST LYNN MARTIN DRIVE,PALMER,AK,99645,61.5899,-149.0953,SAN FRANCISCO/SEATTLE
AL1040,LAKESHORE CROSSINGS,"1030 LONDON DR, BIRMINGHAM, AL, 35211-4542",MSHA, - - , - - ,1030 LONDON DR,BIRMINGHAM,AL,35211-4542,33.4402,-86.8624,ATLANTA
AL2042,BARBER BUSINESS PARK,"135 GEMINI CIRCLE, BIRMINGHAM, AL, 35209-5842",MSHA, - - , - - ,135 GEMINI CIRCLE,BIRMINGHAM,AL,35209-5842,33.4618768086,-86.8375991693,ATLANTA
AL2070,4890 UNIVERSITY SQUARE,"4890 UNIVERSITY SQUARE, HUNTSVILLE, AL, 35816-1800",WHD, - - , - - ,4890 UNIVERSITY SQUARE,HUNTSVILLE,AL,35816-1800,34.741657419,-86.6539,ATLANTA
AL2071,MEDICAL FORUM,"950 22ND STREET NORTH, BIRMINGHAM, AL, 35203-1126","ATELS, OFCCP, OSHA, WHD", - - , - - ,950 22ND STREET NORTH,BIRMINGHAM,AL,35203-1126,33.5243,-86.8086,ATLANTA
AL2101,WALNUT ST EXEC CTR,"205 SOUTH WALNUT STREET, FLORENCE, AL, 35630-0000",BLS, - - , - - ,205 SOUTH WALNUT STREET,FLORENCE,AL,35630-0000,34.823,-87.6617,ATLANTA
AL2178,CARMICHEAL CENTER,"4001 CARMICHEAL ROAD, MONTGOMERY, AL, 36106-3613",WHD, - - , - - ,4001 CARMICHEAL ROAD,MONTGOMERY,AL,36106-3613,32.3528,-86.2576,ATLANTA
AL2211,PARAMOUNT OFFICE CENTER,"1141 MONTLIMAR DR., MOBILE, AL, 36609-1725","OSHA, WHD", - - , - - ,1141 MONTLIMAR DR.,MOBILE,AL,36609-1725,30.6669,-88.1332,ATLANTA
AL2213,PARKWEST CORPORATION CENTER,"3867 PINE LANE, BESSEMER, AL, 35022-5667",MSHA, - - , - - ,3867 PINE LANE,BESSEMER,AL,35022-5667,33.3408324461,-86.9157695503,ATLANTA
ALJCC575,GADSDEN JOB CORPS CENTER,"600 VALLEY STREET, GADSDEN, AL, 35901",JCC, - - , - - ,600 VALLEY STREET,GADSDEN,AL,35901,34.026,-85.9946,ATLANTA
ALJCC586,MONTGOMERY JOB CORPS CENTER,"1145 AIR BASE BOULEVARD, MONTGOMERY, AL, 36108",JCC, - - , - - ,1145 AIR BASE BOULEVARD,MONTGOMERY,AL,36108,32.3525029259,-86.3456644343,ATLANTA
AR0021,IC PARKER COURTHOUSE/USPO,"30 SOUTH 6TH ST, FORT SMITH, AR, 72901-2435",WHD, - - , - - ,30 SOUTH 6TH ST,FORT SMITH,AR,72901-2435,35.386408088,-94.4263747547,DALLAS/DENVER
AR0057,TEXARKANA USPO/COURTHOUSE,"500 NORTH STATE LINE AVE, TEXARKANA, AR, 71854-5957",WHD, - - , - - ,500 NORTH STATE LINE AVE,TEXARKANA,AR,71854-5957,33.4284,-94.0431,DALLAS/DENVER
AR0063,LITTLE ROCK FEDERAL BUILDING,"700 WEST CAPITOL, LITTLE ROCK, AR, 72201-3225","ATELS, MSHA", - - , - - ,700 WEST CAPITOL,LITTLE ROCK,AR,72201-3225,34.7431,-92.2514,DALLAS/DENVER
AR0078,PINE BLUFF FOB/USPO/CTHS,"100 EAST 8TH ST, PINE BLUFF, AR, 71601-5069","BLS, WHD", - - , - - ,100 EAST 8TH ST,PINE BLUFF,AR,71601-5069,34.222,-91.9863,DALLAS/DENVER
AR0082,LITTLE ROCK FOB/CTHS PARKING,"622 WEST 4TH STREET, LITTLE ROCK, AR, 72201-2214",MSHA, - - , - - ,622 WEST 4TH STREET,LITTLE ROCK,AR,72201-2214,34.7462431121,-92.2771421202,DALLAS/DENVER
AR1127,EC GATHINGS FED BLDG/COURTHOUS,"615 SOUTH MAIN STREET, JONESBORO, AR, 72401-2860",WHD, - - , - - ,615 SOUTH MAIN STREET,JONESBORO,AR,72401-2860,35.8375928571,-90.705,DALLAS/DENVER
AR1199,PARKING LOT,"4TH  & CHESTER ST, LITTLE ROCK, AR, 72201-3922",MSHA, - - , - - ,4TH  & CHESTER ST,LITTLE ROCK,AR,72201-3922,34.973,-91.4964,DALLAS/DENVER
AR1273,10810 EXECUTIVE CENTER DRIVE,"10810 EXECUTIVE CENTER DRIVE, LITTLE ROCK, AR, 72211-4354","OSHA, WHD", - - , - - ,10810 EXECUTIVE CENTER DRIVE,LITTLE ROCK,AR,72211-4354,34.7395,-92.3944808081,DALLAS/DENVER
AR1307,UNNAMED,"300 NORTH COLLEGE, FAYETTEVILLE, AR, 72701-4381",WHD, - - , - - ,300 NORTH COLLEGE,FAYETTEVILLE,AR,72701-4381,36.0887889501,-93.7353,DALLAS/DENVER
ARJCC613,CASS JOB CORPS CIVILIAN CONSERVATION CORPS,"21424 NORTH HIGHWAY 23, OZARK, AR, 72949",JCC, - - , - - ,21424 NORTH HIGHWAY 23,OZARK,AR,72949,35.6885,-93.8193,DALLAS/DENVER
ARJCC621,LITTLE ROCK JOB CORPS CENTER,"2020 VANCE STREET, LITTLE ROCK, AR, 72206",JCC, - - , - - ,2020 VANCE STREET,LITTLE ROCK,AR,72206,34.7288030612,-92.265,DALLAS/DENVER
ARJCC624,OUACHITA JOB CORPS CIVILIAN CONSERVATION CORPS,"570 JOB CORPS ROAD, ROYAL, AR, 71968",JCC, - - , - - ,570 JOB CORPS ROAD,ROYAL,AR,71968,34.5388557868,-93.1988412128,DALLAS/DENVER
AZ0052,FEDERAL BUILDING & COURTHOUSE,"230 NORTH FIRST AVE, PHOENIX, AZ, 85003-0230","BLS, OFCCP, OLMS, OSHA, WHD", - - , - - ,230 NORTH FIRST AVE,PHOENIX,AZ,85003-0230,33.4507061224,-112.0753,SAN FRANCISCO/SEATTLE
AZ0058,FEDERAL BUILDING,"300 WEST CONGRESS, TUCSON, AZ, 85701-1371",WHD, - - , - - ,300 WEST CONGRESS,TUCSON,AZ,85701-1371,32.2214,-110.975,SAN FRANCISCO/SEATTLE
AZ6831,PARK PLACE TOWERS,"63 EAST MAIN ST., MESA, AZ, 85201-7417",MSHA, - - , - - ,63 EAST MAIN ST.,MESA,AZ,85201-7417,33.4149,-111.829963636,SAN FRANCISCO/SEATTLE
AZ8268,1338 W. FOREST MEADOWS DRIVE,"1338 WEST FOREST MEADOWS ST, FLAGSTAFF, AZ, 86001-2982",WHD, - - , - - ,1338 WEST FOREST MEADOWS ST,FLAGSTAFF,AZ,86001-2982,35.1845278192,-111.671551234,SAN FRANCISCO/SEATTLE
AZJCC639,FRED G. ACOSTA JOB CORPS CENTER,"901 SOUTH CAMPBELL AVENUE, TUCSON, AZ, ",JCC, - - , - - ,901 SOUTH CAMPBELL AVENUE,TUCSON,AZ,,32.1285,-111.783,SAN FRANCISCO/SEATTLE
AZJCC645,PHOENIX JOB CORPS CENTER,"518 SOUTH THIRD STREET, PHOENIX, AZ, 85004",JCC, - - , - - ,518 SOUTH THIRD STREET,PHOENIX,AZ,85004,33.4430163265,-112.0701,SAN FRANCISCO/SEATTLE
CA0083,FEDERAL BUILDING,"801 ""I"" STREET, SACRAMENTO, CA, 95814-2510",ATELS, - - , - - ,"801 ""I"" STREET",SACRAMENTO,CA,95814-2510,38.5805,-121.4956,SAN FRANCISCO/SEATTLE
CA0198,JAMES C. CORMAN FED BLDG,"6230 VAN NUYS BLVD, VAN NUYS, CA, 91401-2713",WHD, - - , - - ,6230 VAN NUYS BLVD,VAN NUYS,CA,91401-2713,34.1834333333,-118.4485,SAN FRANCISCO/SEATTLE
CA0199,FEDERAL BUILDING,"2800 COTTAGE WAY, SACRAMENTO, CA, 95825-1846",WHD, - - , - - ,2800 COTTAGE WAY,SACRAMENTO,CA,95825-1846,38.6031621989,-121.396970867,SAN FRANCISCO/SEATTLE
CA0273,GLENN M ANDERSON FED BLDG,"501 WEST OCEAN BOULEVARD, LONG BEACH, CA, 90802-4213","OALJ, OWCP, WHD", - - , - - ,501 WEST OCEAN BOULEVARD,LONG BEACH,CA,90802-4213,33.7671,-118.198,SAN FRANCISCO/SEATTLE
CA0281,RONALD DELLUMS FED BLDG,"1301 CLAY ST, OAKLAND, CA, 94612-5217",OSHA, - - , - - ,1301 CLAY ST,OAKLAND,CA,94612-5217,37.8048,-122.2741,SAN FRANCISCO/SEATTLE
CA0305,SAN FRANCISCO FEDERAL BLDG,"90 7TH STREET, SAN FRANCISCO, CA, 94103-1516","ATELS, BLS, EBSA, ETA, OALJ, OASAM, OCIA, OFCCPA, OFCCPB, OIG, OJC, OLMS, OPA, OSHA, OWCP, SOL, VETS, WB, WHD", - - , - - ,90 7TH STREET,SAN FRANCISCO,CA,94103-1516,37.7791478757,-122.411182369,SAN FRANCISCO/SEATTLE
CA5175,L.A. WORLD TRADE CTR,"350 SOUTH FIGUEROA STREET, LOS ANGELES, CA, 90071-1102",SOL, - - , - - ,350 SOUTH FIGUEROA STREET,LOS ANGELES,CA,90071-1102,34.0529,-118.2549,SAN FRANCISCO/SEATTLE
CA5521,CIVIC CNTR SQ,"906 NORTH STREET, FRESNO, CA, 93721-2244",WHD, - - , - - ,906 NORTH STREET,FRESNO,CA,93721-2244,36.7363,-119.7855,SAN FRANCISCO/SEATTLE
CA6432,96 NORTH THIRD STREET,"96 NORTH 3RD ST, SAN JOSE, CA, 95112-7702","OFCCP, WHD", - - , - - ,96 NORTH 3RD ST,SAN JOSE,CA,95112-7702,37.3388138595,-121.889431017,SAN FRANCISCO/SEATTLE
CA6581,3350 SHELBY STREET,"3350 SHELBY STREET, ONTARIO, CA, 91764-4882",WHD, - - , - - ,3350 SHELBY STREET,ONTARIO,CA,91764-4882,34.0704,-117.577447475,SAN FRANCISCO/SEATTLE
CA6770,"CABOT,CABOT & FORBES","550 WEST 'C' STREET, SAN DIEGO, CA, 92101-3540","ATELS, OFCCP, OSHA, WHD", - - , - - ,550 WEST 'C' STREET,SAN DIEGO,CA,92101-3540,32.7169,-117.167859184,SAN FRANCISCO/SEATTLE
CA6937,915 WILSHIRE BLVD,"915 WILSHIRE BLVD, LOS ANGELES, CA, 90017-3401","OLMS, WHD", - - , - - ,915 WILSHIRE BLVD,LOS ANGELES,CA,90017-3401,34.050503665,-118.259474347,SAN FRANCISCO/SEATTLE
CA6968,1890 PARK MARINA,"1890 PARK MARINA, REDDING, CA, 96002-0000",, - - , - - ,1890 PARK MARINA,REDDING,CA,96002-0000,40.5850774643,-122.375454929,SAN FRANCISCO/SEATTLE
CA7041,100 N BARRANCA ST,"100 NORTH BARRANCA ST, WEST COVINA, CA, 91791-1637","OIG, WHD", - - , - - ,100 NORTH BARRANCA ST,WEST COVINA,CA,91791-1637,34.0718,-117.881,SAN FRANCISCO/SEATTLE
CA7270,7027 DUBLIN BLVD,"7027 DUBLIN BLVD, DUBLIN, CA, 94568-3018",OWCP, - - , - - ,7027 DUBLIN BLVD,DUBLIN,CA,94568-3018,37.7059,-121.9231125,SAN FRANCISCO/SEATTLE
CA7275,701 PARKER,"701 SOUTH PARKER, ORANGE, CA, 92868-4720",BLS, - - , - - ,701 SOUTH PARKER,ORANGE,CA,92868-4720,33.7534,-117.8297,SAN FRANCISCO/SEATTLE
CA7302,KOLL CENTER PLAZA,"1055 EAST COLORADO BLVD, PASADENA, CA, 91106-2327",EBSA, - - , - - ,1055 EAST COLORADO BLVD,PASADENA,CA,91106-2327,34.1461,-118.128617647,SAN FRANCISCO/SEATTLE
CA7517,770 THE CITY DRIVE,"770 THE CITY DRIVE, ORANGE, CA, 92868-4900","OFCCP, WHD", - - , - - ,770 THE CITY DRIVE,ORANGE,CA,92868-4900,33.7786725061,-117.889006873,SAN FRANCISCO/SEATTLE
CA7675,MSHA,"720 CARNEGIE DRIVE, SAN BERNARDINO, CA, 92408-0000",MSHA, - - , - - ,720 CARNEGIE DRIVE,SAN BERNARDINO,CA,92408-0000,34.0696,-117.271707407,SAN FRANCISCO/SEATTLE
CA7918,CALIFORNIA CORPORATE CENTER,"4550 CALIFORNIA AVENUE, BAKERSFIELD, CA, 93309-7012",WHD, - - , - - ,4550 CALIFORNIA AVENUE,BAKERSFIELD,CA,93309-7012,35.3661481763,-119.053250861,SAN FRANCISCO/SEATTLE
CA8193,1640 S. SEPULVEDA BLVD,"1640 SOUTH SEPULVEDA BLVD, LOS ANGELES, CA, 90025-7510","BLS, OFCCP", - - , - - ,1640 SOUTH SEPULVEDA BLVD,LOS ANGELES,CA,90025-7510,34.0484842986,-118.444776796,SAN FRANCISCO/SEATTLE
CA8225,"991 NUT TREE ROAD, VACAVILLE","991 NUT TREE RD, VACAVILLE, CA, 95687-4165",MSHA, - - , - - ,991 NUT TREE RD,VACAVILLE,CA,95687-4165,38.3569301107,-121.9532,SAN FRANCISCO/SEATTLE
CA8237,801 YGNACIO VALLEY ROAD,"801 YGNACIO VALLEY ROAD, WALNUT CREEK, CA, 94596-3871",WHD, - - , - - ,801 YGNACIO VALLEY ROAD,WALNUT CREEK,CA,94596-3871,37.905,-122.0657,SAN FRANCISCO/SEATTLE
CA8275,WASHINGTON AVE. PROF. BLDG,"2334 WASHINGTON AVENUE, REDDING, CA, 96002-2257",WHD, - - , - - ,2334 WASHINGTON AVENUE,REDDING,CA,96002-2257,40.6692,-122.3544,SAN FRANCISCO/SEATTLE
CAJCC642,INLAND EMPIRE JOB CORPS CENTER,"3173 KERRY STREET, SAN BERNADINO, CA, 92405",JCC, - - , - - ,3173 KERRY STREET,SAN BERNADINO,CA,92405,34.1531191919,-117.3385,SAN FRANCISCO/SEATTLE
CAJCC643,LONG BEACH JOB CORPS CENTER,"1903 SANTA FE AVENUE, LONG BEACH, CA, ",JCC, - - , - - ,1903 SANTA FE AVENUE,LONG BEACH,CA,,33.7899,-118.2155,SAN FRANCISCO/SEATTLE
CAJCC644,LOS ANGELES JOB CORPS CENTER,"1106 SOUTH BROADWAY, LOS ANGELES, CA, 90015",JCC, - - , - - ,1106 SOUTH BROADWAY,LOS ANGELES,CA,90015,34.0393781955,-118.258933033,SAN FRANCISCO/SEATTLE
CAJCC646,SACRAMENTO JOB CORPS CENTER,"3100 MEADOWVIEW ROAD, SACRAMENTO, CA, ",JCC, - - , - - ,3100 MEADOWVIEW ROAD,SACRAMENTO,CA,,38.4813,-121.4637,SAN FRANCISCO/SEATTLE
CAJCC647,SAN DIEGO JOB CORPS CENTER,"1325 IRIS AVENUE, IMPERIAL BEACH, CA, 95832",JCC, - - , - - ,1325 IRIS AVENUE,IMPERIAL BEACH,CA,95832,38.6183,-121.4254,SAN FRANCISCO/SEATTLE
CAJCC648,SAN JOSE JOB CORPS CENTER,"3485 EAST HILLS DRIVE, SAN JOSE, CA, ",JCC, - - , - - ,3485 EAST HILLS DRIVE,SAN JOSE,CA,,37.3661971491,-121.819002851,SAN FRANCISCO/SEATTLE
CAJCC653,TREASURE ISLAND JOB CORPS CENTER,"655 H AVENUE, BUILDING 442, SAN FRANCISCO, CA, ",JCC, - - , - - ,"655 H AVENUE, BUILDING 442",SAN FRANCISCO,CA,,37.7183,-122.3651,SAN FRANCISCO/SEATTLE
CO0006,FB-CU,"721 19TH ST, DENVER, CO, 80202-2500",ATELS, - - , - - ,721 19TH ST,DENVER,CO,80202-2500,39.7483016152,-104.988641868,DALLAS/DENVER
CO0053,GSA PARKING LOT,"22D & STOUT STS, DENVER, CO, 80205-2064",ATELS, - - , - - ,22D & STOUT STS,DENVER,CO,80205-2064,39.7588,-104.9628,DALLAS/DENVER
CO0054,FB (COLONNADE CTR),"1244 SPEER BLVD, DENVER, CO, 80204-0000","BLS, OASAM, OFCCP, OLMS, OSEC, OSHA, SOL, WB", - - , - - ,1244 SPEER BLVD,DENVER,CO,80204-0000,39.7365472287,-104.995498152,DALLAS/DENVER
CO0514,DFC BLDG 25,"W 6TH AVE & KIPLING ST, LAKEWOOD, CO, 80225-0546",MSHA, - - , - - ,W 6TH AVE & KIPLING ST,LAKEWOOD,CO,80225-0546,39.7272,-105.1098,DALLAS/DENVER
CO0519,DFC BLDG 45,"W 6TH AVE & KIPLING ST, LAKEWOOD, CO, 80225-0546",MSHA, - - , - - ,W 6TH AVE & KIPLING ST,LAKEWOOD,CO,80225-0546,39.7272,-105.1098,DALLAS/DENVER
CO0530,DFC BLDG 53,"W 6TH AVE & KIPLING ST, LAKEWOOD, CO, 80225-0546","OIG, OWCP", - - , - - ,W 6TH AVE & KIPLING ST,LAKEWOOD,CO,80225-0546,39.7272,-105.1098,DALLAS/DENVER
CO1780,QUORUM BLDG,"7935 EAST PRENTICE AVE, GREENWOOD VILLAGE, CO, 80111-2708",OSHA, - - , - - ,7935 EAST PRENTICE AVE,GREENWOOD VILLAGE,CO,80111-2708,39.6204,-104.896417891,DALLAS/DENVER
CO1799,PARKWAY CENTER,"1391 SPEER BLVD, DENVER, CO, 80204-2508",OSHA, - - , - - ,1391 SPEER BLVD,DENVER,CO,80204-2508,39.7382939588,-104.996795973,DALLAS/DENVER
CO1811,1999 BROADWAY BLDG,"1999 BROADWAY, DENVER, CO, 80202-3025",WHD, - - , - - ,1999 BROADWAY,DENVER,CO,80202-3025,39.7474,-104.9874,DALLAS/DENVER
CO1980,THE PRESIDIO,"1155 KELLY JOHNSON BLVD, COLORADO SPGS, CO, 80920-3932",WHD, - - , - - ,1155 KELLY JOHNSON BLVD,COLORADO SPGS,CO,80920-3932,38.9453,-104.806665079,DALLAS/DENVER
CO1996,,"8758 WOLFF COURT, STE 100, WESTMINSTER, CO, 80031-6904",OWCP, - - , - - ,"8758 WOLFF COURT, STE 100",WESTMINSTER,CO,80031-6904,39.8560179775,-105.0491,DALLAS/DENVER
CO2075,415 GREEN STREET,"415 GREEN STREET, CRAIG, CO, 81625-2909",MSHA, - - , - - ,415 GREEN STREET,CRAIG,CO,81625-2909,40.5119083333,-107.5554,DALLAS/DENVER
CO2094,675 INDUSTRIAL BOULEVARD,"675 INDUSTRIAL BLVD, DELTA, CO, 81416-2811",MSHA, - - , - - ,675 INDUSTRIAL BLVD,DELTA,CO,81416-2811,38.7548227769,-108.034547141,DALLAS/DENVER
CO2096,THE LIBERTY CENTER,"114 NORTH SPRUCE STREET, GRAND JUNCTION, CO, 80501-5824",WHD, - - , - - ,114 NORTH SPRUCE STREET,GRAND JUNCTION,CO,80501-5824,40.1643,-105.1213,DALLAS/DENVER
COJCC615,COLLBRAN JOB CORPS CIVILIAN CONSERVATION CORPS,"57608 HIGHWAY 330, COLLBRAN, CO, ",JCC, - - , - - ,57608 HIGHWAY 330,COLLBRAN,CO,,39.1886,-108.0822,DALLAS/DENVER
CT0013,WILLIAM R. COTTER FB,"135 HIGH ST, HARTFORD, CT, 06103-1125","BLS, OFCCP, OSHA, WHD", - - , - - ,135 HIGH ST,HARTFORD,CT,06103-1125,41.7696803953,-72.6801,BOSTON/NEW YORK
CT0061,ROBERT N GIAIMO FB,"150 COURT ST, NEW HAVEN, CT, 06510-2022",WHD, - - , - - ,150 COURT ST,NEW HAVEN,CT,06510-2022,41.3058794209,-72.9227370688,BOSTON/NEW YORK
CT3354,"MERIDEN EXEC PARK, BLDG 1","530 PRESTON AVENUE, MERIDEN, CT, 06450-4893",OIG, - - , - - ,530 PRESTON AVENUE,MERIDEN,CT,06450-4893,41.5403289897,-72.7517908741,BOSTON/NEW YORK
CT3372,THE CLARK BUILDING,"1057 BROAD STREET, BRIDGEPORT, CT, 06604-4219",OSHA, - - , - - ,1057 BROAD STREET,BRIDGEPORT,CT,06604-4219,41.1774936779,-73.1909753778,BOSTON/NEW YORK
CT3400,SHAW'S COVE,"SUITE 206, NEW LONDON, CT, 06320-4974",OALJ, - - , - - ,SUITE 206,NEW LONDON,CT,06320-4974,41.3474,-72.1016,BOSTON/NEW YORK
CT3440,DANBURY CORPORATE CENTER,"107 MILL PLAIN RD, DANBURY, CT, 06811-6100",BLS, - - , - - ,107 MILL PLAIN RD,DANBURY,CT,06811-6100,41.3927,-73.5191,BOSTON/NEW YORK
CTJCC540,HARTFORD JOB CORPS CENTER,"100 OVERLOOK TERRACE, HARTFORD, CT, 6106",JCC, - - , - - ,100 OVERLOOK TERRACE,HARTFORD,CT,6106,41.7376,-72.7116049298,BOSTON/NEW YORK
CTJCC543,NEW HAVEN JOB CORPS CENTER,"455 WINTERGREEN AVENUE, NEW HAVEN, CT, 6515",JCC, - - , - - ,455 WINTERGREEN AVENUE,NEW HAVEN,CT,6515,41.3431,-72.962,BOSTON/NEW YORK
DC0011,POSTAL SQUARE,"2 MASSACHUSETTS AVE, NE, WASHINGTON, DC, 20001-0000",BLS, - - , - - ,"2 MASSACHUSETTS AVE, NE",WASHINGTON,DC,20001-0000,38.8978,-77.0091,NATIONAL OFFICE
DC0116,FRANCES PERKINS BLDG,"200 CONSTITUTION AVE NW, WASHINGTON, DC, 20210-0001","ARB, ASP, BLS, BOC/DIR/WCF, BOC/OAS/DIR, BOC/OCD, BOC/OFM, BOC/OPS, BOC/OSDBU, BOC/OSTM, BOC/SHC, BRB, CPPR, CRC/S&E, DBC/S&E, DOL, E-GOV, EBSA, ECAB, ETA, ETA/FLC, HRC/WCF, ILAB, LD OSEM, OASAM, OASAM/EEO, OCFO, OCIA, OCIO, ODEP, OFCCP, OIG, OJC, OLMS, OMBUDSMAN, OPA, OSEC/DEP SECY, OSEC/EX SECY, OSEC/SECY, OSEC/SECY (AUTO), OSHA, OWCP, SOL, VETS, WB, WHD", - - , - - ,200 CONSTITUTION AVE NW,WASHINGTON,DC,20210-0001,38.8921,-77.0136,NATIONAL OFFICE
DC0366,TECHWORLD PLAZA I,"800 K ST., N.W., WASHINGTON, DC, 20001-8000","OALJ, OASAM", - - , - - ,"800 K ST., N.W.",WASHINGTON,DC,20001-8000,38.9021,-77.0228,NATIONAL OFFICE
DC0373,UNION CTR PLZ 2,"820 FIRST ST NE, WASHINGTON, DC, 20002-4243",WHD, - - , - - ,820 FIRST ST NE,WASHINGTON,DC,20002-4243,38.9006531835,-77.0067597573,NATIONAL OFFICE
DC0406,800 N CAPITOL ST NW,"800 NORTH CAPITOL ST NW, WASHINGTON, DC, 20002-4244","OIG, OLMS, OWCP", - - , - - ,800 NORTH CAPITOL ST NW,WASHINGTON,DC,20002-4244,38.9002,-77.0091,NATIONAL OFFICE
DC0571,"122 C STREET, NW","122 C STREET, NW, WASHINGTON, DC, 20001-2109",EBSA, - - , - - ,"122 C STREET, NW",WASHINGTON,DC,20001-2109,38.8936,-77.0124744078,NATIONAL OFFICE
DC0811,COLORADO BUILDING,"1341 G ST NW, WASHINGTON, DC, 20005-3105",ETA/FLC, - - , - - ,1341 G ST NW,WASHINGTON,DC,20005-3105,38.8985,-77.0305795918,NATIONAL OFFICE
DCJCC565,POTOMAC JOB CORPS CENTER,"#1 D.C. VILLAGE LANE, S.W., WASHINGTON, DC, 20032",JCC, - - , - - ,"#1 D.C. VILLAGE LANE, S.W.",WASHINGTON,DC,20032,38.8337,-77.0066,NATIONAL OFFICE
DE0046,MELLON BANK CENTER,"919 MARKET STREET, WILMINGTON, DE, 19801-3023","OSHA, WHD", - - , - - ,919 MARKET STREET,WILMINGTON,DE,19801-3023,39.7262070056,-75.5560654637,PHILADELPHIA
DEJCC568,WILMINGTON JOB CORPS CENTER,"9 VANDEVER AVENUE, WILMINGTON, DE, 19802",JCC, - - , - - ,9 VANDEVER AVENUE,WILMINGTON,DE,19802,39.7516,-75.5404,PHILADELPHIA
FL0002,TIMBERLAKE FED ANNEX,"501 EAST POLK STREET, TAMPA, FL, 33602-3949","BLS, OLMS", - - , - - ,501 EAST POLK STREET,TAMPA,FL,33602-3949,27.951,-82.4576,ATLANTA
FL0064,R L TIMBERLAKE JR FB,"500 ZACK STREET, TAMPA, FL, 33602-3917","BLS, OLMS", - - , - - ,500 ZACK STREET,TAMPA,FL,33602-3917,27.9505,-82.4572,ATLANTA
FL0065,FB-PO-CT,"401 SOUTH EAST 1ST AVENUE, GAINESVILLE, FL, 32601-5806",WHD, - - , - - ,401 SOUTH EAST 1ST AVENUE,GAINESVILLE,FL,32601-5806,29.6508171227,-82.321749433,ATLANTA
FL0067,CHAS. E. BENNETT FB,"400 WEST  BAY ST, JACKSONVILLE, FL, 32202-4410","OFCCP, OWCP, WHD", - - , - - ,400 WEST  BAY ST,JACKSONVILLE,FL,32202-4410,30.3273,-81.663,ATLANTA
FL0079,BRICKELL PLAZA BLDG,"909 SOUTH EAST FIRST AVE., MIAMI, FL, 33131-3030",OFCCP, - - , - - ,909 SOUTH EAST FIRST AVE.,MIAMI,FL,33131-3030,25.7654081633,-80.192227551,ATLANTA
FL0089,FB-CT,"299 BROWARD, 3RD AVE, FT LAUDERDALE, FL, 33301-1944",WHD, - - , - - ,"299 BROWARD, 3RD AVE",FT LAUDERDALE,FL,33301-1944,26.1213,-80.1279,ATLANTA
FL2127,3200 BUILDING - MIDTOWN CENTRE,"1851 EXECUTIVE CTR. DR., JACKSONVILLE, FL, 32207-2365",OSHA, - - , - - ,1851 EXECUTIVE CTR. DR.,JACKSONVILLE,FL,32207-2365,30.3036894913,-81.619672334,ATLANTA
FL2133,COMMERCE POINTE,"1818 SOUTH AUSTRALIAN A, WEST PALM BEACH, FL, 33409-6452",WHD, - - , - - ,1818 SOUTH AUSTRALIAN A,WEST PALM BEACH,FL,33409-6452,26.7146,-80.0958,ATLANTA
FL2168,IMPERIAL PLAZA,"6767 NORTH WICKHAM ROAD, MELBOURNE, FL, 32940-2031",WHD, - - , - - ,6767 NORTH WICKHAM ROAD,MELBOURNE,FL,32940-2031,28.224486319,-80.6772195527,ATLANTA
FL2173,BRECKENRIDGE IV,"5807 BRECKENRIDGE PKWY, TAMPA, FL, 33610-4249",OSHA, - - , - - ,5807 BRECKENRIDGE PKWY,TAMPA,FL,33610-4249,28.0075404537,-82.3577032641,ATLANTA
FL2386,COASTAL CENTRE,"1635 SOUTH RIDGEWOOD AVE., DAYTONA BEACH, FL, 32119-8427",WHD, - - , - - ,1635 SOUTH RIDGEWOOD AVE.,DAYTONA BEACH,FL,32119-8427,29.1827054778,-81.0078013514,ATLANTA
FL2459,THE MARTIN BLDG.,"4161 CARMICHAEL AVENUE, JACKSONVILLE, FL, 32207-2353",OIG, - - , - - ,4161 CARMICHAEL AVENUE,JACKSONVILLE,FL,32207-2353,30.3042466957,-81.6180416304,ATLANTA
FL2497,SOUTH TRUST TOWER,"ONE EAST BROWARD BLVD, FT LAUDERDALE, FL, 33301-1804",OLMS, - - , - - ,ONE EAST BROWARD BLVD,FT LAUDERDALE,FL,33301-1804,26.1213,-80.1279,ATLANTA
FL2533,ROYAL PALM AT SOUTHPOINTE,"1000 SOUTH PINE ISLAND ROAD, PLANTATION, FL, 33324-3906","EBSA, OSHA", - - , - - ,1000 SOUTH PINE ISLAND ROAD,PLANTATION,FL,33324-3906,26.1085,-80.2621,ATLANTA
FL2536,ENTERPRISE BUILDING,"1001 EXECUTIVE CENTER DRIVE, ORLANDO, FL, 32803-3535","OFCCP, WHD", - - , - - ,1001 EXECUTIVE CENTER DRIVE,ORLANDO,FL,32803-3535,28.5589,-81.3422,ATLANTA
FL2802,SUNSET CENTER,"10300 SUNSET DRIVE, MIAMI, FL, 33173-3012",WHD, - - , - - ,10300 SUNSET DRIVE,MIAMI,FL,33173-3012,25.7012,-80.3642,ATLANTA
FL2935,1662 N. PARK AVE.,"1662 NORTH PARK AVE., BARTOW, FL, 33830-3139",MSHA, - - , - - ,1662 NORTH PARK AVE.,BARTOW,FL,33830-3139,27.9105771812,-81.8421,ATLANTA
FL2997,PEN WEST PARK,"2801 FRUITVILLE ROAD, SARASOTA, FL, 34237-5343",WHD, - - , - - ,2801 FRUITVILLE ROAD,SARASOTA,FL,34237-5343,27.3377,-82.5139,ATLANTA
FL3094,BLOUNT BLDG.,"3 WEST GARDEN ST., PENSACOLA, FL, 32502-5641",WHD, - - , - - ,3 WEST GARDEN ST.,PENSACOLA,FL,32502-5641,30.4125979285,-87.2154002872,ATLANTA
FL3112,CONCORDE PLAZA,"510 SHOTGUN ROAD, FT LAUDERDALE, FL, 33326-1956",OIG, - - , - - ,510 SHOTGUN ROAD,FT LAUDERDALE,FL,33326-1956,26.1095,-80.3496,ATLANTA
FL3338,12751 NEW BRITTANY BLVD,"12751 NEW BRITTANY BLVD, FT MYERS, FL, 33907-3694",WHD, - - , - - ,12751 NEW BRITTANY BLVD,FT MYERS,FL,33907-3694,26.5572195742,-81.880697583,ATLANTA
FL3386,BUILDING D,"325 JOHN KNOX RD, TALLAHASSEE, FL, 32303-4113","MSHA, WHD", - - , - - ,325 JOHN KNOX RD,TALLAHASSEE,FL,32303-4113,30.4745,-84.2853,ATLANTA
FL3387,DOL BLS BUILDING,"73 EGLIN PKY NE, FORT WALTON BEACH, FL, 32548-4929",BLS, - - , - - ,73 EGLIN PKY NE,FORT WALTON BEACH,FL,32548-4929,30.4163962963,-86.6072740741,ATLANTA
FL3394,4200 CYPRESS,"4200 WEST CYPRESS STREET, TAMPA, FL, 33609-4168",WHD, - - , - - ,4200 WEST CYPRESS STREET,TAMPA,FL,33609-4168,27.952,-82.4933,ATLANTA
FL3409,,"900 NORTH 14TH ST, LEESBURG, FL, 34748",WHD, - - , - - ,900 NORTH 14TH ST,LEESBURG,FL,34748,28.8234296875,-81.8875,ATLANTA
FLJCC576,GAINESVILLE JOB CORPS CENTER,"5301 N.E. 40TH TERRACE, GAINESVILLE, FL, ",JCC, - - , - - ,5301 N.E. 40TH TERRACE,GAINESVILLE,FL,,29.6978,-82.2758,ATLANTA
FLJCC578,HOMESTEAD JOB CORPS CENTER,"12350 SOUTH WEST 285TH STREET, HOMESTEAD, FL, 33033",JCC, - - , - - ,12350 SOUTH WEST 285TH STREET,HOMESTEAD,FL,33033,25.5025,-80.4128,ATLANTA
FLJCC579,JACKSONVILLE JOB CORPS CENTER,"4811 PAYNE STEWART DRIVE, JACKSONVILLE, FL, 32209",JCC, - - , - - ,4811 PAYNE STEWART DRIVE,JACKSONVILLE,FL,32209,30.361,-81.6962,ATLANTA
FLJCC584,MIAMI JOB CORPS CENTER,"3050 NORTH 183 STREET, MIAMI GARDENS, FL, 33056",JCC, - - , - - ,3050 NORTH 183 STREET,MIAMI GARDENS,FL,33056,25.9407,-80.2514789474,ATLANTA
GA0044,FB-CT,"126 WASHINGTON ST SE, GAINESVILLE, GA, 30501-3646",WHD, - - , - - ,126 WASHINGTON ST SE,GAINESVILLE,GA,30501-3646,34.2997876851,-83.8264317947,ATLANTA
GA0077,"JULIETTE GORDON LOW, FB","100 WEST OGLETHORPE, SAVANNAH, GA, 31401-3604",WHD, - - , - - ,100 WEST OGLETHORPE,SAVANNAH,GA,31401-3604,32.2633585786,-81.2229414214,ATLANTA
GA0081,"JULIETTE GORDON LOW, BLDG. B","124 BARNARD STREET, SAVANNAH, GA, 31401-3642",WHD, - - , - - ,124 BARNARD STREET,SAVANNAH,GA,31401-3642,32.0784,-81.0942,ATLANTA
GA1007,SAM NUNN ATLANTA FED. CTR.,"100 ALABAMA ST. SW, ATLANTA, GA, 30303-8701","ATELS, BLS, EBSA, ETA, OASAM, OCIA, OFCCP, OIG, OJC, OLMS, OPA, OSHA, SOL, VETS, WB, WHD", - - , - - ,100 ALABAMA ST. SW,ATLANTA,GA,30303-8701,33.753587882,-84.392075764,ATLANTA
GA1017,HOLIDAY NORTH DRIVE,"131 HOLIDAY DR N, MACON, GA, 31210-1804",WHD, - - , - - ,131 HOLIDAY DR N,MACON,GA,31210-1804,32.8988994317,-83.6861,ATLANTA
GA2005,LAVISTA OFFICE PARK,"2183 NORTHLAKE PARKWAY, TUCKER, GA, 30084-4108",OSHA, - - , - - ,2183 NORTHLAKE PARKWAY,TUCKER,GA,30084-4108,33.8485483333,-84.2446,ATLANTA
GA2051,AUGUSTA CORP CENTRE,"2743 PERIMETER PKWY, AUGUSTA, GA, 30909-6429",WHD, - - , - - ,2743 PERIMETER PKWY,AUGUSTA,GA,30909-6429,33.4848601607,-82.0842099598,ATLANTA
GA2064,450 BLDG,"4501 MALL BOULEVARD, SAVANNAH, GA, 31406-4824",OSHA, - - , - - ,4501 MALL BOULEVARD,SAVANNAH,GA,31406-4824,32.0003,-81.1052,ATLANTA
GA2152,HARRIS TOWER/PEACHTREE CENTER,"233  PEACHTREE ST., ATLANTA, GA, 30303-1504","ETA/FLC, WHD", - - , - - ,233  PEACHTREE ST.,ATLANTA,GA,30303-1504,33.7599785714,-84.3874,ATLANTA
GA2332,FORREST HILL BLDG,"1645 FORREST HILL, MACON, GA, 31210-1602",MSHA, - - , - - ,1645 FORREST HILL,MACON,GA,31210-1602,32.8885,-83.345,ATLANTA
GA2400,THE MERIDIAN,"1995 NORTH PARK PL SE, ATLANTA, GA, 30339-7801",OSHA, - - , - - ,1995 NORTH PARK PL SE,ATLANTA,GA,30339-7801,33.903998405,-84.4797844377,ATLANTA
GA2618,"ALBANY TOWERS, LTD","235 ROOSEVELT AVE., ALBANY, GA, 31701-2640",WHD, - - , - - ,235 ROOSEVELT AVE.,ALBANY,GA,31701-2640,31.5817,-84.1529565657,ATLANTA
GAJCC571,ATLANTA JOB CORPS CENTER,"239 WEST LAKE AVENUE, N.W., ATLANTA, GA, 30314",JCC, - - , - - ,"239 WEST LAKE AVENUE, N.W.",ATLANTA,GA,30314,33.7616,-84.4417,ATLANTA
GAJCC574,BRUNSWICK JOB CORPS CENTER,"4401 GLYNCO PARKWAY, BRUNSWICK, GA, 31525",JCC, - - , - - ,4401 GLYNCO PARKWAY,BRUNSWICK,GA,31525,31.2521285714,-81.4669265306,ATLANTA
GAJCC589,TURNER JOB CORPS CENTER,"2000 SCHILLING AVENUE, ALBANY, GA, 31705",JCC, - - , - - ,2000 SCHILLING AVENUE,ALBANY,GA,31705,31.6020896935,-84.1053,ATLANTA
GU7008,U.S. DISTRICT COURT BUILDING,"520 WEST SOLEDAD AVE, AGANA, GU, 96910-4916","OFCCP, WHD", - - , - - ,520 WEST SOLEDAD AVE,AGANA,GU,96910-4916,13.4771,144.7442,NATIONAL OFFICE
HI0011,PRINCE J. KUHIO FOB & CTHS,"300 ALA MOANA BLVD, HONOLULU, HI, 96850-0001","BLS, OFCCP, OLMS, OSHA, OWCP, WHD", - - , - - ,300 ALA MOANA BLVD,HONOLULU,HI,96850-0001,21.3054,-157.8628,SAN FRANCISCO/SEATTLE
HI6563,HARBOR SQUARE PARKING,"700 RICHARDS STREET, HONOLULU, HI, 96813-4605",VETS, - - , - - ,700 RICHARDS STREET,HONOLULU,HI,96813-4605,21.3055,-157.8625,SAN FRANCISCO/SEATTLE
HIJCC641,HAWAII JOB CORPS CENTER,"41-467 HIHIMANU STREET, WAIMANALO, HI, 96795",JCC, - - , - - ,41-467 HIHIMANU STREET,WAIMANALO,HI,96795,21.3443,-157.7221,SAN FRANCISCO/SEATTLE
IA0087,FED BLDG & US CTHSE,"316 - 20 6TH ST, SIOUX CITY, IA, 51101-1210",WHD, - - , - - ,316 - 20 6TH ST,SIOUX CITY,IA,51101-1210,42.4936,-96.3942,CHICAGO/KANSAS CITY
IA0112,NEAL SMITH FEDERAL BUILDING,"210 WALNUT ST, DES MOINES, IA, 50309-2115","ATELS, OSHA, WHD", - - , - - ,210 WALNUT ST,DES MOINES,IA,50309-2115,41.5866823131,-93.6197895692,CHICAGO/KANSAS CITY
IA1465,NORTHWEST BANK BLDG DOWNTOWN,"101 WEST 2ND, DAVENPORT, IA, 52801-1813",ATELS, - - , - - ,101 WEST 2ND,DAVENPORT,IA,52801-1813,41.521,-90.5748,CHICAGO/KANSAS CITY
IA1466,1615 CENTRAL AVENUE BUILDING,"1615 CENTRAL AVENUE, FORT DODGE, IA, 50501-4231",MSHA, - - , - - ,1615 CENTRAL AVENUE,FORT DODGE,IA,50501-4231,42.506,-94.1761,CHICAGO/KANSAS CITY
IA1535,RIVERS LANDING PARKING RAMP,"405 SIXTH STREET, SIOUX CITY, IA, 51102-1211",WHD, - - , - - ,405 SIXTH STREET,SIOUX CITY,IA,51102-1211,42.4965,-96.406344,CHICAGO/KANSAS CITY
IA1536,"305 2ND STREET SE, SUITE 200","305 2ND STREET SE, SUITE 200, CEDAR RAPIDS, IA, 52401-1703",WHD, - - , - - ,"305 2ND STREET SE, SUITE 200",CEDAR RAPIDS,IA,52401-1703,41.976842417,-91.6670252597,CHICAGO/KANSAS CITY
IAJCC595,DENISON JOB CORPS CENTER,"10 OPPORTUNITY DRIVE, DENISON, IA, 51442",JCC, - - , - - ,10 OPPORTUNITY DRIVE,DENISON,IA,51442,42.0153,-95.3285,CHICAGO/KANSAS CITY
ID4252,EXCHANGE PLAZA,"1820 EAST 17TH ST, IDAHO FALLS, ID, 83404-6469",OWCP, - - , - - ,1820 EAST 17TH ST,IDAHO FALLS,ID,83404-6469,43.4824,-111.997408824,SAN FRANCISCO/SEATTLE
ID4305,NATURAL RESOURCE CTR,"1387 SOUTH VINNELL WAY, BOISE, ID, 83709-1657","ATELS, OSHA, WHD", - - , - - ,1387 SOUTH VINNELL WAY,BOISE,ID,83709-1657,43.5920083183,-116.2859,SAN FRANCISCO/SEATTLE
ID4342,LAKEPOINTE CENTER 1,"300 EAST MALLARD, SUITE 150, BOISE, ID, 83706-6648",MSHA, - - , - - ,"300 EAST MALLARD, SUITE 150",BOISE,ID,83706-6648,43.5946,-116.1842,SAN FRANCISCO/SEATTLE
IDJCC636,CENTENNIAL JOB CORPS CIVILIAN CONSERVATION CENTER,"3201 RIDGECREST DRIVE, NAMPA, ID, 83687",JCC, - - , - - ,3201 RIDGECREST DRIVE,NAMPA,ID,83687,43.6051,-116.5328,SAN FRANCISCO/SEATTLE
IL0222,FEDERAL BUILDING,"105 SOUTH SIXTH STREET, MT VERNON, IL, 62864-4127","BLS, WHD", - - , - - ,105 SOUTH SIXTH STREET,MT VERNON,IL,62864-4127,38.3180669428,-88.8979,CHICAGO/KANSAS CITY
IL0231,FED PARKING FACILITY,"450 SOUTH FEDERAL STREET, CHICAGO, IL, 60605-0000","BLS, EBSA, OCIA, OFCCP, OLMS, OSHA, WHD", - - , - - ,450 SOUTH FEDERAL STREET,CHICAGO,IL,60605-0000,41.8762877551,-87.6299,CHICAGO/KANSAS CITY
IL0236,JOHN C. KLUCZYNSKI FED. BLDG.,"230 SOUTH DEARBORN STREET, CHICAGO, IL, 60604-1505","ATELS, BLS, EBSA, ETA, OASAM, OCIA, OFCCP, OIG, OJC, OLMS, OPA, OSHA, OWCP, SOL, VETS, WB, WHD", - - , - - ,230 SOUTH DEARBORN STREET,CHICAGO,IL,60604-1505,41.8790613944,-87.6295,CHICAGO/KANSAS CITY
IL0303,METCALFE BUILDING,"77 WEST JACKSON, CHICAGO, IL, 60604-3511",OSHA, - - , - - ,77 WEST JACKSON,CHICAGO,IL,60604-3511,41.6499,-87.6594,CHICAGO/KANSAS CITY
IL2125,11 W QUINCY COURT,"11 WEST QUINCY COURT, CHICAGO, IL, 60604-2105",ETA, - - , - - ,11 WEST QUINCY COURT,CHICAGO,IL,60604-2105,41.8788,-87.6314,CHICAGO/KANSAS CITY
IL2175,NARCO RIVER BUSINESS CENTER,"1600-167TH STREET, CALUMET CITY, IL, 60409-5457",OSHA, - - , - - ,1600-167TH STREET,CALUMET CITY,IL,60409-5457,41.6199,-87.5759,CHICAGO/KANSAS CITY
IL2194,IL VALLEY OFFICE PK,"2200 MARQUETTE ROAD, PERU, IL, 61354-1547",MSHA, - - , - - ,2200 MARQUETTE ROAD,PERU,IL,61354-1547,41.3427332025,-89.1170166013,CHICAGO/KANSAS CITY
IL2246,STEWART SQUARE,"308 WEST STATE STREET, ROCKFORD, IL, 61101-1117",ATELS, - - , - - ,308 WEST STATE STREET,ROCKFORD,IL,61101-1117,42.271467438,-89.0954820896,CHICAGO/KANSAS CITY
IL2279,HERITAGE PLACE,"1515 5TH AVENUE, MOLINE, IL, 61265-1367",WHD, - - , - - ,1515 5TH AVENUE,MOLINE,IL,61265-1367,41.5064580977,-90.5161860815,CHICAGO/KANSAS CITY
IL2283,BUSINESS CENTER III,"11 EXECUTIVE DRIVE, FAIRVIEW HEIGHTS, IL, 62208-1357",OSHA, - - , - - ,11 EXECUTIVE DRIVE,FAIRVIEW HEIGHTS,IL,62208-1357,38.5999489003,-89.9806,CHICAGO/KANSAS CITY
IL2439,701 LEE BUILDING,"701 LEE STREET, DES PLAINES, IL, 60016-4539",OSHA, - - , - - ,701 LEE STREET,DES PLAINES,IL,60016-4539,42.0381,-87.8905,CHICAGO/KANSAS CITY
IL2440,OSHA TRAINING FACILITY,"2020 SOUTH ARLINGTON HEIGHTS ROAD, ARLINGTON HTS, IL, 60005-4102",OSHA, - - , - - ,2020 SOUTH ARLINGTON HEIGHTS ROAD,ARLINGTON HTS,IL,60005-4102,42.0513657143,-87.9819,CHICAGO/KANSAS CITY
IL2444,GARBE SMOKE TREE OFFICE PLAZA,"365 SMOKE TREE LANE, NORTH AURORA, IL, 60542-9800",OSHA, - - , - - ,365 SMOKE TREE LANE,NORTH AURORA,IL,60542-9800,42.2757,-88.3166,CHICAGO/KANSAS CITY
IL2491,NOVANIS E-BUSINESS CENTER,"3161 WEST WHITE OAKS DRIVE, SPRINGFIELD, IL, 62702-7406","ATELS, WHD", - - , - - ,3161 WEST WHITE OAKS DRIVE,SPRINGFIELD,IL,62702-7406,39.7603569794,-89.7087430206,CHICAGO/KANSAS CITY
IL2580,1320 W. COMMERCE DR.,"1320 WEST COMMERCE DR., PEORIA, IL, 61615-1462","OSHA, WHD", - - , - - ,1320 WEST COMMERCE DR.,PEORIA,IL,61615-1462,40.628,-89.4554,CHICAGO/KANSAS CITY
IL2594,BAYS PROFESSIONAL CENTRE,"10 WEST CASS STREET, JOLIET, IL, 60432-4116",ATELS, - - , - - ,10 WEST CASS STREET,JOLIET,IL,60432-4116,41.5276,-88.0818166667,CHICAGO/KANSAS CITY
IL2629,11006 AIRPORT TRAIL,"11006 AIRPORT TRL, LITCHFIELD, IL, 62056-4450",MSHA, - - , - - ,11006 AIRPORT TRL,LITCHFIELD,IL,62056-4450,39.1615,-89.668,CHICAGO/KANSAS CITY
IL2630,8223 EXPRESS DRIVE,"8223 EXPRESS DR, MARION, IL, 62959-5874",MSHA, - - , - - ,8223 EXPRESS DR,MARION,IL,62959-5874,37.7458,-89.0080374946,CHICAGO/KANSAS CITY
ILJCC600,GOLCONDA JOB CORPS CIVILIAN CONSERVATION CENTER,"RURAL ROUTE 1, BOX 104A, GOLCONDA, IL, 62938",JCC, - - , - - ,"RURAL ROUTE 1, BOX 104A",GOLCONDA,IL,62938,37.3815,-88.5394,CHICAGO/KANSAS CITY
ILJCC604,JOLIET JOB CORPS CENTER,"1101 MILLS ROAD, JOLIET, IL, 60433",JCC, - - , - - ,1101 MILLS ROAD,JOLIET,IL,60433,41.5030516832,-88.0540944546,CHICAGO/KANSAS CITY
ILJCC606,PAUL SIMON CHICAGO JOB CORPS CENTER,"3348 SOUTH KEDZIE AVENUE, CHICAGO, IL, 60623",JCC, - - , - - ,3348 SOUTH KEDZIE AVENUE,CHICAGO,IL,60623,41.832,-87.7047,CHICAGO/KANSAS CITY
IN0048,BIRCH BAYH FED BLDG & US CTHSE,"46 EAST OHIO STREET, INDIANAPOLIS, IN, 46204-1903","ATELS, BLS, OFCCP, OSHA", - - , - - ,46 EAST OHIO STREET,INDIANAPOLIS,IN,46204-1903,39.7698,-86.1532,CHICAGO/KANSAS CITY
IN0127,USPS BUILDING,"101 NORTH WESTMARTIN LUTHER KING BLVD, EVANSVILLE, IN, 47708-1951","BLS, WHD", - - , - - ,101 NORTH WESTMARTIN LUTHER KING BLVD,EVANSVILLE,IN,47708-1951,37.9746,-87.5733,CHICAGO/KANSAS CITY
IN0133,MINTON-CAPEHART F/B,"575 NORTH PENNSYLVANIA, INDIANAPOLIS, IN, 46204-1563","ATELS, OSHA", - - , - - ,575 NORTH PENNSYLVANIA,INDIANAPOLIS,IN,46204-1563,39.7889,-85.7718,CHICAGO/KANSAS CITY
IN1728,2300 WILLOW STREET,"2300 WILLOW STREET, VINCENNES, IN, 47591-5416",MSHA, - - , - - ,2300 WILLOW STREET,VINCENNES,IN,47591-5416,38.6544,-87.5295,CHICAGO/KANSAS CITY
IN1783,EARL & HATCHER BUILDING,"8 NORTH 3RD STREET, LAFAYETTE, IN, 47901-1221",WHD, - - , - - ,8 NORTH 3RD STREET,LAFAYETTE,IN,47901-1221,40.417264504,-86.8944058588,CHICAGO/KANSAS CITY
IN1805,VIRIDIAN OFFICE PARK,"2420 VIRIDIAN DRIVE, SOUTH BEND, IN, 46628-4396","ATELS, WHD", - - , - - ,2420 VIRIDIAN DRIVE,SOUTH BEND,IN,46628-4396,41.7104369947,-86.2943267757,CHICAGO/KANSAS CITY
IN1879,BMO (M & I) PLAZA,"135 NORTH PENNSYLVANIA ST, INDIANAPOLIS, IN, 46204-2400",WHD, - - , - - ,135 NORTH PENNSYLVANIA ST,INDIANAPOLIS,IN,46204-2400,39.76875,-86.1562,CHICAGO/KANSAS CITY
IN1895,,"100 TOWN CENTER SOUTH DRIVE, MOORESVILLE, IN, 46158",MSHA, - - , - - ,100 TOWN CENTER SOUTH DRIVE,MOORESVILLE,IN,46158,39.5794,-86.3736,CHICAGO/KANSAS CITY
INJCC590,ATTERBURY JOB CORPS CENTER,"P.O. BOX 187, EDINBURGH, IN, 46124",JCC, - - , - - ,P.O. BOX 187,EDINBURGH,IN,46124,39.37,-85.9278,CHICAGO/KANSAS CITY
INJCC603,INDYPENDENCE CAREER DEVELOPMENT CENTER,"222 EAST OHIO STREET, SUITE 300, INDIANAPOLIS, IN, 46204",JCC, - - , - - ,"222 EAST OHIO STREET, SUITE 300",INDIANAPOLIS,IN,46204,39.7698,-86.1535,CHICAGO/KANSAS CITY
KS0070,U S COURT HOUSE,"401 NORTH MARKET ST, WICHITA, KS, 67202-2089",WHD, - - , - - ,401 NORTH MARKET ST,WICHITA,KS,67202-2089,37.6918,-97.3369,CHICAGO/KANSAS CITY
KS0092,FRANK CARLSON FB&CT,"444 SOUTH EAST QUINCY, TOPEKA, KS, 66683-3503",MSHA, - - , - - ,444 SOUTH EAST QUINCY,TOPEKA,KS,66683-3503,38.9941,-95.6756,CHICAGO/KANSAS CITY
KS1443,TOWER II-GATEWAY CTR,"4TH & STATE AVE, KANSAS CITY, KS, 66101-2304",WHD, - - , - - ,4TH & STATE AVE,KANSAS CITY,KS,66101-2304,39.1233,-94.8295,CHICAGO/KANSAS CITY
KS1473,4830 WEST 15TH ST,"4830 WEST 15TH ST, LAWRENCE, KS, 66044-3885",, - - , - - ,4830 WEST 15TH ST,LAWRENCE,KS,66044-3885,38.9571,-95.2547,CHICAGO/KANSAS CITY
KS1492,8600 FARLEY,"8600 FARLEY, OVERLAND PARK, KS, 66212-4676",OSHA, - - , - - ,8600 FARLEY,OVERLAND PARK,KS,66212-4676,38.8875,-94.6997,CHICAGO/KANSAS CITY
KS1543,324 E MAIN,"324 EAST MAIN, CHANUTE, KS, 66720-1837",BLS, - - , - - ,324 EAST MAIN,CHANUTE,KS,66720-1837,37.5702693878,-95.2432,CHICAGO/KANSAS CITY
KS1618,BANK OF AMERICA CENTER,"100 NORTH BROADWAY ST, WICHITA, KS, 67202-2212",OSHA, - - , - - ,100 NORTH BROADWAY ST,WICHITA,KS,67202-2212,37.686,-97.3356,CHICAGO/KANSAS CITY
KSJCC599,FLINT HILLS JOB CORPS CENTER,"4620 EUREKA DRIVE, MANHATTAN, KS, ",JCC, - - , - - ,4620 EUREKA DRIVE,MANHATTAN,KS,,39.153,-96.6509,CHICAGO/KANSAS CITY
KY0006,WILLIAM H. NATCHER FB-USCT,"242 EAST MAIN ST, BOWLING GREEN, KY, 42101-2141",WHD, - - , - - ,242 EAST MAIN ST,BOWLING GREEN,KY,42101-2141,37.1935,-86.2687,ATLANTA
KY0086,ROMANO MAZZOLI FB,"600 M.L. KING, JR. PLAC, LOUISVILLE, KY, 40202-2239",WHD, - - , - - ,"600 M.L. KING, JR. PLAC",LOUISVILLE,KY,40202-2239,38.2568,-85.754,ATLANTA
KY0089,CARL D PERKINS FBCT,"1405 GREENUP AVENUE, ASHLAND, KY, 41101-7542",, - - , - - ,1405 GREENUP AVENUE,ASHLAND,KY,41101-7542,38.4806680073,-82.6410440127,ATLANTA
KY1504,VAUGHN BUILDING,"112 EAST MAIN ST, MORGANFIELD, KY, 42437-1508",MSHA, - - , - - ,112 EAST MAIN ST,MORGANFIELD,KY,42437-1508,37.6829375695,-87.9158595724,ATLANTA
KY1665,BRANCH BANKING AND TRUST CO.,"334 MAIN STREET, PIKEVILLE, KY, 41501-1162",OWCP, - - , - - ,334 MAIN STREET,PIKEVILLE,KY,41501-1162,37.4816801048,-82.5157198952,ATLANTA
KY1684,FT WRIGHT EXECUTIVE BLDG,"1885 DIXIE HIGHWAY, FORT WRIGHT, KY, 41011-2662","EBSA, WHD", - - , - - ,1885 DIXIE HIGHWAY,FORT WRIGHT,KY,41011-2662,39.0580375,-84.5428,ATLANTA
KY1712,WHITESBURG PROF.BLDG,"791 JENKINS RD., WHITESBURG, KY, 41858-7617",MSHA, - - , - - ,791 JENKINS RD.,WHITESBURG,KY,41858-7617,37.1162253737,-82.7968373131,ATLANTA
KY1717,MSHA BUILDING,"HIGHWAY 122, MARTIN, KY, 41649-0000",MSHA, - - , - - ,HIGHWAY 122,MARTIN,KY,41649-0000,37.5565,-82.7515,ATLANTA
KY2015,EPLING BUILDING,"15169 FERRELLS CREEK DR, BELCHER, KY, 41513-8528",MSHA, - - , - - ,15169 FERRELLS CREEK DR,BELCHER,KY,41513-8528,37.343399505,-82.372440693,ATLANTA
KY2018,GSA OFFICE BUILDING,"YMCA DR & NORTH MAIN ST., MADISONVILLE, KY, 42431-0000",MSHA, - - , - - ,YMCA DR & NORTH MAIN ST.,MADISONVILLE,KY,42431-0000,37.3415,-87.4973,ATLANTA
KY2039,51 TWAY ADDL BLDG,"51 TWAY ADDL, 421 BYPAS, HARLAN, KY, 40831-0000",MSHA, - - , - - ,"51 TWAY ADDL, 421 BYPAS",HARLAN,KY,40831-0000,36.7665,-83.3543,ATLANTA
KY2051,152 WEST ZANDALE,"152 WEST ZANDALE DRIVE, LEXINGTON, KY, 40503-2486",MSHA, - - , - - ,152 WEST ZANDALE DRIVE,LEXINGTON,KY,40503-2486,38.0084193552,-84.5180369044,ATLANTA
KY2083,BIMBLE BUILDING,"HIGHWAY 25 EAST, BARBOURVILLE, KY, 40906-1319",MSHA, - - , - - ,HIGHWAY 25 EAST,BARBOURVILLE,KY,40906-1319,36.9366,-84.0657,ATLANTA
KY2089,CENTURY BUILDING,"100 FOUNTAIN AVE SUITE 203, PADUCAH, KY, 42001-2771",WHD, - - , - - ,100 FOUNTAIN AVE SUITE 203,PADUCAH,KY,42001-2771,37.0789,-88.6174,ATLANTA
KY2090,BEAUMONT OFFICE PLAZA,"3141 BEAUMONT CENTRE CIRCLE, LEXINGTON, KY, 40513-1934",WHD, - - , - - ,3141 BEAUMONT CENTRE CIRCLE,LEXINGTON,KY,40513-1934,38.020311574,-84.556123148,ATLANTA
KY3010,VINSON BUILDING,"402 CAMPBELL WAY, MOUNT STERLING, KY, 40353-7847",OWCP, - - , - - ,402 CAMPBELL WAY,MOUNT STERLING,KY,40353-7847,38.0782,-83.9532,ATLANTA
KY3014,MSHA BUILDING,"100 FAE RAMSEY LANE, PIKEVILLE, KY, 41501-3294",MSHA, - - , - - ,100 FAE RAMSEY LANE,PIKEVILLE,KY,41501-3294,37.523,-82.5698,ATLANTA
KY3069,BARKLEY CENTRE,"125 MEMORIAL DRIVE, PADUCAH, KY, 72001-6793",OWCP, - - , - - ,125 MEMORIAL DRIVE,PADUCAH,KY,72001-6793,35.0584,-92.8858,ATLANTA
KY3086,"LOT 1, TOWN SQUARE PLAZA","HWY 231 SOUTH, BEAVER DAM, KY, 42320-9452",MSHA, - - , - - ,HWY 231 SOUTH,BEAVER DAM,KY,42320-9452,37.4068,-86.8747,ATLANTA
KY3113,10412 PHELPS 632 ROAD,"10412 PHELPS 632 ROAD, PHELPS, KY, 41553-8747",MSHA, - - , - - ,10412 PHELPS 632 ROAD,PHELPS,KY,41553-8747,37.4887702512,-82.1863455708,ATLANTA
KY3127,MSHA BUILDING,"145 REYNOLDS LANE, HAZARD, KY, 41701-1437",MSHA, - - , - - ,145 REYNOLDS LANE,HAZARD,KY,41701-1437,37.4673707212,-83.6226707212,ATLANTA
KYJCC552,CARL D. PERKINS JOB CORPS CENTER,"478 MEADOWS BRANCH, PRESTONBURG, KY, 41653",JCC, - - , - - ,478 MEADOWS BRANCH,PRESTONBURG,KY,41653,37.8447,-82.5164,ATLANTA
KYJCC554,EARLE C. CLEMENTS JOB CORPS CENTER,"2302 US HIGHWAY 60 EAST, MORGANFIELD, KY, 42437",JCC, - - , - - ,2302 US HIGHWAY 60 EAST,MORGANFIELD,KY,42437,37.6937,-87.878,ATLANTA
KYJCC556,FRENCHBURG JOB CORPS CIVILIAN CONSERVATION CORPS,"6969 TARR RIDGE ROAD, FRENCHBURG, KY, 40322",JCC, - - , - - ,6969 TARR RIDGE ROAD,FRENCHBURG,KY,40322,37.8652318746,-83.6375,ATLANTA
KYJCC557,GREAT ONYX JOB CORPS CIVILIAN CONSERVATION CORPS,"3115 OLLIE RIDGE ROAD, MAMMOTH CAVE, KY, ",JCC, - - , - - ,3115 OLLIE RIDGE ROAD,MAMMOTH CAVE,KY,,37.2527,-86.2244042685,ATLANTA
KYJCC560,MUHLENBERG CAREER DEVELOPMENT CENTER,"3875 STATE ROUTE, GREENVILLE, KY, 42345",JCC, - - , - - ,3875 STATE ROUTE ,GREENVILLE,KY,42345,37.1359,-87.1837,ATLANTA
KYJCC563,PINE KNOT JOB CORPS CIVILIAN CONSERVATION CORPS,"US HIGHWAY 27, PINE KNOT, KY, ",JCC, - - , - - ,US HIGHWAY 27,PINE KNOT,KY,,36.6486,-84.4342,ATLANTA
KYJCC567,WHITNEY M. YOUNG JR. JOB CORPS CENTER,"8460 SHELBYVILLE ROAD, SIMPSONVILLE, KY, 40067",JCC, - - , - - ,8460 SHELBYVILLE ROAD,SIMPSONVILLE,KY,40067,38.224,-85.3730230769,ATLANTA
LA0002,ALEXANDRIA USPO/COURTHOUSE,"515 MURRAY STREET, ALEXANDRIA, LA, 71301-8076",WHD, - - , - - ,515 MURRAY STREET,ALEXANDRIA,LA,71301-8076,31.3100794996,-92.4458376577,DALLAS/DENVER
LA0034,FE HEBERT FEDERAL BLDG,"600 SOUTH MAESTRI PLACE, NEW ORLEANS, LA, 70130-3413","OFCCP, OLMS, OWCP, WHD", - - , - - ,600 SOUTH MAESTRI PLACE,NEW ORLEANS,LA,70130-3413,29.9475,-90.0699,DALLAS/DENVER
LA0072,FDA OPEN LAND,"701 ST CHARLES AVE, NEW ORLEANS, LA, 70130-3713","OFCCP, OLMS, WHD", - - , - - ,701 ST CHARLES AVE,NEW ORLEANS,LA,70130-3713,30.3246,-89.8915,DALLAS/DENVER
LA0098,SHREVEPORT COURTHOUSE,"300 FANNIN ST, SHREVEPORT, LA, 71101-3141",WHD, - - , - - ,300 FANNIN ST,SHREVEPORT,LA,71101-3141,32.5159,-93.7494,DALLAS/DENVER
LA1280,BLUEBONNET CENTRE,"9100 BLUEBONNET CTR BVD, BATON ROUGE, LA, 70809-2809",OSHA, - - , - - ,9100 BLUEBONNET CTR BVD,BATON ROUGE,LA,70809-2809,30.394,-91.071,DALLAS/DENVER
LA1290,ZODIAC DEVELOPMENT,"5353 ESSEN LANE, BATON ROUGE, LA, 70809-3587","BLS, OIG, WHD", - - , - - ,5353 ESSEN LANE,BATON ROUGE,LA,70809-3587,30.3997750507,-91.1066886041,DALLAS/DENVER
LA1422,130 DESSAIRD STREET,"130 DESSAIRD STREET, MONROE, LA, 71201-7319",WHD, - - , - - ,130 DESSAIRD STREET,MONROE,LA,71201-7319,32.5329,-92.1059,DALLAS/DENVER
LA1434,"MATTKIM, INC BUILDING","1992 FLORIDA BOULEVARD, DENHAM SPRINGS, LA, 70726-4971",MSHA, - - , - - ,1992 FLORIDA BOULEVARD,DENHAM SPRINGS,LA,70726-4971,30.4843,-90.9436,DALLAS/DENVER
LA1651,LAFAYETTE PLAZA,"4021 AMBASSADOR CAFFERY PKY, LAFAYETTE, LA, 70503-5281","BLS, WHD", - - , - - ,4021 AMBASSADOR CAFFERY PKY,LAFAYETTE,LA,70503-5281,30.1660490662,-92.0599214261,DALLAS/DENVER
LA1654,BOSSETTA BUILDING,"3715 WILLIAMS BLVD, KENNER, LA, 70065-3075",WHD, - - , - - ,3715 WILLIAMS BLVD,KENNER,LA,70065-3075,30.0241783784,-90.2390567568,DALLAS/DENVER
LA1658,COVINGTON VILLAGE RESOURCE BAN,"5100 VILLAGE WALK DRIVE, COVINGTON, LA, 70433-4012",OALJ, - - , - - ,5100 VILLAGE WALK DRIVE,COVINGTON,LA,70433-4012,30.4796796802,-90.0906934149,DALLAS/DENVER
LAJCC612,CARVILLE JOB CORPS ACADEMY,"5465 POINT CLAIR ROAD, CARVILLE, LA, 70721",JCC, - - , - - ,5465 POINT CLAIR ROAD,CARVILLE,LA,70721,30.1966942191,-91.1244566419,DALLAS/DENVER
LAJCC622,NEW ORLEANS JOB CORPS CENTER,"3801 HOLLYGROVE STREET, NEW ORLEANS, LA, 70118",JCC, - - , - - ,3801 HOLLYGROVE STREET,NEW ORLEANS,LA,70118,29.9718,-90.1173,DALLAS/DENVER
LAJCC627,SHREVEPORT JOB CORPS CENTER,"2815 LILLIAN STREET, SHREVEPORT, LA, 71109",JCC, - - , - - ,2815 LILLIAN STREET,SHREVEPORT,LA,71109,32.4917,-93.7826142857,DALLAS/DENVER
MA0131,JFK FEDERAL BUILDING,"GOVERNMENT CENTER, BOSTON, MA, 02203-0002","BLS, EBSA, ETA, OASAM, OFCCP, OIG, OJC, OLMS, OPA, OSHA, OWCP, SOL, VETS, WB, WHD", - - , - - ,GOVERNMENT CENTER,BOSTON,MA,02203-0002,42.3606,-71.0588,BOSTON/NEW YORK
MA0153,THOMAS P. O'NEILL JR. FB,"10 CAUSEWAY STREET, BOSTON, MA, 02222-1047",OALJ, - - , - - ,10 CAUSEWAY STREET,BOSTON,MA,02222-1047,42.3642,-71.0634,BOSTON/NEW YORK
MA5619,COLONIAL BLOCK,"1145 MAIN STREET, SPRINGFIELD, MA, 01103-2123",, - - , - - ,1145 MAIN STREET,SPRINGFIELD,MA,01103-2123,42.1005557071,-72.5860728644,BOSTON/NEW YORK
MA5649,639 GRANITE STREET,"639 GRANITE STREET, BRAINTREE, MA, 02184-5366",OSHA, - - , - - ,639 GRANITE STREET,BRAINTREE,MA,02184-5366,42.20948,-71.02054,BOSTON/NEW YORK
MA5654,ONE CONGRESS STREET,"ONE CONGRESS STREET, BOSTON, MA, 02114-2010","BLS, OLMS, WB", - - , - - ,ONE CONGRESS STREET,BOSTON,MA,02114-2010,42.3632,-71.0686,BOSTON/NEW YORK
MA5793,1441 MAIN STREET,"1441 MAIN STREET, SPRINGFIELD, MA, 01103-1406","BLS, OSHA, WHD", - - , - - ,1441 MAIN STREET,SPRINGFIELD,MA,01103-1406,42.1029432341,-72.590804296,BOSTON/NEW YORK
MA5826,102 DEAN ST,"102-104 DEAN STREET, TAUNTON, MA, 02780-2714",WHD, - - , - - ,102-104 DEAN STREET,TAUNTON,MA,02780-2714,41.9045,-71.0749,BOSTON/NEW YORK
MA5935,138 RIVER ROAD,"138 RIVER ROAD, ANDOVER, MA, 01810-0000",OSHA, - - , - - ,138 RIVER ROAD,ANDOVER,MA,01810-0000,42.6914435613,-71.210408585,BOSTON/NEW YORK
MAJCC539,GRAFTON JOB CORPS CENTER,"100 PINE STREET, NORTH GRAFTON, MA, 1536",JCC, - - , - - ,100 PINE STREET,NORTH GRAFTON,MA,1536,42.277,-71.7495,BOSTON/NEW YORK
MAJCC548,SHRIVER JOB CORPS CENTER,"270 JACKSON ROAD, DEVENS, MA, 1434",JCC, - - , - - ,270 JACKSON ROAD,DEVENS,MA,1434,42.5526,-71.6084210305,BOSTON/NEW YORK
MAJCC550,WESTOVER JOB CORPS CENTER,"103 JOHNSON DRIVE, CHICOPEE, MA, 1022",JCC, - - , - - ,103 JOHNSON DRIVE,CHICOPEE,MA,1022,42.0901908425,-72.5594366302,BOSTON/NEW YORK
MD0006,US CUSTOMHOUSE,"40 SOUTH GAY STREET, BALTIMORE, MD, 21202-4022",BLS, - - , - - ,40 SOUTH GAY STREET,BALTIMORE,MD,21202-4022,39.2884,-76.6088,PHILADELPHIA
MD0033,MAUDE R TOULSON FED BLDG,"129 EAST MAIN ST, SALISBURY, MD, 21801-4920",WHD, - - , - - ,129 EAST MAIN ST,SALISBURY,MD,21801-4920,38.3657,-75.5999356502,PHILADELPHIA
MD0205,SS METRO CENTER 1,"1335 EAST-WEST HWY, SILVER SPRING, MD, 20910-3225",EBSA, - - , - - ,1335 EAST-WEST HWY,SILVER SPRING,MD,20910-3225,38.9920093807,-77.0305994208,PHILADELPHIA
MD0744,AIRPORT SQUARE XIX,"1099 WINTERSON ROAD, LINTHICUM HEIGHTS, MD, 21090-2216",OSHA, - - , - - ,1099 WINTERSON ROAD,LINTHICUM HEIGHTS,MD,21090-2216,39.20507375,-76.6769859066,PHILADELPHIA
MD1058,HI BUILDING,"1550 DEEP CREEK DRIVE, MCHENRY, MD, 21541-1286",MSHA, - - , - - ,1550 DEEP CREEK DRIVE,MCHENRY,MD,21541-1286,39.5505,-79.3515,PHILADELPHIA
MD1107,2 HOPKINS PLAZA,"2 HOPKINS PLZ, BALTIMORE, MD, 21201-2930","OFCCP, WHD", - - , - - ,2 HOPKINS PLZ,BALTIMORE,MD,21201-2930,39.2893,-76.6165,PHILADELPHIA
MD1361,METRO III,"6525 BELCREST ROAD, HYATTSVILLE, MD, 20782-2003",WHD, - - , - - ,6525 BELCREST ROAD,HYATTSVILLE,MD,20782-2003,38.9687009219,-76.9539,PHILADELPHIA
MDJCC569,WOODLAND JOB CORPS CENTER,"3300 FORT MEADE ROAD, LAUREL, MD, 20724",JCC, - - , - - ,3300 FORT MEADE ROAD,LAUREL,MD,20724,39.098,-76.8061,PHILADELPHIA
MDJCC570,WOODSTOCK JOB CORPS CENTER,"10900 OLD COURT ROAD, WOODSTOCK, MD, 21163",JCC, - - , - - ,10900 OLD COURT ROAD,WOODSTOCK,MD,21163,39.3398361121,-76.8581958319,PHILADELPHIA
ME0035,US CUSTOM HOUSE,"312 FORE STREET, PORTLAND, ME, 04101-4110",WHD, - - , - - ,312 FORE STREET,PORTLAND,ME,04101-4110,43.6572,-70.2516,BOSTON/NEW YORK
ME0061,M.C. SMITH FB POCH,"202 HARLOW ST, BANGOR, ME, 04401-4901","OSHA, WHD", - - , - - ,202 HARLOW ST,BANGOR,ME,04401-4901,44.8046968328,-68.7732957771,BOSTON/NEW YORK
ME0068,EDMUND S MUSKIE FB,"40 WESTERN AVE, AUGUSTA, ME, 04330-6350",OSHA, - - , - - ,40 WESTERN AVE,AUGUSTA,ME,04330-6350,44.31098429,-69.7834212021,BOSTON/NEW YORK
ME4237,INTOWN PLAZA,"HARLOW STREET, BANGOR, ME, 04401-9999",OSHA, - - , - - ,HARLOW STREET,BANGOR,ME,04401-9999,44.804,-68.7716,BOSTON/NEW YORK
MEJCC542,LORING JOB CORPS CENTER,"LORING COMMERCE CENTER, LIMESTONE, ME, 4750",JCC, - - , - - ,LORING COMMERCE CENTER,LIMESTONE,ME,4750,46.9242,-67.8741,BOSTON/NEW YORK
MEJCC546,PENOBSCOT JOB CORPS CENTER,"1375 UNION STREET, BANGOR, ME, 4401",JCC, - - , - - ,1375 UNION STREET,BANGOR,ME,4401,44.8219,-68.8206,BOSTON/NEW YORK
MI0073,CHARLES CHAMBERLAIN,"315 WEST ALLEGAN, LANSING, MI, 48150-1512","ATELS, MSHA, OSHA, WHD", - - , - - ,315 WEST ALLEGAN,LANSING,MI,48150-1512,42.4191,-83.4328,CHICAGO/KANSAS CITY
MI0137,GERALD R. FORD BUILDING,"110 MICHIGAN ST NW, GRAND RAPIDS, MI, 49503-2300",OFCCP, - - , - - ,110 MICHIGAN ST NW,GRAND RAPIDS,MI,49503-2300,42.9702,-85.66925,CHICAGO/KANSAS CITY
MI0503,FED CTR BLDG NO 2,"74 NORTH WASHINGTON AVENUE, BATTLE CREEK, MI, 49037-3085",ATELS, - - , - - ,74 NORTH WASHINGTON AVENUE,BATTLE CREEK,MI,49037-3085,42.3301,-85.2448,CHICAGO/KANSAS CITY
MI1712,NORTHFIELD PLAZA,"5700 CROOKS ROAD, TROY, MI, 48098-2818",WHD, - - , - - ,5700 CROOKS ROAD,TROY,MI,48098-2818,42.6006101976,-83.1689009271,CHICAGO/KANSAS CITY
MI1923,900 FRONT STREET,"900 FRONT STREET, TRAVERSE CITY, MI, 49684-2328",WHD, - - , - - ,900 FRONT STREET,TRAVERSE CITY,MI,49684-2328,44.7517,-85.63,CHICAGO/KANSAS CITY
MI1984,COMERICA BUILDING,"211 WEST FORT ST, DETROIT, MI, 48226-3269","ATELS, BLS, OASAM, OFCCP, OIG, OLMS, WHD", - - , - - ,211 WEST FORT ST,DETROIT,MI,48226-3269,42.3298728477,-83.0488223038,CHICAGO/KANSAS CITY
MI2107,800 MONROE AVENUE,"800 MONROE AVENUE N.W., GRAND RAPIDS, MI, 49503-1445",WHD, - - , - - ,800 MONROE AVENUE N.W.,GRAND RAPIDS,MI,49503-1445,42.9766,-85.6725,CHICAGO/KANSAS CITY
MI2143,ORLICH OFFICE COMPLEX,"1901 WEST RIDGE, MARQUETTE, MI, 49855-0000",MSHA, - - , - - ,1901 WEST RIDGE,MARQUETTE,MI,49855-0000,46.5788,-87.4552,CHICAGO/KANSAS CITY
MI3069,SKYRISE BUSINESS CENTER,"535 SOUTH BURDICK ST, KALAMAZOO, MI, 49007-5294",WHD, - - , - - ,535 SOUTH BURDICK ST,KALAMAZOO,MI,49007-5294,42.2868918919,-85.5828,CHICAGO/KANSAS CITY
MIJCC596,DETROIT JOB CORPS CENTER,"11801 WOODROW WILSON STREET, DETROIT, MI, 48206",JCC, - - , - - ,11801 WOODROW WILSON STREET,DETROIT,MI,48206,42.3882,-83.104,CHICAGO/KANSAS CITY
MIJCC598,FLINT-GENESEE JOB CORPS CENTER,"2400 NORTH SAGINAW STREET, FLINT, MI, 48505",JCC, - - , - - ,2400 NORTH SAGINAW STREET,FLINT,MI,48505,43.0381,-83.6938,CHICAGO/KANSAS CITY
MIJCC601,GERALD FORD JOB CORPS CENTER,"110 HALL STREET, S.E., GRAND RAPIDS, MI, 49507",JCC, - - , - - ,"110 HALL STREET, S.E.",GRAND RAPIDS,MI,49507,42.94126751,-85.665494661,CHICAGO/KANSAS CITY
MN0015,GERALD W. HEANEY FED BLDG &,"US COURTHOUSE & CUSTOMHOUSE, DULUTH, MN, 55802-1302","MSHA, WHD", - - , - - ,US COURTHOUSE & CUSTOMHOUSE,DULUTH,MN,55802-1302,46.741,-92.0493,CHICAGO/KANSAS CITY
MN1544,HIBBING BUSINESS CTR,"522 EAST HOWARD STREET, HIBBING, MN, 55746-1714",MSHA, - - , - - ,522 EAST HOWARD STREET,HIBBING,MN,55746-1714,47.4273,-92.9362081633,CHICAGO/KANSAS CITY
MN1574,MIDLAND SQUARE BLDG.,"331 SECOND AVE. SOUTH, MINNEAPOLIS, MN, 55401-2220",WHD, - - , - - ,331 SECOND AVE. SOUTH,MINNEAPOLIS,MN,55401-2220,44.9791689385,-93.2663887242,CHICAGO/KANSAS CITY
MN1651,KINNARD FINANCIAL CENTER,"920 2ND AVE S, MINNEAPOLIS, MN, 55402-3318","OFCCP, OLMS", - - , - - ,920 2ND AVE S,MINNEAPOLIS,MN,55402-3318,44.9738,-93.2712,CHICAGO/KANSAS CITY
MN2607,NORMAN POINTE II,"5600 AMERICAN BLVD W, BLOOMINGTON, MN, 55437-1173",BLS, - - , - - ,5600 AMERICAN BLVD W,BLOOMINGTON,MN,55437-1173,44.858,-93.3481,CHICAGO/KANSAS CITY
MNJCC602,HUBERT H. HUMPHREY JOB CORPS CENTER,"1480 NORTH SNELLING AVENUE, ST. PAUL, MN, 55108",JCC, - - , - - ,1480 NORTH SNELLING AVENUE,ST. PAUL,MN,55108,44.9857448276,-93.1669,CHICAGO/KANSAS CITY
MO0106,ROBT A YOUNG FED BLD,"1222 SPRUCE, ST LOUIS, MO, 63103-2818","ATELS, BLS, EBSA, OFCCP, OIG, OLMS, OSHA, WHD", - - , - - ,1222 SPRUCE,ST LOUIS,MO,63103-2818,38.6241717865,-90.1998561915,CHICAGO/KANSAS CITY
MO1591,U S GEO SURVEY BLDG,"1400 INDEPENDENCE ROAD, ROLLA, MO, 65401-2602",MSHA, - - , - - ,1400 INDEPENDENCE ROAD,ROLLA,MO,65401-2602,37.9544,-91.7452,CHICAGO/KANSAS CITY
MO1750,HAMMONS TOWER,"901 ST LOUIS, SPRINGFIELD, MO, 65806-2540","ATELS, WHD", - - , - - ,901 ST LOUIS,SPRINGFIELD,MO,65806-2540,37.0415,-93.289,CHICAGO/KANSAS CITY
MO1902,RAY BLDG LEASED PARKING LOT,"1222 SPRUCE, ST LOUIS, MO, 63103-2818","EBSA, OIG, OLMS, OSHA, WHD", - - , - - ,1222 SPRUCE,ST LOUIS,MO,63103-2818,38.6241717865,-90.1998561915,CHICAGO/KANSAS CITY
MO1965,TWO PERSHING SQUARE,"2300 MAIN, KANSAS CITY, MO, 64108-2416","ATELS, BLS, EBSA, OASAM, OCIA, OFCCP, OIG, OLMS, OSHA, OWCP, SOL, WB", - - , - - ,2300 MAIN,KANSAS CITY,MO,64108-2416,39.0869193548,-94.584,CHICAGO/KANSAS CITY
MOJCC597,EXCELSIOR SPRINGS JOB CORPS CENTER,"2402 SWOPE PARKWAY, KANSAS CITY, MO, 64130",JCC, - - , - - ,2402 SWOPE PARKWAY,KANSAS CITY,MO,64130,39.0400180068,-94.556799615,CHICAGO/KANSAS CITY
MOJCC605,MINGO JOB CORPS CIVILIAN CONSERVATION CORPS,"4253 STATE HIGHWAY T, PUXICO, MO, 63960",JCC, - - , - - ,4253 STATE HIGHWAY T,PUXICO,MO,63960,36.9352698195,-90.2016558259,CHICAGO/KANSAS CITY
MOJCC608,ST. LOUIS JOB CORPS CENTER,"4333 GOODFELLOW BOULEVARD, ST. LOUIS, MO, 63120",JCC, - - , - - ,4333 GOODFELLOW BOULEVARD,ST. LOUIS,MO,63120,38.6915514235,-90.2689922471,CHICAGO/KANSAS CITY
MP7643,MH II BLDG,"MARINA HEIGHTS BUSINESS PARK, SAIPAN, MP, 96950-9997",WHD, - - , - - ,MARINA HEIGHTS BUSINESS PARK,SAIPAN,MP,96950-9997,0.0,0.0,NATIONAL OFFICE
MS0006,,"2012 15TH ST, GULFPORT, MS, 39501",WHD, - - , - - ,2012 15TH ST,GULFPORT,MS,39501,30.3694,-89.0861714286,ATLANTA
MS0072,WM M. COLMER FB-CT,"701 MAIN ST., HATTIESBURG, MS, 39401-3446","OIG, WHD", - - , - - ,701 MAIN ST.,HATTIESBURG,MS,39401-3446,31.3279,-89.2917,ATLANTA
MS0083,DR. A. H. MC COY FB,"100 WEST CAPITOL, JACKSON, MS, 39269-1602","ATELS, OFCCP, OSHA, WHD", - - , - - ,100 WEST CAPITOL,JACKSON,MS,39269-1602,32.3372,-90.3318,ATLANTA
MS1053,,"1703 HWY 11-NORTH, PICAYUNE, MS, 39466",BLS, - - , - - ,1703 HWY 11-NORTH,PICAYUNE,MS,39466,30.5205,-89.5859,ATLANTA
MS2249,,"431 WEST MAIN ST, TUPELO, MS, 38804",WHD, - - , - - ,431 WEST MAIN ST,TUPELO,MS,38804,34.2571573676,-88.7075032704,ATLANTA
MS2418,JRA FAC NO 3 PKG GAR,"100 EAST CAPITOL STREET, JACKSON, MS, 39201-2112","OFCCP, OSHA", - - , - - ,100 EAST CAPITOL STREET,JACKSON,MS,39201-2112,32.3004,-90.1885,ATLANTA
MS5009,DOL,"2012 15TH STREET, GULFPORT, MS, 39501-0000",, - - , - - ,2012 15TH STREET,GULFPORT,MS,39501-0000,30.3694,-89.0861714286,ATLANTA
MSJCC573,BATESVILLE JOB CORPS CENTER,"821 HIGHWAY 51, SOUTH, BATESVILLE, MS, 38606",JCC, - - , - - ,"821 HIGHWAY 51, SOUTH",BATESVILLE,MS,38606,34.3092,-89.9448,ATLANTA
MSJCC577,GULFPORT JOB CORPS CENTER,"3300 20TH STREET, GULFPORT, MS, 39501",JCC, - - , - - ,3300 20TH STREET,GULFPORT,MS,39501,30.3746,-89.1016,ATLANTA
MSJCC585,MISSISSIPPI JOB CORPS CENTER,"400 HARMONY ROAD, CRYSTAL SPRINGS, MS, 39059",JCC, - - , - - ,400 HARMONY ROAD,CRYSTAL SPRINGS,MS,39059,31.9804,-90.3434,ATLANTA
MT5383,WILLIAM J. JAMESON,"2900 FOURTH AVE N, BILLINGS, MT, 59101-1266","OSHA, WHD", - - , - - ,2900 FOURTH AVE N,BILLINGS,MT,59101-1266,45.6131,-108.3903,DALLAS/DENVER
MT5513,GREAT NORTHERN TOWN CENTER,"10 WEST 15TH ST., HELENA, MT, 59626-9701",MSHA, - - , - - ,10 WEST 15TH ST.,HELENA,MT,59626-9701,46.596651297,-112.033489726,DALLAS/DENVER
MTJCC610,ANACONDA JOB CORPS CIVILIAN CONSERVATION CORPS,"1407 FOSTER CREEK ROAD, ANACONDA, MT, 59711",JCC, - - , - - ,1407 FOSTER CREEK ROAD,ANACONDA,MT,59711,46.1839875128,-113.1387,DALLAS/DENVER
MTJCC619,KICKING HORSE JOB CORPS CENTER,"2000 MOLLMAN PASS TRAIL, RONAN, MT, 59864",JCC, - - , - - ,2000 MOLLMAN PASS TRAIL,RONAN,MT,59864,47.5293,-114.1093,DALLAS/DENVER
MTJCC629,TRAPPER CREEK JOB CORPS CIVILIAN CONSERVATION CENTER,"5139 WEST FORK ROAD, DARBY, MT, 59829",JCC, - - , - - ,5139 WEST FORK ROAD,DARBY,MT,59829,45.9064259604,-114.174655351,DALLAS/DENVER
NC0002,VEACH-BALEY FEDERAL COMPLEX,"151 PATTON AVENUE, ASHEVILLE, NC, 28801-2638",WHD, - - , - - ,151 PATTON AVENUE,ASHEVILLE,NC,28801-2638,35.5937,-82.5576,ATLANTA
NC0033,US POST OFFICE BLDG,"231 MAIN AVE., HICKORY, NC, 28601-6218",WHD, - - , - - ,231 MAIN AVE.,HICKORY,NC,28601-6218,35.7318,-81.3404413862,ATLANTA
NC0085,ALTON LENNON FB-CT,"2 PRINCESS ST., WILMINGTON, NC, 28401-3958",WHD, - - , - - ,2 PRINCESS ST.,WILMINGTON,NC,28401-3958,34.2362,-77.9501,ATLANTA
NC0113,HIRAM H. WARD FB & CH,"251 NORTH MAIN STREET, WINSTON SALEM, NC, 27101-3914",WHD, - - , - - ,251 NORTH MAIN STREET,WINSTON SALEM,NC,27101-3914,36.0971045293,-80.2435569451,ATLANTA
NC2067,SOMERSET PARK II,"4407 BLAND ROAD, RALEIGH, NC, 27609-6871","BLS, OFCCP, OSHA, WHD", - - , - - ,4407 BLAND ROAD,RALEIGH,NC,27609-6871,35.8402426005,-78.6146,ATLANTA
NC2079,MOREHEAD BLDG,"2301-2302 WEST MEADOWVIEW, GREENSBORO, NC, 27407-3723",WHD, - - , - - ,2301-2302 WEST MEADOWVIEW,GREENSBORO,NC,27407-3723,36.0315,-79.4087,ATLANTA
NC2294,MOORE BUSINESS PARK,"201 COMMERCIAL COURT, SANFORD, NC, 27330-5800",MSHA, - - , - - ,201 COMMERCIAL COURT,SANFORD,NC,27330-5800,35.4627983201,-79.1531258678,ATLANTA
NC2353,WHITEHALL CORPORATE CENTER,"3800 ARCO CORPORATE DR., CHARLOTTE, NC, 28273-3409","BLS, OFCCP, WHD", - - , - - ,3800 ARCO CORPORATE DR.,CHARLOTTE,NC,28273-3409,35.1517303365,-80.9484177644,ATLANTA
NC2443,WACHOVIA BLDG,"225 GREEN ST, FAYETTEVILLE, NC, 28301-5043",WHD, - - , - - ,225 GREEN ST,FAYETTEVILLE,NC,28301-5043,35.0542018819,-78.8779101912,ATLANTA
NC2589,DEPARTMENT OF LABOR,"790 CARDINAL ROAD, NEW BERN, NC, 28562-0000",, - - , - - ,790 CARDINAL ROAD,NEW BERN,NC,28562-0000,35.1082093937,-77.0989515422,ATLANTA
NC2594,ADMIN OFFICE OF THE US COURTS,"409 BROAD STREET, NEW BERN, NC, 28560-4904",WHD, - - , - - ,409 BROAD STREET,NEW BERN,NC,28560-4904,35.1081188835,-77.0397635194,ATLANTA
NCJCC581,KITTRELL JOB CORPS CENTER,"1096 US HIGHWAY, #1 SOUTH, KITTRELL, NC, 27544",JCC, - - , - - ,"1096 US HIGHWAY, #1 SOUTH",KITTRELL,NC,27544,36.1997,-78.4466,ATLANTA
NCJCC582,LYNDON B. JOHNSON JOB CORPS CIVILIAN CONSERVATION CORPS,"3170 WAYAH ROAD, FRANKLIN, NC, 28734",JCC, - - , - - ,3170 WAYAH ROAD,FRANKLIN,NC,28734,35.1658,-83.5090386712,ATLANTA
NCJCC587,OCONALUFTEE JOB CORPS CIVILIAN CONSERVATION CORPS,"502 OCONALUFTEE JOB CORPS ROAD, CHEROKEE, NC, 28719",JCC, - - , - - ,502 OCONALUFTEE JOB CORPS ROAD,CHEROKEE,NC,28719,35.5219284392,-83.3049,ATLANTA
NCJCC588,SCHENCK JOB CORPS CIVILIAN CONSERVATION CORPS,"98 SCHENCK DRIVE, PISGAH FOREST, NC, 28768",JCC, - - , - - ,98 SCHENCK DRIVE,PISGAH FOREST,NC,28768,35.2743,-82.7249,ATLANTA
ND0002,FB,"304 EAST BROADWAY, BISMARCK, ND, 58501-4082",ATELS, - - , - - ,304 EAST BROADWAY,BISMARCK,ND,58501-4082,46.8281979899,-100.894028284,DALLAS/DENVER
ND0037,WILLIAM L. GUY FB/PO/CT,"220 EAST ROSSER AVE, BISMARCK, ND, 58501-3869",WHD, - - , - - ,220 EAST ROSSER AVE,BISMARCK,ND,58501-3869,46.8088,-100.788793878,DALLAS/DENVER
ND1361,CIVIC SQUARE,"521 EAST MAIN AVENUE, BISMARCK, ND, 58501-4418",OSHA, - - , - - ,521 EAST MAIN AVENUE,BISMARCK,ND,58501-4418,46.8063281493,-100.798898626,DALLAS/DENVER
NDJCC625,QUENTIN-BURDICK JOB CORPS CENTER,"1500 UNIVERSITY AVENUE, MINOT, ND, 58703",JCC, - - , - - ,1500 UNIVERSITY AVENUE,MINOT,ND,58703,48.2452,-101.3198,DALLAS/DENVER
NE0531,ROBERT DENNEY FB&CT,"100 CENTENNIAL MALL NO, LINCOLN, NE, 68508-3859","BLS, WHD", - - , - - ,100 CENTENNIAL MALL NO,LINCOLN,NE,68508-3859,40.8183,-96.7039,CHICAGO/KANSAS CITY
NE1373,CENTRAL PARK PLAZA,"222 SOUTH 15TH ST., OMAHA, NE, 68102-1680","ATELS, OFCCP, WHD", - - , - - ,222 SOUTH 15TH ST.,OMAHA,NE,68102-1680,41.2584166667,-95.936,CHICAGO/KANSAS CITY
NE1446,LAKE REGENCY OFFICE BUILDING,"444 REGENCY PARKWAY DRIVE, OMAHA, NE, 68114-3792",OSHA, - - , - - ,444 REGENCY PARKWAY DRIVE,OMAHA,NE,68114-3792,41.2553144234,-96.074,CHICAGO/KANSAS CITY
NEJCC607,PINE RIDGE JOB CORPS CIVILIAN CONSERVATION CENTER,"15710 HIGHWAY 385, CHADRON, NE, 69337",JCC, - - , - - ,15710 HIGHWAY 385,CHADRON,NE,69337,42.6385,-102.9695,CHICAGO/KANSAS CITY
NH0030,JAMES C. CLEVELAND FB,"53 PLEASANT STREET, CONCORD, NH, 03301-3954","ATELS, OSHA", - - , - - ,53 PLEASANT STREET,CONCORD,NH,03301-3954,43.2027244209,-71.5388042296,BOSTON/NEW YORK
NH6148,HAMPSHIRE PLAZA,"1000 ELM ST, MANCHESTER, NH, 03101-1730",MSHA, - - , - - ,1000 ELM ST,MANCHESTER,NH,03101-1730,42.99229375,-71.4633,BOSTON/NEW YORK
NH6175,NH6175,"1155 ELM ST, MANCHESTER, NH, 03101-1508",WHD, - - , - - ,1155 ELM ST,MANCHESTER,NH,03101-1508,42.993982974,-71.463191487,BOSTON/NEW YORK
NJ4360,DIAMOND HEAD BLD,"200 SHEFFIELD ST, MOUNTAINSIDE, NJ, 07092-2314","BLS, OFCCP, OIG, WHD", - - , - - ,200 SHEFFIELD ST,MOUNTAINSIDE,NJ,07092-2314,40.6854,-74.3435,BOSTON/NEW YORK
NJ4494,PLAZA 35,"1030 ST GEORGES AVENUE, WOODBRIDGE, NJ, 07001-1390",OSHA, - - , - - ,1030 ST GEORGES AVENUE,WOODBRIDGE,NJ,07001-1390,40.5822,-74.2715,BOSTON/NEW YORK
NJ4504,500 ROUTE 17,"500ROYTE 17, HASBROUCK HEIGHTS, NJ, 07604-0000",OSHA, - - , - - ,500ROYTE 17,HASBROUCK HEIGHTS,NJ,07604-0000,40.8628,-74.0752,BOSTON/NEW YORK
NJ4508,PRINCETON PIKE OFF 4,"3131 PRINCETON PIKE, LAWRENCEVILLE, NJ, 08648-2201",WHD, - - , - - ,3131 PRINCETON PIKE,LAWRENCEVILLE,NJ,08648-2201,40.2856,-74.71345,BOSTON/NEW YORK
NJ4525,"MARLTON EXECUTIVE PARK,BLDG II","701C ROUTE 73, MARLTON, NJ, 08053-4144","OSHA, WHD", - - , - - ,701C ROUTE 73,MARLTON,NJ,08053-4144,39.8933,-74.9275,BOSTON/NEW YORK
NJ4542,LINCOLN CENTRE,"299 CHERRY HILL ROAD, PARSIPPANY, NJ, 07054-1111",OSHA, - - , - - ,299 CHERRY HILL ROAD,PARSIPPANY,NJ,07054-1111,40.8691,-74.439,BOSTON/NEW YORK
NJ4546,METRO STAR PLAZA,"190 MIDDLESEX ESSEX TPK, ISELIN, NJ, 08830-2840",ATELS, - - , - - ,190 MIDDLESEX ESSEX TPK,ISELIN,NJ,08830-2840,40.5691,-74.3257,BOSTON/NEW YORK
NJ5034,6601 VENTNOR AVENUE,"6601 VENTNOR AVENUE, VENTNOR CITY, NJ, 08406-2167",OIG, - - , - - ,6601 VENTNOR AVENUE,VENTNOR CITY,NJ,08406-2167,39.3371,-74.4844,BOSTON/NEW YORK
NJ5070,2 EXECUTIVE CAMPUS,"2370 ROUTE 70 WEST, CHERRY HILL, NJ, 08002-3421",OALJ, - - , - - ,2370 ROUTE 70 WEST,CHERRY HILL,NJ,08002-3421,39.8963,-74.9485,BOSTON/NEW YORK
NJJCC536,EDISON JOB CORPS CENTER,"500 PLAINFIELD AVENUE, EDISON, NJ, 8817",JCC, - - , - - ,500 PLAINFIELD AVENUE,EDISON,NJ,8817,40.5258,-74.4145,BOSTON/NEW YORK
NM0030,D CHAVEZ FEDERAL BLDG,"500 GOLD AVENUE SW, ALBUQUERQUE, NM, 87102-3118","OFCCP, WHD", - - , - - ,500 GOLD AVENUE SW,ALBUQUERQUE,NM,87102-3118,35.0837,-106.653,DALLAS/DENVER
NM0037,ALBUQUERQUE FEDERAL PK GARAGE,"6TH STREET & LEAD AVE, ALBUQUERQUE, NM, 87102-3141",WHD, - - , - - ,6TH STREET & LEAD AVE,ALBUQUERQUE,NM,87102-3141,35.0834,-106.6542,DALLAS/DENVER
NM1293,TWO PARK CENTRAL TOWER,"300 SAN MATEO NE, ALBUQUERQUE, NM, 87108-1519",MSHA, - - , - - ,300 SAN MATEO NE,ALBUQUERQUE,NM,87108-1519,35.0797463087,-106.5862,DALLAS/DENVER
NM1546,412 PASEO DE ORNATE,"412 PASEO DE ONATE, ESPANOLA, NM, 87532-3486",OWCP, - - , - - ,412 PASEO DE ONATE,ESPANOLA,NM,87532-3486,35.9938,-106.089,DALLAS/DENVER
NM1574,800 E 30TH STREET,"800 EAST 30TH STREET, FARMINGTON, NM, 87401-9407",MSHA, - - , - - ,800 EAST 30TH STREET,FARMINGTON,NM,87401-9407,36.7556,-108.1953,DALLAS/DENVER
NM1590,,"315 NORTH CANAL ST, CARLSBAD, NM, 88220",MSHA, - - , - - ,315 NORTH CANAL ST,CARLSBAD,NM,88220,32.4228714286,-104.2291,DALLAS/DENVER
NMJCC609,ALBUQUERQUE JOB CORPS CENTER,"1500 INDIAN SCHOOL ROAD, NW, ALBUQUERQUE, NM, 87104",JCC, - - , - - ,"1500 INDIAN SCHOOL ROAD, NW",ALBUQUERQUE,NM,87104,35.1100298034,-106.661271736,DALLAS/DENVER
NMJCC626,ROSWELL JOB CORPS CENTER,"57 G. STREET, ROSWELL, NM, 88202",JCC, - - , - - ,57 G. STREET,ROSWELL,NM,88202,33.3174,-104.5172,DALLAS/DENVER
NV0012,C. CLIFTON YOUNG FOB & CTHS,"300 BOOTH ST, RENO, NV, 89509-1317",MSHA, - - , - - ,300 BOOTH ST,RENO,NV,89509-1317,39.5177929648,-119.8262,SAN FRANCISCO/SEATTLE
NV0288,ALAN BIBLE FEDERAL BUILDING,"600 LAS VEGAS BLVD, SOUTH, LAS VEGAS, NV, 89101-6600","ATELS, OFCCP, OIG, OLMS, OSHA, WHD", - - , - - ,"600 LAS VEGAS BLVD, SOUTH",LAS VEGAS,NV,89101-6600,36.1634,-115.1445,SAN FRANCISCO/SEATTLE
NV7000,A & L OFFICE COMPLEX,"567 WEST SILVER STREET, ELKO, NV, 89801-3691",MSHA, - - , - - ,567 WEST SILVER STREET,ELKO,NV,89801-3691,40.8253,-115.771747161,SAN FRANCISCO/SEATTLE
NV7694,FLAMINGO EXECUTIVE PARK,"1050 EAST FLAMINGO ROAD, LAS VEGAS, NV, 89119-7427",OWCP, - - , - - ,1050 EAST FLAMINGO ROAD,LAS VEGAS,NV,89119-7427,36.1149,-115.141112569,SAN FRANCISCO/SEATTLE
NV7707,MOANA OFFICE PARK,"630 ISBELL ROAD, RENO, NV, 89509-0000",WHD, - - , - - ,630 ISBELL ROAD,RENO,NV,89509-0000,39.4924,-119.803810204,SAN FRANCISCO/SEATTLE
NV8080,STEPHANIE BELTWAY CENTRE,"150 NORTH STEPHANIE ST, HENDERSON, NV, 89074-8992",MSHA, - - , - - ,150 NORTH STEPHANIE ST,HENDERSON,NV,89074-8992,36.0377567885,-115.046618613,SAN FRANCISCO/SEATTLE
NVJCC649,SIERRA NEVADA JOB CORPS CENTER,"5005 ECHO AVENUE, RENO, NV, ",JCC, - - , - - ,5005 ECHO AVENUE,RENO,NV,,40.4447,-119.4616,SAN FRANCISCO/SEATTLE
NY0016,FED BLDG & CTHSE-BINGHAMTON,"15 HENRY STREET, BINGHAMTON, NY, 13901-2723",WHD, - - , - - ,15 HENRY STREET,BINGHAMTON,NY,13901-2723,42.1008,-75.9128,BOSTON/NEW YORK
NY0128,FEDERAL BLDG--201 VARICK ST,"201 VARICK STREET, NEW YORK-MANHATTAN, NY, 10014-4811","BLS, OALJ, OASAM, OCIA, OFCCP, OIG, OLMS, OSHA, OWCP, SOL, WB", - - , - - ,201 VARICK STREET,NEW YORK-MANHATTAN,NY,10014-4811,40.7284532843,-74.0055229899,BOSTON/NEW YORK
NY0131,ALEX HAMILTON US CUST HOUSE,"1 BOWLING GREEN, NEW YORK-MANHATTAN, NY, 10004",EBSA, - - , - - ,1 BOWLING GREEN,NEW YORK-MANHATTAN,NY,10004,40.7201,-73.5059,BOSTON/NEW YORK
NY0218,ALEXANDER PIRNIE FB,"BROAD, CATHERINE, & JOHN STREETS, UTICA, NY, 13501-0000",WHD, - - , - - ,"BROAD, CATHERINE, & JOHN STREETS",UTICA,NY,13501-0000,43.0813,-75.2258,BOSTON/NEW YORK
NY0281,JAMES M HANLEY FB,"100 SOUTH CLINTON ST., SYRACUSE, NY, 13261-6100","BLS, WHD", - - , - - ,100 SOUTH CLINTON ST.,SYRACUSE,NY,13261-6100,43.0505,-76.1535,BOSTON/NEW YORK
NY0282,JACOB K. JAVITS FB/CIT,"26 FEDERAL PLAZA, NEW YORK-MANHATTAN, NY, 10278-0004","OFCCP, WHD", - - , - - ,26 FEDERAL PLAZA,NEW YORK-MANHATTAN,NY,10278-0004,40.7149683861,-74.0033452374,BOSTON/NEW YORK
NY0300,LEO W OBRIEN FB,"1 CLINTON AVE, ALBANY, NY, 12207-2335",WHD, - - , - - ,1 CLINTON AVE,ALBANY,NY,12207-2335,42.6542,-73.75,BOSTON/NEW YORK
NY0304,KENNETH B KEATING FB,"100 STATE STREET, ROCHESTER, NY, 14614-1350",WHD, - - , - - ,100 STATE STREET,ROCHESTER,NY,14614-1350,43.1575923444,-77.6140095017,BOSTON/NEW YORK
NY0651,US CUSTOMS HOUSE,"127 NORTH WATER STREET, OGDENSBURG, NY, 13669-0000",, - - , - - ,127 NORTH WATER STREET,OGDENSBURG,NY,13669-0000,44.6979,-75.4969,BOSTON/NEW YORK
NY6407,ELLIPSE,"825 EAST GATE BLVD, GARDEN CITY, NY, 11530-0000",, - - , - - ,825 EAST GATE BLVD,GARDEN CITY,NY,11530-0000,40.7424657609,-73.6069660722,BOSTON/NEW YORK
NY6465,660 WHITE PLAINS RD,"660 WHITE PLAINS RD, TARRYTOWN, NY, 10591-5139",OSHA, - - , - - ,660 WHITE PLAINS RD,TARRYTOWN,NY,10591-5139,41.0625231066,-73.8373462132,BOSTON/NEW YORK
NY6478,401 NEW KARNER ROAD,"401 NEW KARNER ROAD, ALBANY, NY, 12205-3840",OSHA, - - , - - ,401 NEW KARNER ROAD,ALBANY,NY,12205-3840,42.7336552109,-73.8479619463,BOSTON/NEW YORK
NY6486,3300 VICKERY ROAD,"3300 VICKERY ROAD, SYRACUSE, NY, 13212-4511",OSHA, - - , - - ,3300 VICKERY ROAD,SYRACUSE,NY,13212-4511,43.107,-76.1592,BOSTON/NEW YORK
NY7008,1400 OLD COUNTRY RD,"1400 OLD COUNTRY ROAD, WESTBURY, NY, 11590-5156","OSHA, WHD", - - , - - ,1400 OLD COUNTRY ROAD,WESTBURY,NY,11590-5156,40.7466,-73.5955,BOSTON/NEW YORK
NY7030,VASSAR MAIN BLDG,"191 MAIN STREET, POUGHKEEPSIE, NY, 12601-6700",WHD, - - , - - ,191 MAIN STREET,POUGHKEEPSIE,NY,12601-6700,41.7050961161,-73.9315607768,BOSTON/NEW YORK
NY7044,140 GRAND,"140 GRAND STREET, WHITE PLAINS, NY, 10601-4831",WHD, - - , - - ,140 GRAND STREET,WHITE PLAINS,NY,10601-4831,41.0287392658,-73.7679239071,BOSTON/NEW YORK
NY7051,OLYMPIC TOWERS,"300 PEARL STREET, BUFFALO, NY, 14202-2504",OFCCP, - - , - - ,300 PEARL STREET,BUFFALO,NY,14202-2504,42.8875669442,-78.8751603048,BOSTON/NEW YORK
NY7152,BROAD FINANCIAL CENTER,"33 WHITEHALL STREET, NEW YORK-MANHATTAN, NY, 10004-2112",EBSA, - - , - - ,33 WHITEHALL STREET,NEW YORK-MANHATTAN,NY,10004-2112,40.7033,-74.01304,BOSTON/NEW YORK
NY7179,BUILDING 636,"636 WEST WASHINGTON STREET, GENEVA, NY, 14456-2120",MSHA, - - , - - ,636 WEST WASHINGTON STREET,GENEVA,NY,14456-2120,42.8598454762,-77.0082850743,BOSTON/NEW YORK
NY7288,2 METRO TECH CENTER,"100 MYRTLE AVENUE, NEW YORK-KINGS, NY, 11201-0000",WHD, - - , - - ,100 MYRTLE AVENUE,NEW YORK-KINGS,NY,11201-0000,40.6935232148,-73.985442123,BOSTON/NEW YORK
NY7340,NIAGARA CENTER,"130 SOUTH ELMWOOD, BUFFALO, NY, 14201-2310","BLS, OLMS, OSHA, WHD", - - , - - ,130 SOUTH ELMWOOD,BUFFALO,NY,14201-2310,42.9692,-78.9492,BOSTON/NEW YORK
NY7389,MARATHON PARKWAY BUILDING,"45-17 MARATHON PARKWAY, NEW YORK-QUEENS, NY, 11362-0000",OSHA, - - , - - ,45-17 MARATHON PARKWAY,NEW YORK-QUEENS,NY,11362-0000,40.7686,-73.7375,BOSTON/NEW YORK
NY7392,AMHERST DEVELOPMENT PARK,"6000 NORTH BAIELY AVENUE, AMHERST, NY, 14226-5102",OWCP, - - , - - ,6000 NORTH BAIELY AVENUE,AMHERST,NY,14226-5102,42.9709,-78.7965,BOSTON/NEW YORK
NY7534,24 COMPUTER DRIVE WEST,"24 COMPUTER DRIVE WEST, ALBANY, NY, 12205-1612",MSHA, - - , - - ,24 COMPUTER DRIVE WEST,ALBANY,NY,12205-1612,42.7208,-73.8087,BOSTON/NEW YORK
NYJCC533,BROOKLYN JOB CORPS ACADEMY (SATELLITE CENTER OF S. BRONX JCC),"585 DEKALB AVENUE, BROOKLYN, NY, 11205",JCC, - - , - - ,585 DEKALB AVENUE,BROOKLYN,NY,11205,40.6913829873,-73.9528641916,BOSTON/NEW YORK
NYJCC534,CASSADAGA JOB CORPS CENTER,"8115 GLASGOW ROAD, CASSADAGA, NY, ",JCC, - - , - - ,8115 GLASGOW ROAD,CASSADAGA ,NY,,42.3534556614,-79.3303,BOSTON/NEW YORK
NYJCC535,DELAWARE VALLEY JOB CORPS CENTER,"9368 STATE RT. 97, CALLICOON, NY, ",JCC, - - , - - ,9368 STATE RT. 97,CALLICOON,NY,,41.7672,-75.0567,BOSTON/NEW YORK
NYJCC538,GLENMONT JOB CORPS CENTER,"822 RIVER ROAD, GLENMONT, NY, ",JCC, - - , - - ,822 RIVER ROAD,GLENMONT,NY,,42.566205,-73.7666,BOSTON/NEW YORK
NYJCC541,IROQUOIS JOB CORPS CENTER,"11780 TIBBETS ROAD, MEDINA, NY, 14103",JCC, - - , - - ,11780 TIBBETS ROAD,MEDINA,NY,14103,43.2112,-78.3768,BOSTON/NEW YORK
NYJCC545,ONEONTA JOB CORPS ACADEMY,"21 HOMER FOLKS AVENUE, ONEONTA, NY, 13820",JCC, - - , - - ,21 HOMER FOLKS AVENUE,ONEONTA,NY,13820,42.475772885,-75.0688889601,BOSTON/NEW YORK
NYJCC549,SOUTH BRONX JOB CORPS ACADEMY,"1771 ANDREWS AVENUE, BRONX, NY, 10453",JCC, - - , - - ,1771 ANDREWS AVENUE,BRONX,NY,10453,40.850913952,-73.9168098549,BOSTON/NEW YORK
OH0189,JOHN WELD PECK,"550 MAIN ST, CINCINNATI, OH, 45202-3222",WHD, - - , - - ,550 MAIN ST,CINCINNATI,OH,45202-3222,39.1021,-84.5099,CHICAGO/KANSAS CITY
OH0192,A J CELEBREZZE FB,"1240 EAST NINTH STREET, CLEVELAND, OH, 44199-2001","BLS, OIG, OLMS, OSHA, OWCP, SOL, WHD", - - , - - ,1240 EAST NINTH STREET,CLEVELAND,OH,44199-2001,41.5002,-81.6867,CHICAGO/KANSAS CITY
OH0194,JOHN F. SEIBERLING,"FEDERAL BLDG & US COURTHOUSE, AKRON, OH, 44308-1813",WHD, - - , - - ,FEDERAL BLDG & US COURTHOUSE,AKRON,OH,44308-1813,41.4286,-81.5528,CHICAGO/KANSAS CITY
OH0202,JACKSON E BETTS FB,"180 NORTH DIAMOND ST, MANSFIELD, OH, 44902-1027",WHD, - - , - - ,180 NORTH DIAMOND ST,MANSFIELD,OH,44902-1027,40.7631769231,-82.5137653846,CHICAGO/KANSAS CITY
OH0208,BRICKER FEDERAL BLDG,"200 NORTH HIGH ST, COLUMBUS, OH, 43215-2463","ATELS, OFCCP, OIG, OSHA, WHD", - - , - - ,200 NORTH HIGH ST,COLUMBUS,OH,43215-2463,39.9665220981,-83.0012632142,CHICAGO/KANSAS CITY
OH0209,FED PARKING FACILITY,"200 NORTH HIGH ST, COLUMBUS, OH, 43215-2463","ATELS, OFCCP, OIG, OSHA, WHD", - - , - - ,200 NORTH HIGH ST,COLUMBUS,OH,43215-2463,39.9665220981,-83.0012632142,CHICAGO/KANSAS CITY
OH1816,BUREAU OF MINES BLDG,"RD #4, ST CLAIRSVILLE, OH, 43950-0000",MSHA, - - , - - ,RD #4,ST CLAIRSVILLE,OH,43950-0000,40.066,-80.8086,CHICAGO/KANSAS CITY
OH1936,OHIO VALLEY TOWERS,"500 MARKET STREET, STEUBENVILLE, OH, 43952-0000",, - - , - - ,500 MARKET STREET,STEUBENVILLE,OH,43952-0000,40.3604,-80.6164,CHICAGO/KANSAS CITY
OH2061,URS TOWER,"36 EAST SEVENTH STREET, CINCINNATI, OH, 45202-4434","BLS, OALJ, OLMS", - - , - - ,36 EAST SEVENTH STREET,CINCINNATI,OH,45202-4434,39.1039984556,-84.5128248069,CHICAGO/KANSAS CITY
OH2067,TRIANGLE OFFICE PARK,"36 TRIANGLE PARK DRIVE, CINCINNATI, OH, 45246-3411",OSHA, - - , - - ,36 TRIANGLE PARK DRIVE,CINCINNATI,OH,45246-3411,39.2872302944,-84.4456262742,CHICAGO/KANSAS CITY
OH2085,NORTH POINT TOWER,"1001 LAKESIDE AVENUE, CLEVELAND, OH, 44114-1158",OWCP, - - , - - ,1001 LAKESIDE AVENUE,CLEVELAND,OH,44114-1158,41.5055061651,-81.6913897248,CHICAGO/KANSAS CITY
OH2116,301 WEST FIRST STR,"301 WEST FIRST STREET, DAYTON, OH, 45402-3033",WHD, - - , - - ,301 WEST FIRST STREET,DAYTON,OH,45402-3033,39.7613,-84.198,CHICAGO/KANSAS CITY
OH2131,CONV. PL. OFC TOWER,"435 ELM STREET, CINCINNATI, OH, 45202-2643",OSHA, - - , - - ,435 ELM STREET,CINCINNATI,OH,45202-2643,39.0998678194,-84.5161981101,CHICAGO/KANSAS CITY
OH2208,OHIO BUILDING,"420 MADISON AVENUE, TOLEDO, OH, 43604-1217","OSHA, WHD", - - , - - ,420 MADISON AVENUE,TOLEDO,OH,43604-1217,41.6515809263,-83.5349146389,CHICAGO/KANSAS CITY
OH2215,GRANDVIEW CORP. CENTER,"1160 DUBLIN ROAD, COLUMBUS, OH, 43215-1052",OWCP, - - , - - ,1160 DUBLIN ROAD,COLUMBUS,OH,43215-1052,39.9745251823,-83.0507423396,CHICAGO/KANSAS CITY
OH2324,1200 GAY STREET,"1200 GAY STREET, PORTSMOUTH, OH, 45662-3460",OWCP, - - , - - ,1200 GAY STREET,PORTSMOUTH,OH,45662-3460,38.7401,-82.9942,CHICAGO/KANSAS CITY
OH2337,BUILDING #46,"NEWARK OHIO INDUSTRIAL PARK, HEBRON, OH, 43025-9998",MSHA, - - , - - ,NEWARK OHIO INDUSTRIAL PARK,HEBRON,OH,43025-9998,39.9709,-82.5174,CHICAGO/KANSAS CITY
OH2454,ESSEX PLACE,"6393 OAK TREE BLVD, INDEPENDENCE, OH, 44131-6939",OSHA, - - , - - ,6393 OAK TREE BLVD,INDEPENDENCE,OH,44131-6939,41.3955,-81.6602,CHICAGO/KANSAS CITY
OHJCC592,CINCINNATI JOB CORPS CENTER,"1409 WESTERN AVENUE, CINCINNATI, OH, 45214",JCC, - - , - - ,1409 WESTERN AVENUE,CINCINNATI,OH,45214,39.11062,-84.5323,CHICAGO/KANSAS CITY
OHJCC593,CLEVELAND JOB CORPS CENTER,"10660 CARNEGIE AVENUE, CLEVELAND, OH, 44106",JCC, - - , - - ,10660 CARNEGIE AVENUE,CLEVELAND,OH,44106,41.501013587,-81.6140038043,CHICAGO/KANSAS CITY
OHJCC594,DAYTON JOB CORPS CENTER,"3849 GERMANTOWN PIKE, DAYTON, OH, 45418",JCC, - - , - - ,3849 GERMANTOWN PIKE,DAYTON,OH,45418,39.6915,-84.2963,CHICAGO/KANSAS CITY
OK0046,OKC POST OFFICE/COURTHOUSE,"215 DEAN A. MCGEE AVE, OKLAHOMA CITY, OK, 73102-3440","ATELS, BLS, WHD", - - , - - ,215 DEAN A. MCGEE AVE,OKLAHOMA CITY,OK,73102-3440,35.4711,-97.5165285714,DALLAS/DENVER
OK0063,TULSA FEDERAL BLDG,"224 SOUTH BOULDER AVE, TULSA, OK, 74103-3006",WHD, - - , - - ,224 SOUTH BOULDER AVE,TULSA,OK,74103-3006,36.1536656593,-95.9928564365,DALLAS/DENVER
OK0074,FEDERAL BLDG CTHS,"FIFTH STREET & AVENUE E, LAWTON, OK, 73501-0000",WHD, - - , - - ,FIFTH STREET & AVENUE E,LAWTON,OK,73501-0000,34.6097,-98.3952,DALLAS/DENVER
OK0099,OKC FEDERAL PARKING GARAGE,"200 NORTH WEST5TH STREET, OKLAHOMA CITY, OK, 73109-5308","ATELS, WHD", - - , - - ,200 NORTH WEST5TH STREET,OKLAHOMA CITY,OK,73109-5308,35.473,-97.5163,DALLAS/DENVER
OK1356,ROBINSON PLAZA,"55 NORTH ROBINSON, OKLAHOMA CITY, OK, 73102-9226",OSHA, - - , - - ,55 NORTH ROBINSON,OKLAHOMA CITY,OK,73102-9226,35.2342,-97.5296,DALLAS/DENVER
OK1449,WEST OAKS,"2227 WEST LINDSEY STREET, NORMAN, OK, 73069-4095",MSHA, - - , - - ,2227 WEST LINDSEY STREET,NORMAN,OK,73069-4095,35.2041,-97.4755,DALLAS/DENVER
OK1475,CENTURY CENTER,"100 WEST MAIN STREET, OKLAHOMA CITY, OK, 73102-9024",OSHA, - - , - - ,100 WEST MAIN STREET,OKLAHOMA CITY,OK,73102-9024,35.4677,-97.5145,DALLAS/DENVER
OKJCC618,GUTHRIE JOB CORPS CENTER,"3106 WEST UNIVERSITY, GUTHRIE, OK, 73044",JCC, - - , - - ,3106 WEST UNIVERSITY,GUTHRIE,OK,73044,35.8707,-97.3870253603,DALLAS/DENVER
OKJCC628,TALKING LEAVES JOB CORPS CENTER,"P.O. BOX 1066, TAHLEQUAH, OK, 74465",JCC, - - , - - ,P.O. BOX 1066,TAHLEQUAH,OK,74465,35.9099,-94.97,DALLAS/DENVER
OKJCC630,TREASURE LAKE JOB CORPS CIVILIAN CONSERVATION CENTER,"1111 INDIAHOMA ROAD, INDIAHOMA, OK, 73552",JCC, - - , - - ,1111 INDIAHOMA ROAD,INDIAHOMA,OK,73552,34.5941816327,-98.7559,DALLAS/DENVER
OKJCC631,TULSA JOB CORPS CENTER,"1133 NORTH LEWIS AVENUE, TULSA, OK, 74410",JCC, - - , - - ,1133 NORTH LEWIS AVENUE,TULSA,OK,74410,36.0836,-96.1212,DALLAS/DENVER
OR0023,GUS J. SOLOMON CTHSE,"620 SOUTH WEST MAIN ST, PORTLAND, OR, 97205-3037","BLS, OFCCP, WHD", - - , - - ,620 SOUTH WEST MAIN ST,PORTLAND,OR,97205-3037,45.5162682717,-122.680277113,SAN FRANCISCO/SEATTLE
OR0033,911 FEDERAL BLDG,"911 NORTH EAST11TH AVE, PORTLAND, OR, 97232-4128",OSHA, - - , - - ,911 NORTH EAST11TH AVE,PORTLAND,OR,97232-4128,45.5293048596,-122.654687702,SAN FRANCISCO/SEATTLE
OR0051,EUGENE FED BLDG US CTHSE,"211 EAST 7TH AVE, EUGENE, OR, 97401-2773",WHD, - - , - - ,211 EAST 7TH AVE,EUGENE,OR,97401-2773,44.0523,-123.089536735,SAN FRANCISCO/SEATTLE
OR0058,BPA BUILDING,"905 11TH AVENUE, PORTLAND, OR, 97232-4169",OSHA, - - , - - ,905 11TH AVENUE,PORTLAND,OR,97232-4169,45.529277091,-122.654659934,SAN FRANCISCO/SEATTLE
OR6522,WILSON BUILDING,"1375 SOUTH EAST WILSON AVE., BEND, OR, 97702-1435",BLS, - - , - - ,1375 SOUTH EAST WILSON AVE.,BEND,OR,97702-1435,44.0440206049,-121.286622828,SAN FRANCISCO/SEATTLE
OR6734,MONTGOMERY PARK,"321 1ST AVE E, ALBANY, OR, 97321-2777",MSHA, - - , - - ,321 1ST AVE E,ALBANY,OR,97321-2777,44.6379,-123.102128606,SAN FRANCISCO/SEATTLE
ORJCC634,ANGELL JOB CORPS CIVILIAN CONSERVATION CORPS,"335 BLODGETT ROAD, YACHATS, OR, 97498",JCC, - - , - - ,335 BLODGETT ROAD,YACHATS,OR,97498,44.3630658493,-124.086885307,SAN FRANCISCO/SEATTLE
ORJCC650,SPRINGDALE JOB CORPS CENTER,"31224 EAST HISTORIC COLUMBIA RIVER HIGHWAY, TROUTDALE, OR, 97060",JCC, - - , - - ,31224 EAST HISTORIC COLUMBIA RIVER HIGHWAY,TROUTDALE,OR,97060,45.5166795152,-122.341061454,SAN FRANCISCO/SEATTLE
ORJCC651,TIMBER LAKE JOB CORPS CIVILIAN CONSERVATION CORPS,"59868 EAST HIGHWAY 224, ESTACADA, OR, 97023",JCC, - - , - - ,59868 EAST HIGHWAY 224,ESTACADA,OR,97023,45.0884075264,-122.063755035,SAN FRANCISCO/SEATTLE
ORJCC652,TONGUE POINT JOB CORPS CENTER,"37573 OLD HIGHWAY #30, ASTORIA, OR, ",JCC, - - , - - ,37573 OLD HIGHWAY #30,ASTORIA,OR,,46.1881,-123.83,SAN FRANCISCO/SEATTLE
ORJCC654,WOLF CREEK JOB CORPS CIVILIAN CONSERVATION CENTER,"2010 OPPORTUNITY LANE, GLIDE, OR, 97443",JCC, - - , - - ,2010 OPPORTUNITY LANE,GLIDE,OR,97443,43.2371651395,-122.945877493,SAN FRANCISCO/SEATTLE
PA0143,ROBT N C NIX FB USPO,"900 MARKET STREET, PHILADELPHIA, PA, 19107-4228",OFCCP, - - , - - ,900 MARKET STREET,PHILADELPHIA,PA,19107-4228,39.9513,-75.1552,PHILADELPHIA
PA0144,US CUSTOMHOUSE,"200 CHESTNUT STREET, PHILADELPHIA, PA, 19106-2912",OSHA, - - , - - ,200 CHESTNUT STREET,PHILADELPHIA,PA,19106-2912,39.9484,-75.1441,PHILADELPHIA
PA0158,UNITED STATES COURTHOUSE,"700 GRANT STREET, PITTSBURGH, PA, 15219-1906",OLMS, - - , - - ,700 GRANT STREET,PITTSBURGH,PA,15219-1906,40.4422,-79.995,PHILADELPHIA
PA0233,WILLIAM S. MOORHEAD FED. BLDG.,"1000 LIBERTY AVE, PITTSBURGH, PA, 15222-4004","BLS, OALJ, OFCCP, OIG, OLMS, OSHA, WHD", - - , - - ,1000 LIBERTY AVE,PITTSBURGH,PA,15222-4004,40.4436,-79.9952,PHILADELPHIA
PA0235,US COURTHSE & FB,"240 WEST THIRD STREET, WILLIAMSPORT, PA, 17701-0000",, - - , - - ,240 WEST THIRD STREET,WILLIAMSPORT,PA,17701-0000,41.2391,-77.0048,PHILADELPHIA
PA0267,RONALD REAGAN FEDERAL BUILDING,"228 WALNUT STREET, HARRISBURG, PA, 17108-9901",ATELS, - - , - - ,228 WALNUT STREET,HARRISBURG,PA,17108-9901,40.2737,-76.8602,PHILADELPHIA
PA0358,PENN TRAFFIC CO BLDG,"319-347 WASH ST, JOHNSTOWN, PA, 15901-1624",BLS, - - , - - ,319-347 WASH ST,JOHNSTOWN,PA,15901-1624,40.3287,-78.9143,PHILADELPHIA
PA0388,EXEC PARK OFF BLDG,"2001 STATE HILL RD, WYOMISSING, PA, 19610-1607",MSHA, - - , - - ,2001 STATE HILL RD,WYOMISSING,PA,19610-1607,40.3391972788,-75.9767671202,PHILADELPHIA
PA0450,WELLINGTON SQUARE,"1225 SOUTH MAIN STREET, GREENSBURG, PA, 15601-5370","OWCP, WHD", - - , - - ,1225 SOUTH MAIN STREET,GREENSBURG,PA,15601-5370,40.284038208,-79.5486674912,PHILADELPHIA
PA0476,119 PROFESSIONAL CTR,"1265 WAYNE AVENUE, INDIANA, PA, 15701-3501",MSHA, - - , - - ,1265 WAYNE AVENUE,INDIANA,PA,15701-3501,40.6022141765,-79.1630834815,PHILADELPHIA
PA0493,CURTIS CENTER,"170 SOUTH INDEPENDENCE MALL WEST, PHILADELPHIA, PA, 19106-3323","ATELS, BLS, EBSA, ETA, OASAM, OCIA, OFCCP, OJC, OLMS, OPA, OSHA, OWCP, SOL, VETS, WB, WHD", - - , - - ,170 SOUTH INDEPENDENCE MALL WEST,PHILADELPHIA,PA,19106-3323,39.9525463241,-75.1501659898,PHILADELPHIA
PA0503,CARROLLTOWN PROFESS.,"SOUTH MAIN ST., CARROLLTOWN, PA, 15722-0000",, - - , - - ,SOUTH MAIN ST.,CARROLLTOWN,PA,15722-0000,40.6028,-78.709,PHILADELPHIA
PA0517,LIBERTY CENTER,"1001 LIBERTY AVE., PITTSBURGH, PA, 15222-3714",OSHA, - - , - - ,1001 LIBERTY AVE.,PITTSBURGH,PA,15222-3714,40.4436,-79.9952,PHILADELPHIA
PA0542,HILLCREST BLDG.,"239-245 BUTLER RD., KITTANNING, PA, 16201-2205",MSHA, - - , - - ,239-245 BUTLER RD.,KITTANNING,PA,16201-2205,40.8085,-79.5324,PHILADELPHIA
PA0627,STEGMAIER BUILDING,"7 NORTH WILKES-BARRE BOULEVARD, WILKES BARRE, PA, 18702-5249","MSHA, OSHA, WHD", - - , - - ,7 NORTH WILKES-BARRE BOULEVARD,WILKES BARRE,PA,18702-5249,41.2420888938,-75.8779749988,PHILADELPHIA
PA0653,THE PUBLIC LEDGER BLDG,"150 SOUTH INDEPENDENCE MALL WEST, PHILADELPHIA, PA, 19106-3413","OASAM, OIG", - - , - - ,150 SOUTH INDEPENDENCE MALL WEST,PHILADELPHIA,PA,19106-3413,39.9523320384,-75.1502170102,PHILADELPHIA
PA0656,THE GATEWAY BLDG,"201 PENN ST, READING, PA, 19601-4038","ATELS, BLS, WHD", - - , - - ,201 PENN ST,READING,PA,19601-4038,40.3354,-75.9337795918,PHILADELPHIA
PA0673,259 DUNN STATION ROAD,"259 DUNN STATION ROAD, PROSPERITY, PA, 15239-1627",MSHA, - - , - - ,259 DUNN STATION ROAD,PROSPERITY,PA,15239-1627,40.4837,-79.7381,PHILADELPHIA
PA0682,PENN STATE RESEARCH PARK,"101 INOVATION BLVD, STATE COLLEGE, PA, 16803-6605",WHD, - - , - - ,101 INOVATION BLVD,STATE COLLEGE,PA,16803-6605,40.8016,-77.8997,PHILADELPHIA
PA0807,1128 STATE STREET,"1128 STATE STREET, ERIE, PA, 16501-1928","OSHA, WHD", - - , - - ,1128 STATE STREET,ERIE,PA,16501-1928,42.1241113159,-80.0818812474,PHILADELPHIA
PA0830,PALADIN PROFSSIONAL CENTER,"631 EXCEL DRIVE, MOUNT PLEASANT, PA, 15666-2771",MSHA, - - , - - ,631 EXCEL DRIVE,MOUNT PLEASANT,PA,15666-2771,40.161,-79.5098,PHILADELPHIA
PA0842,159 CRESSWOOD DRIVE,"159 CRESSWOOD DRIVE, CLEARFIELD, PA, 16830-6127",MSHA, - - , - - ,159 CRESSWOOD DRIVE,CLEARFIELD,PA,16830-6127,40.9981,-78.3601,PHILADELPHIA
PA0844,JOHNSTOWN TECH PARK,"1 TECH PARK DRIVE, JOHNSTOWN, PA, 15901-2515",OWCP, - - , - - ,1 TECH PARK DRIVE,JOHNSTOWN,PA,15901-2515,40.3287,-78.9143,PHILADELPHIA
PA0863,SCHUYLKILL MALL,"830 SCHUYLKILL MALL, FRACKVILLE, PA, 17931-2502",MSHA, - - , - - ,830 SCHUYLKILL MALL,FRACKVILLE,PA,17931-2502,40.7713663005,-76.2366595435,PHILADELPHIA
PA0873,SAUCON VALLEY PLAZA,"3477 CORPORATE PARKWAY, CENTER VALLEY, PA, 18034-8232",OSHA, - - , - - ,3477 CORPORATE PARKWAY,CENTER VALLEY,PA,18034-8232,40.2239,-75.2259,PHILADELPHIA
PA0877,THORNHILL DRIVE BUILDING,"178 THORN HILL RD, WARRENDALE, PA, 15086-7528",MSHA, - - , - - ,178 THORN HILL RD,WARRENDALE,PA,15086-7528,40.6674,-80.1006881611,PHILADELPHIA
PA0879,1385 EISENHOWER BLVD.,"1385 EISENHOWER BLVD., JOHNSTOWN, PA, 15904-3257",MSHA, - - , - - ,1385 EISENHOWER BLVD.,JOHNSTOWN,PA,15904-3257,40.2722270396,-78.8486164627,PHILADELPHIA
PA0887,ONE PENN CENTER,"1617 JOHN F KENNEDY BLVD, PHILADELPHIA, PA, 19103-1821",WHD, - - , - - ,1617 JOHN F KENNEDY BLVD,PHILADELPHIA,PA,19103-1821,39.9540311086,-75.1668364175,PHILADELPHIA
PA0891,2300 VARTAN WAY,"2300 VARTAN WAY, HARRISBURG, PA, 17110-9721",WHD, - - , - - ,2300 VARTAN WAY,HARRISBURG,PA,17110-9721,40.3169716807,-76.8533525025,PHILADELPHIA
PA0897,KLINE VILLAGE,"43 KLINE VLG, HARRISBURG, PA, 17104-1529",OSHA, - - , - - ,43 KLINE VLG,HARRISBURG,PA,17104-1529,40.2722337484,-76.8456509056,PHILADELPHIA
PA0900,SUNBURST PLAZA,"1541 ALTA DR, WHITEHALL, PA, 18052-5632",WHD, - - , - - ,1541 ALTA DR,WHITEHALL,PA,18052-5632,40.6294887635,-75.4871943818,PHILADELPHIA
PA6973,EXECUTIVE HOUSE,"615 HOWARD AVENUE, ALTOONA, PA, 16603-0000",, - - , - - ,615 HOWARD AVENUE,ALTOONA,PA,16603-0000,40.4602,-78.3906991106,PHILADELPHIA
PAJCC559,KEYSTONE JOB CORPS CENTER,"P.O. BOX 37, DRUMS, PA, 18222",JCC, - - , - - ,P.O. BOX 37,DRUMS,PA,18222,41.0352,-76.0035,PHILADELPHIA
PAJCC562,PHILADELPHIA JOB CORPS CENTER,"4601 MARKET STREET, PHILADELPHIA, PA, 19139",JCC, - - , - - ,4601 MARKET STREET,PHILADELPHIA,PA,19139,39.9586,-75.214,PHILADELPHIA
PAJCC564,PITTSBURGH JOB CORPS CENTER,"7175 HIGHLAND DRIVE, PITTSBURGH, PA, 15206",JCC, - - , - - ,7175 HIGHLAND DRIVE,PITTSBURGH,PA,15206,40.4787,-79.9019,PHILADELPHIA
PAJCC566,RED ROCK JOB CORPS CENTER,"P.O. BOX 218, LOPEZ, PA, 18628",JCC, - - , - - ,P.O. BOX 218,LOPEZ,PA,18628,41.4301,-76.3138,PHILADELPHIA
PR0521,GSA CENTER--GUAYNABO,"INSULAR RD 28, GUAYNABO, SAN JUAN, PR, 00934-0000",MSHA, - - , - - ,INSULAR RD 28,"GUAYNABO, SAN JUAN",PR,00934-0000,18.4113,-66.1242,BOSTON/NEW YORK
PR3864,PARK PLAZA ANNEX,"CALLE MARTINEZ NADAL 59, MAYAGUEZ, MAYAGUEZ, PR, 00680-0000",WHD, - - , - - ,CALLE MARTINEZ NADAL 59,"MAYAGUEZ, MAYAGUEZ",PR,00680-0000,18.182,-67.1324,BOSTON/NEW YORK
PR3895,REXAM BUILDING,"1510 ROOSEVELT AVE., GUAYNABO, SAN JUAN, PR, 00968-0000",OSHA, - - , - - ,1510 ROOSEVELT AVE.,"GUAYNABO, SAN JUAN",PR,00968-0000,18.4061,-66.1012,BOSTON/NEW YORK
PR3930,SAN PATRICIO OFF CTR,"7 TABONUCO STREET, GUAYNABO, SAN JUAN, PR, 00968-3002",WHD, - - , - - ,7 TABONUCO STREET,"GUAYNABO, SAN JUAN",PR,00968-3002,18.4061,-66.1012,BOSTON/NEW YORK
PR3937,ARECIBO CINEMA BLDG,"ST. RD. 2,  KM. 81.0, ARECIBO, ARECIBO, PR, 00612-0000",WHD, - - , - - ,"ST. RD. 2,  KM. 81.0","ARECIBO, ARECIBO",PR,00612-0000,18.4023,-66.7114,BOSTON/NEW YORK
PR3991,LARAMBA PLAZA,"600 AVENUE TITO CASTRO, PONCE, PONCE, PR, 00716-0000",WHD, - - , - - ,600 AVENUE TITO CASTRO,"PONCE, PONCE",PR,00716-0000,18.0261,-66.5993,BOSTON/NEW YORK
PRJCC531,ARECIBO JOB CORPS CENTER,"P.O. BOX 544, GARROCHALES, PR, ",JCC, - - , - - ,P.O. BOX 544,GARROCHALES,PR,,18.4556,-66.5667,BOSTON/NEW YORK
PRJCC532,BARRANQUITAS JOB CORPS CENTER,"P.O. BOX 68, BARRANQUITAS, PR, 794",JCC, - - , - - ,P.O. BOX 68,BARRANQUITAS,PR,794,18.199,-66.3098,BOSTON/NEW YORK
PRJCC547,RAMEY JOB CORPS CENTER,"P.O. BOX 250463, AGUADILLA, PR, ",JCC, - - , - - ,P.O. BOX 250463,AGUADILLA,PR,,18.4294,-67.1544,BOSTON/NEW YORK
RI7097,380 WESTMINSTER MALL,"380 WESTMINSTER MALL, PROVIDENCE, RI, 02903-3246","OSHA, WHD", - - , - - ,380 WESTMINSTER MALL,PROVIDENCE,RI,02903-3246,41.8210592706,-71.4148124855,BOSTON/NEW YORK
RIJCC537,EXETER JOB CORPS CENTER,"162 MAIN STREET, EXETER, RI, 2822",JCC, - - , - - ,162 MAIN STREET,EXETER,RI,2822,41.5498,-71.5445,BOSTON/NEW YORK
SC0013,"MATTHEW J. PERRY, JR. PARKING","1100 RICHLAND STREET, COLUMBIA, SC, 29201-2414","MSHA, OFCCP", - - , - - ,1100 RICHLAND STREET,COLUMBIA,SC,29201-2414,34.0101,-81.0393,ATLANTA
SC0068,STROM THURMOND FB,"1835 ASSEMBLY STREET, COLUMBIA, SC, 29201-2430","ATELS, MSHA, OFCCP, OSHA, WHD", - - , - - ,1835 ASSEMBLY STREET,COLUMBIA,SC,29201-2430,34.0099,-81.0394,ATLANTA
SC2075,BUSINESS TECH. CTR,"181 EAST EVANS STREET, FLORENCE, SC, 29506-2512",WHD, - - , - - ,181 EAST EVANS STREET,FLORENCE,SC,29506-2512,34.1974,-79.7641413561,ATLANTA
SC2107,4600 GOER DRIVE,"4600 GOER DRIVE, NORTH CHARLESTON, SC, 29406-6500",WHD, - - , - - ,4600 GOER DRIVE,NORTH CHARLESTON,SC,29406-6500,32.8708694624,-80.0085936385,ATLANTA
SC2134,VARDY EXECUTIVE CENTER,"24 VARDY ST., GREENVILLE, SC, 29601-3540",WHD, - - , - - ,24 VARDY ST.,GREENVILLE,SC,29601-3540,34.8471,-82.4023,ATLANTA
SC2171,MEYBOHM OFFICE BUILDING,"592 WEST MARTINTOWN ROAD, NORTH AUGUSTA, SC, 29841-9999",OWCP, - - , - - ,592 WEST MARTINTOWN ROAD,NORTH AUGUSTA,SC,29841-9999,33.5173,-81.9798,ATLANTA
SCJCC572,BAMBERG JOB CORPS CENTER,"19 JOB CORPS AVENUE, BAMBERG, SC, 29003",JCC, - - , - - ,19 JOB CORPS AVENUE,BAMBERG,SC,29003,33.2412,-81.0238,ATLANTA
SD1277,WEST PARK PLAZA BLDG,"2455 WEST CHICAGO, RAPID CITY, SD, 57702-2467",MSHA, - - , - - ,2455 WEST CHICAGO,RAPID CITY,SD,57702-2467,44.0846,-103.259483216,DALLAS/DENVER
SD1374,UNNAMED BUILDING,"4804 SOUTH MINNESOTA AVE., SIOUX FALLS, SD, 57108-5023",WHD, - - , - - ,4804 SOUTH MINNESOTA AVE.,SIOUX FALLS,SD,57108-5023,43.500231812,-96.7309,DALLAS/DENVER
SD1394,221 S CENTRAL AVE,"221 SOUTH CENTRAL AVE, PIERRE, SD, 57501-2479",ATELS, - - , - - ,221 SOUTH CENTRAL AVE,PIERRE,SD,57501-2479,44.369333729,-100.355549114,DALLAS/DENVER
SD1397,USDA - RAPID CITY,"414 STUMER RD, RAPID CITY, SD, 57701-9213",WHD, - - , - - ,414 STUMER RD,RAPID CITY,SD,57701-9213,44.0354,-103.226029614,DALLAS/DENVER
SDJCC611,BOXELDER JOB CORPS CIVILIAN CONSERVATION CORPS,"22023 JOB CORPS PLACE, NEMO, SD, 57759",JCC, - - , - - ,22023 JOB CORPS PLACE,NEMO,SD,57759,44.2112,-103.5504,DALLAS/DENVER
TN0009,EAGLECREST BUILDING,"225 NORTH HUMPHREY'S BLVD, MEMPHIS, TN, 38120-2119",ATELS, - - , - - ,225 NORTH HUMPHREY'S BLVD,MEMPHIS,TN,38120-2119,35.1340178763,-89.8655961262,ATLANTA
TN0076,JOHN J. DUNCAN FB,"710 LOCUST STREET, KNOXVILLE, TN, 37902-2540",WHD, - - , - - ,710 LOCUST STREET,KNOXVILLE,TN,37902-2540,35.962197563,-83.9201751747,ATLANTA
TN0088,CLIFFORD DAVIS-ODELL HORTON,"FEDERAL  BUILDING, MEMPHIS, TN, 38103-1816","OFCCP, WHD", - - , - - ,FEDERAL  BUILDING,MEMPHIS,TN,38103-1816,35.0031,-89.8762,ATLANTA
TN2014,CUMBERLAND-STE 200,"233 CUMBERLAND BEND DR, NASHVILLE, TN, 37228-1808",OLMS, - - , - - ,233 CUMBERLAND BEND DR,NASHVILLE,TN,37228-1808,36.1969,-86.8034,ATLANTA
TN2074,AIRPORT EXEC PLAZA,"1321 MURFREESBORO RD, NASHVILLE, TN, 37217-2626","ATELS, OFCCP, WHD", - - , - - ,1321 MURFREESBORO RD,NASHVILLE,TN,37217-2626,36.1699,-86.6698,ATLANTA
TN2149,ENERGY PARK I,"377 RIVERSIDE DRIVE, FRANKLIN, TN, 37064-8964",MSHA, - - , - - ,377 RIVERSIDE DRIVE,FRANKLIN,TN,37064-8964,35.9005,-86.8278,ATLANTA
TN2172,CENTURY CITY PLAZA 1,"51 CENTURY BOULEVARD, NASHVILLE, TN, 37214-3678",OSHA, - - , - - ,51 CENTURY BOULEVARD,NASHVILLE,TN,37214-3678,36.1485029471,-86.6838364094,ATLANTA
TN2192,THE HISTORIC CASTNER KNOTT BLD,"618 CHURCH STREET, NASHVILLE, TN, 37219-2428",SOL, - - , - - ,618 CHURCH STREET,NASHVILLE,TN,37219-2428,36.1624,-86.7821244344,ATLANTA
TN2230,JACKSON PLAZA OFFICE,"800 OAK RIDGE TURNPIKE, OAK RIDGE, TN, 37830-6957",OWCP, - - , - - ,800 OAK RIDGE TURNPIKE,OAK RIDGE,TN,37830-6957,36.0279,-84.2357,ATLANTA
TN2239,535 CHESTNUT STREET,"535 CHESTNUT STREET, CHATTANOOGA, TN, 37402-4908","ATELS, WHD", - - , - - ,535 CHESTNUT STREET,CHATTANOOGA,TN,37402-4908,35.0504489796,-85.3119,ATLANTA
TN2250,136 MOUNTAIN PERKINS LANE,"136 MOUNTAIN PERKINS LANE, JACKSBORO, TN, 37757-0000",MSHA, - - , - - ,136 MOUNTAIN PERKINS LANE,JACKSBORO,TN,37757-0000,36.299,-84.1373,ATLANTA
TN2283,4700 RUTLEDGE PIKE,"4700 RUTLEDGE PIKE, KNOXVILLE, TN, 37914-3225",MSHA, - - , - - ,4700 RUTLEDGE PIKE,KNOXVILLE,TN,37914-3225,36.0128,-83.8675,ATLANTA
TN2309,DAVID G. STONE BUILDING,"211 7TH AVE, NASHVILLE, TN, 37219-1823",SOL, - - , - - ,211 7TH AVE,NASHVILLE,TN,37219-1823,36.1621109326,-86.7827036442,ATLANTA
TNJCC580,JACOBS CREEK JOB CORPS CIVILIAN CONSERVATION CENTER,"984 DENTON VALLEY ROAD, BRISTOL, TN, 37620",JCC, - - , - - ,984 DENTON VALLEY ROAD,BRISTOL,TN,37620,36.5616986677,-81.9881807079,ATLANTA
TNJCC583,MEMPHIS JOB CORPS CENTER,"1555 MCALISTER DRIVE, MEMPHIS, TN, 38116",JCC, - - , - - ,1555 MCALISTER DRIVE,MEMPHIS,TN,38116,34.9974,-90.0118027734,ATLANTA
TX0006,JM JONES FEDERAL BLDG,"205 EAST FIFTH STREET, AMARILLO, TX, 79101-1559","BLS, WHD", - - , - - ,205 EAST FIFTH STREET,AMARILLO,TX,79101-1559,35.2315,-101.6845,DALLAS/DENVER
TX0019,J BROOKS FEDERAL BLDG,"WILLOW & BROADWAY STS, BEAUMONT, TX, 77701-0000",BLS, - - , - - ,WILLOW & BROADWAY STS,BEAUMONT,TX,77701-0000,29.9839,-94.0228,DALLAS/DENVER
TX0058,SANTA FE FEDERAL BLDG,"1114 COMMERCE STREET, DALLAS, TX, 75242-1021",BLS, - - , - - ,1114 COMMERCE STREET,DALLAS,TX,75242-1021,32.7825,-96.787,DALLAS/DENVER
TX0163,OC FISHER FED BLDG/COURTHOUSE,"33 EAST TWOHIG, SAN ANGELO, TX, 76903-6488",WHD, - - , - - ,33 EAST TWOHIG,SAN ANGELO,TX,76903-6488,31.4609082004,-100.436717214,DALLAS/DENVER
TX0164,HIPOLITO F. GARCIA FOB/US CTHS,"615 EAST HOUSTON STREET, SAN ANTONIO, TX, 78205-2001","ATELS, BLS, OFCCP", - - , - - ,615 EAST HOUSTON STREET,SAN ANTONIO,TX,78205-2001,29.4267,-98.4866833333,DALLAS/DENVER
TX0185,ML KING JR FEDERAL BLDG,"312 SOUTH MAIN & CHURCH STREETS, VICTORIA, TX, 77901-8151",WHD, - - , - - ,312 SOUTH MAIN & CHURCH STREETS,VICTORIA,TX,77901-8151,28.8049,-96.9847,DALLAS/DENVER
TX0191,WICHITA FALLS USPO/COURTHOUSE,"1000 LAMAR STREET, WICHITA FALLS, TX, 76301-3402",WHD, - - , - - ,1000 LAMAR STREET,WICHITA FALLS,TX,76301-3402,33.9093,-98.4916,DALLAS/DENVER
TX0220,G MAHON POST OFFICE/COURTHOUSE,"100-200 EAST WALL, MIDLAND, TX, 79701-5233",BLS, - - , - - ,100-200 EAST WALL,MIDLAND,TX,79701-5233,31.9975,-102.0744,DALLAS/DENVER
TX0227,JJ PICKLE FEDERAL BLDG,"300 EAST 8TH STREET, AUSTIN, TX, 78701-3233","ATELS, WHD", - - , - - ,300 EAST 8TH STREET,AUSTIN,TX,78701-3233,30.2692,-97.7397,DALLAS/DENVER
TX0230,GH MAHON FED BLDG/COURTHOUSE,"1205 TEXAS, LUBBOCK, TX, 79401-4037","OSHA, WHD", - - , - - ,1205 TEXAS,LUBBOCK,TX,79401-4037,33.4557,-101.6488,DALLAS/DENVER
TX0272,RC WHITE FEDERAL BLDG,"700 EAST SAN ANTONIO, EL PASO, TX, 79901-7020",WHD, - - , - - ,700 EAST SAN ANTONIO,EL PASO,TX,79901-7020,31.5871,-106.2688,DALLAS/DENVER
TX0284,E CABELL FOB/USPO/CTHS,"1100 COMMERCE STREET, DALLAS, TX, 75242-1027",MSHA, - - , - - ,1100 COMMERCE STREET,DALLAS,TX,75242-1027,32.7825,-96.787,DALLAS/DENVER
TX0292,AM SMITH FEDERAL BLDG,"525 GRIFFIN ST, DALLAS, TX, 75202-5007","ATELS, BLS, EBSA, ETA, OASAM, OFCCP, OIG, OJC, OLMS, OPA, OSHA, OWCP, SOL, VETS, WB, WHD", - - , - - ,525 GRIFFIN ST,DALLAS,TX,75202-5007,32.7823949423,-96.804077785,DALLAS/DENVER
TX0297,ALLIANCE TOWER,"8701 SOUTH GESSNER, HOUSTON, TX, 77074-2926","OIG, OLMS, WHD", - - , - - ,8701 SOUTH GESSNER,HOUSTON,TX,77074-2926,29.9361,-95.5465,DALLAS/DENVER
TX0298,GT LELAND FEDERAL BLDG,"1919 SMITH ST, HOUSTON, TX, 77002-8049","ATELS, OWCP", - - , - - ,1919 SMITH ST,HOUSTON,TX,77002-8049,29.7520832243,-95.3736172956,DALLAS/DENVER
TX0441,SAN ANTONIO FED PARKING GARAGE,"661 EAST TRAVIS ST, SAN ANTONIO, TX, 78205-2395","ATELS, OFCCP", - - , - - ,661 EAST TRAVIS ST,SAN ANTONIO,TX,78205-2395,29.427561034,-98.4857781912,DALLAS/DENVER
TX0701,LABRANCH FEDERAL BLDG,"2320 LABRANCH STREET, HOUSTON, TX, 77004-1002","BLS, OFCCP", - - , - - ,2320 LABRANCH STREET,HOUSTON,TX,77004-1002,29.7249,-95.3638,DALLAS/DENVER
TX1543,GRIFFIN ST AUTO PRK,"1002 WOOD STREET, DALLAS, TX, 75202-0000","BLS, MSHA, OLMS, OSHA", - - , - - ,1002 WOOD STREET,DALLAS,TX,75202-0000,32.7768,-96.8024918367,DALLAS/DENVER
TX1572,WR POAGE FEDERAL BLDG,"101 SOUTH MAIN STREET, TEMPLE, TX, 76501-7602",WHD, - - , - - ,101 SOUTH MAIN STREET,TEMPLE,TX,76501-7602,31.0959,-97.3416,DALLAS/DENVER
TX1732,WILSON PLAZA,"606 NORTH CARANCAHUA, CORPUS CHRISTI, TX, 78476-1702","OSHA, WHD", - - , - - ,606 NORTH CARANCAHUA,CORPUS CHRISTI,TX,78476-1702,27.7957156939,-97.3972528704,DALLAS/DENVER
TX1988,MESA ONE BUILDING,"4849 NORTH MESA, EL PASO, TX, 79912-5916",OSHA, - - , - - ,4849 NORTH MESA,EL PASO,TX,79912-5916,31.8076491976,-106.509599465,DALLAS/DENVER
TX2007,EXECUTIVE PLAZA,"6801 SANGER AVE, WACO, TX, 76710-7818",WHD, - - , - - ,6801 SANGER AVE,WACO,TX,76710-7818,31.5194,-97.1988,DALLAS/DENVER
TX2019,NORTHCHASE I BLDG.,"10127 MOROCCO, SAN ANTONIO, TX, 78216-3943",WHD, - - , - - ,10127 MOROCCO,SAN ANTONIO,TX,78216-3943,29.5348317162,-98.4925870191,DALLAS/DENVER
TX2025,NORTH STAR II BLDG.,"8713 AIRPORT FREEWAY, FORT WORTH, TX, 76180-7610",OSHA, - - , - - ,8713 AIRPORT FREEWAY,FORT WORTH,TX,76180-7610,32.8379,-97.1949,DALLAS/DENVER
TX2075,SEARS BUILDING,"350 MAGNOLIA, BEAUMONT, TX, 77701-2253",WHD, - - , - - ,350 MAGNOLIA,BEAUMONT,TX,77701-2253,30.106,-94.1083,DALLAS/DENVER
TX2098,DEL RIO COURTHOUSE,"111 EAST BROADWAY, DEL RIO, TX, 78840-5573",WHD, - - , - - ,111 EAST BROADWAY,DEL RIO,TX,78840-5573,29.3662950055,-100.893068947,DALLAS/DENVER
TX2103,FOUNTAINHEAD I,"8200 INTERSTATE IH 10 WEST, SAN ANTONIO, TX, 78230-3876",OSHA, - - , - - ,8200 INTERSTATE IH 10 WEST,SAN ANTONIO,TX,78230-3876,29.5465,-98.5572,DALLAS/DENVER
TX2160,CAMINO CENTER II,"17625 EL CAMINO REAL, HOUSTON, TX, 77058-3052","OSHA, WHD", - - , - - ,17625 EL CAMINO REAL,HOUSTON,TX,77058-3052,29.5514,-95.1141,DALLAS/DENVER
TX2211,EXECUTIVE PLAZA,"602 NORTH BAIRD ST, MIDLAND, TX, 79701-4772",WHD, - - , - - ,602 NORTH BAIRD ST,MIDLAND,TX,79701-4772,32.0028204082,-102.0731,DALLAS/DENVER
TX2323,CITY NATIONAL BANK BLDG,"911 NORTH WEST LOOP 281, LONGVIEW, TX, 75604-2900",WHD, - - , - - ,911 NORTH WEST LOOP 281,LONGVIEW,TX,75604-2900,32.5375820442,-94.7649487293,DALLAS/DENVER
TX2347,LONGVIEW POST OFFICE,"201 EAST METHIN, LONGVIEW, TX, 75602-9998",MSHA, - - , - - ,201 EAST METHIN,LONGVIEW,TX,75602-9998,32.4495,-94.666,DALLAS/DENVER
TX2353,FORMER FEDERAL BLDG,"216 WEST 26 STREET, BRYAN, TX, 77803-3258",MSHA, - - , - - ,216 WEST 26 STREET,BRYAN,TX,77803-3258,30.6740156357,-96.3741793093,DALLAS/DENVER
TX2430,FIRST NATIONAL BANK OF ABILENE,"400 PINE ST, ABILENE, TX, 79601-5104",WHD, - - , - - ,400 PINE ST,ABILENE,TX,79601-5104,32.4525,-99.7328,DALLAS/DENVER
TX2442,GARZA BUILDING,"1501 MATAMOROS ST, LAREDO, TX, 78040-4912",WHD, - - , - - ,1501 MATAMOROS ST,LAREDO,TX,78040-4912,27.5066,-99.5104,DALLAS/DENVER
TX2464,NORTH PARK CORPORATE CENTER,"17319 SAN PEDRO, HOLLYWOOD PARK, TX, 78232-1411",MSHA, - - , - - ,17319 SAN PEDRO,HOLLYWOOD PARK,TX,78232-1411,29.7364,-98.2132,DALLAS/DENVER
TX2487,THE OFFICES @ BROOKHOLLOW,"1701 EAST LAMAR BOULEVARD, ARLINGTON, TX, 76006-7313",WHD, - - , - - ,1701 EAST LAMAR BOULEVARD,ARLINGTON,TX,76006-7313,32.7622,-97.0738,DALLAS/DENVER
TX2516,PASEO PLAZA LP,"1805 EAST RUBEN TORRES  BLVD, BROWNSVILLE, TX, 78526-1612","BLS, WHD", - - , - - ,1805 EAST RUBEN TORRES  BLVD,BROWNSVILLE,TX,78526-1612,25.989,-97.4432,DALLAS/DENVER
TX2533,COMMERCE SQUARE BUSINESS PARK,"3322 SOUTH SOUTH WEST LOOP 323, TYLER, TX, 75701-9237",WHD, - - , - - ,3322 SOUTH SOUTH WEST LOOP 323,TYLER,TX,75701-9237,32.3219,-95.3022,DALLAS/DENVER
TX2583,LA COSTA GREEN BUILDING,"1033 LA POSADA DRIVE, SUITE 375, AUSTIN, TX, 78752-3832",OSHA, - - , - - ,"1033 LA POSADA DRIVE, SUITE 375",AUSTIN,TX,78752-3832,30.325588067,-97.7023238661,DALLAS/DENVER
TX2785,1101 E. HACKBERRY AVE,"1101 EAST HACKBERRY AVE, MCALLEN, TX, 78501-6648",WHD, - - , - - ,1101 EAST HACKBERRY AVE,MCALLEN,TX,78501-6648,26.208373806,-98.2101849006,DALLAS/DENVER
TX2825,HARLINGEN CENTRAL,"115 EAST VAN BUREN AVE, HARLINGEN, TX, 78550-6816",WHD, - - , - - ,115 EAST VAN BUREN AVE,HARLINGEN,TX,78550-6816,26.1919,-97.6954428571,DALLAS/DENVER
TX2860,CAMBRIDGE COURT,"547 WILLIAM D FITCH PKY, COLLEGE STATION, TX, 77845-6140",WHD, - - , - - ,547 WILLIAM D FITCH PKY,COLLEGE STATION,TX,77845-6140,30.5616,-96.255,DALLAS/DENVER
TX2872,SPRING CREEK BUSINESS PARK V,"1100 EAST CAMPBELL RD, RICHARDSON, TX, 75081-6708",OSHA, - - , - - ,1100 EAST CAMPBELL RD,RICHARDSON,TX,75081-6708,32.9753,-96.7064,DALLAS/DENVER
TX2873,690 MEDICAL BUILDING,"690 SOUTH LOOP 336 WEST, CONROE, TX, 77304",OSHA, - - , - - ,690 SOUTH LOOP 336 WEST,CONROE,TX,77304,30.3059,-95.3994,DALLAS/DENVER
TXJCC616,DAVID L. CARRASCO JOB CORPS CENTER,"11155 GATEWAY WEST, EL PASO, TX, 79935",JCC, - - , - - ,11155 GATEWAY WEST,EL PASO,TX,79935,31.6172,-106.2173,DALLAS/DENVER
TXJCC617,GARY JOB CORPS CENTER,"2800 AIRPORT, HIGHWAY 21, SAN MARCOS, TX, 78667",JCC, - - , - - ,"2800 AIRPORT, HIGHWAY 21",SAN MARCOS,TX,78667,29.9113,-97.8561,DALLAS/DENVER
TXJCC620,LAREDO JOB CORPS CENTER,"1701 ISLAND STREET, LAREDO, TX, ",JCC, - - , - - ,1701 ISLAND STREET,LAREDO,TX,,27.5511669929,-99.5109329323,DALLAS/DENVER
TXJCC623,NORTH TEXAS JOB CORPS CENTER,"1701 NORTH CHURCH STREET, MCKINNEY, TX, 75069",JCC, - - , - - ,1701 NORTH CHURCH STREET,MCKINNEY,TX,75069,33.2155150918,-96.616899458,DALLAS/DENVER
UT0032,WALLACE F BENNETT FB,"125 SOUTH STATE ST, SALT LAKE CITY, UT, 84138-1102","ATELS, MSHA", - - , - - ,125 SOUTH STATE ST,SALT LAKE CITY,UT,84138-1102,40.7663644737,-111.8882,DALLAS/DENVER
UT0042,FB,"196 EAST TABERNACLE ST, SAINT GEORGE, UT, 84770-3467",WHD, - - , - - ,196 EAST TABERNACLE ST,SAINT GEORGE,UT,84770-3467,37.108,-113.579142857,DALLAS/DENVER
UT1433,SLC SCIENCE & TECH BUILDING,"SANDY PARKWAY, SANDY, UT, 84070-9997",OSHA, - - , - - ,SANDY PARKWAY,SANDY,UT,84070-9997,40.5985,-111.9102,DALLAS/DENVER
UT1474,PRICE MSHA BUILDING,"1375 SOUTH 45 EAST, PRICE, UT, 84501-0000",MSHA, - - , - - ,1375 SOUTH 45 EAST,PRICE,UT,84501-0000,39.6827,-110.8575,DALLAS/DENVER
UT1500,EAGLE GATE PLAZA & TOWER,"60 EAST SOUTH TEMPLE ST, SALT LAKE CITY, UT, 84111-1002",WHD, - - , - - ,60 EAST SOUTH TEMPLE ST,SALT LAKE CITY,UT,84111-1002,40.7691,-111.889347917,DALLAS/DENVER
UTJCC614,CLEARFIELD JOB CORPS CENTER,"20 WEST 1700 SOUTH ANTELOPE DRIVE, CLEARFIELD, UT, ",JCC, - - , - - ,20 WEST 1700 SOUTH ANTELOPE DRIVE,CLEARFIELD,UT,,41.1108,-112.0253,DALLAS/DENVER
UTJCC632,WEBER BASIN JOB CORPS CIVILIAN CONSERVATION CENTER,"7400 SOUTH CORNIA DRIVE, OGDEN, UT, 84405",JCC, - - , - - ,7400 SOUTH CORNIA DRIVE,OGDEN,UT,84405,41.1324,-111.902,DALLAS/DENVER
VA0088,FEDERAL OFFICE BUILDING,"400 NORTH EIGHTH ST, RICHMOND, VA, 23219-4817","ATELS, BLS, OFCCP, WHD", - - , - - ,400 NORTH EIGHTH ST,RICHMOND,VA,23219-4817,37.5398,-77.4355,PHILADELPHIA
VA0255,TWIN TOWERS II,"1100 WILSON BLVD, ARLINGTON, VA, 22209-2249","MSHA, SOL", - - , - - ,1100 WILSON BLVD,ARLINGTON,VA,22209-2249,38.8949019765,-77.0700549412,PHILADELPHIA
VA0328,2300 CLARENDON BLVD,"2300 CLARENDON BLVD, ARLINGTON, VA, 22201-3367","OFCCP, WHD", - - , - - ,2300 CLARENDON BLVD,ARLINGTON,VA,22201-3367,38.8914,-77.0848,PHILADELPHIA
VA0427,WISE COUNTY PLAZA,"RT 23 & BUSINESS RT 23, WISE, VA, 24293-0000","MSHA, OWCP", - - , - - ,RT 23 & BUSINESS RT 23,WISE,VA,24293-0000,37.0043,-82.5508,PHILADELPHIA
VA0511,WORLD TRADE CTR EAST,"101 WEST MAIN ST, NORFOLK, VA, 23510-1646",WHD, - - , - - ,101 WEST MAIN ST,NORFOLK,VA,23510-1646,36.8463155088,-76.2924387721,PHILADELPHIA
VA0680,MERCHANTS WALK BLDG. ONE,"11860 MERCHANTS WALK, STE. 201, NEWPORT NEWS, VA, 23606-3313","OALJ, WHD", - - , - - ,"11860 MERCHANTS WALK, STE. 201",NEWPORT NEWS,VA,23606-3313,37.0854,-76.4753,PHILADELPHIA
VA0705,BB&T BANK BUILDING,"310 FIRST STREET, SW, ROANOKE, VA, 24011-1916","OIG, WHD", - - , - - ,"310 FIRST STREET, SW",ROANOKE,VA,24011-1916,37.2711285714,-79.9422,PHILADELPHIA
VA0707,MSHA BUILDING,"STATE ROUTE 460, VANSANT, VA, 24656-9247",MSHA, - - , - - ,STATE ROUTE 460,VANSANT,VA,24656-9247,37.1751,-82.125,PHILADELPHIA
VA0760,148 PARKERSBURG TURNPIKE,"148 PARKERSBURG TURNPIKE, STAUNTON, VA, 24401-6063",MSHA, - - , - - ,148 PARKERSBURG TURNPIKE,STAUNTON,VA,24401-6063,38.1520896256,-79.1197825662,PHILADELPHIA
VA0791,1701 FALL HILL AVENUE,"1701 FALL HILL AVENUE, FREDERICKSBURG, VA, 22401-3659",WHD, - - , - - ,1701 FALL HILL AVENUE,FREDERICKSBURG,VA,22401-3659,38.3088,-77.4677,PHILADELPHIA
VA1608,FEDERAL BUILDING,"200 GRANBY STREET, NORFOLK, VA, 23510-1811","BLS, OSHA, OWCP", - - , - - ,200 GRANBY STREET,NORFOLK,VA,23510-1811,36.8479,-76.2915,PHILADELPHIA
VAJCC551,BLUE RIDGE JOB CORPS CENTER,"245 WEST MAIN STREET, MARION, VA, 24354",JCC, - - , - - ,245 WEST MAIN STREET,MARION,VA,24354,36.8317788854,-81.5225894427,PHILADELPHIA
VAJCC555,FLATWOODS JOB CORPS CIVILIAN CONSERVATION CORPS,"2803 DUNGANNON ROAD, COEBURN, VA, ",JCC, - - , - - ,2803 DUNGANNON ROAD,COEBURN,VA,,36.8938967544,-82.4600097367,PHILADELPHIA
VAJCC561,OLD DOMINION JOB CORPS CENTER,"1073 FATHER JUDGE  ROAD, MONROE, VA, 24574",JCC, - - , - - ,1073 FATHER JUDGE  ROAD,MONROE,VA,24574,37.5541801645,-79.1284329811,PHILADELPHIA
VT0024,FEDERAL BLDG USPO CT,"11 ELMWOOD AVE, BURLINGTON, VT, 05401-4366","BLS, WHD", - - , - - ,11 ELMWOOD AVE,BURLINGTON,VT,05401-4366,44.4806822228,-73.2138,BOSTON/NEW YORK
VTJCC544,NORTHLANDS JOB CORPS CENTER,"100A MACDONOUGH DRIVE, VERGENNES, VT, 5491",JCC, - - , - - ,100A MACDONOUGH DRIVE,VERGENNES,VT,5491,44.1682,-73.2551,BOSTON/NEW YORK
WA0045,FED BLDG U S POST OF,"W 904 RIVERSIDE, SPOKANE, WA, 99201-1011",WHD, - - , - - ,W 904 RIVERSIDE,SPOKANE,WA,99201-1011,47.3415,-117.2307,SAN FRANCISCO/SEATTLE
WA7565,520 BUILDING,"520 112TH AVE NE, BELLEVUE, WA, 98004-5558",OSHA, - - , - - ,520 112TH AVE NE,BELLEVUE,WA,98004-5558,47.6151594595,-122.1907,SAN FRANCISCO/SEATTLE
WA7566,TACOMA FINANCIAL CTR,"1145 BROADWAY PLAZA, TACOMA, WA, 98402-3583",WHD, - - , - - ,1145 BROADWAY PLAZA,TACOMA,WA,98402-3583,47.2528040627,-122.43979486,SAN FRANCISCO/SEATTLE
WA7735,INLAND GLASS BLDG,"370 SOUTH GRAND AVE, PULLMAN, WA, 99163-2842",BLS, - - , - - ,370 SOUTH GRAND AVE,PULLMAN,WA,99163-2842,46.7280485411,-117.183093936,SAN FRANCISCO/SEATTLE
WA7897,CENTERPOINT CORPORATE PARK-,"6811 SOUTH 204TH STREET, KENT, WA, 98032-2359",MSHA, - - , - - ,6811 SOUTH 204TH STREET,KENT,WA,98032-2359,47.4192,-122.249388889,SAN FRANCISCO/SEATTLE
WA7913,303 BRADLEY AVENUE,"303 BRADLEY AVENUE, SUITE 104, RICHLAND, WA, 99352-4497",OWCP, - - , - - ,"303 BRADLEY AVENUE, SUITE 104",RICHLAND,WA,99352-4497,46.2683407409,-119.268040741,SAN FRANCISCO/SEATTLE
WA7953,WEST HOOD PLACE BLDG.,"7401 WEST HOOD PL, KENNEWICK, WA, 99336-6718",WHD, - - , - - ,7401 WEST HOOD PL,KENNEWICK,WA,99336-6718,46.2162,-119.2234,SAN FRANCISCO/SEATTLE
WA7962,FIFTH & YESLER BUILDING,"300 5TH AVE S, SEATTLE, WA, 98104-2398","ATELS, BLS, EBSA, OASAM, OCIA, OFCCP, OIG, OLMS, OSHA, OWCP, SOL, WB, WHD", - - , - - ,300 5TH AVE S,SEATTLE,WA,98104-2398,47.6,-122.3277,SAN FRANCISCO/SEATTLE
WAJCC635,CASCADES JOB CORPS CENTER,"P.O. BOX 819, SEDRO WOOLLEY, WA, ",JCC, - - , - - ,P.O. BOX 819,SEDRO WOOLLEY,WA,,48.5039,-122.2361,SAN FRANCISCO/SEATTLE
WAJCC637,COLUMBIA BASIN JOB CORPS CIVILIAN CONSERVATION CENTER,"6739 24TH STREET, MOSES LAKE, WA, ",JCC, - - , - - ,6739 24TH STREET,MOSES LAKE,WA,,47.1868918367,-119.3194,SAN FRANCISCO/SEATTLE
WAJCC638,CURLEW JOB CORPS CIVILIAN CONSERVATION CENTER,"3 CAMPUS STREET, CURLEW, WA, 99118",JCC, - - , - - ,3 CAMPUS STREET,CURLEW,WA,99118,48.9318,-118.7647,SAN FRANCISCO/SEATTLE
WAJCC640,FORT SIMCOE JOB CORPS CIVILIAN CONSERVATION CORPS,"40 ABELLA LANE, WHITE SWAN, WA, 98952",JCC, - - , - - ,40 ABELLA LANE,WHITE SWAN,WA,98952,46.3395,-120.8538,SAN FRANCISCO/SEATTLE
WI1542,REUSS PLAZA TOWER 1,"310 WEST WISCONSIN, MILWAUKEE, WI, 53203-2213","BLS, OFCCP, OLMS, OSHA, WHD", - - , - - ,310 WEST WISCONSIN,MILWAUKEE,WI,53203-2213,43.0394,-88.142,CHICAGO/KANSAS CITY
WI1602,4802-04 E. BROADWAY,"4802-04 EAST BROADWAY, MADISON, WI, 53716-4141",OSHA, - - , - - ,4802-04 EAST BROADWAY,MADISON,WI,53716-4141,43.0483,-89.3009089048,CHICAGO/KANSAS CITY
WI1624,FIRSTAR BK OSHKOSH,"111 NORTH MAIN, OSHKOSH, WI, 54901-4812",WHD, - - , - - ,111 NORTH MAIN,OSHKOSH,WI,54901-4812,44.0394,-88.7425,CHICAGO/KANSAS CITY
WI1662,740 REGENT,"740 REGENT STREET, MADISON, WI, 53715-2647","ATELS, BLS, WHD", - - , - - ,740 REGENT STREET,MADISON,WI,53715-2647,43.0676,-89.3995434343,CHICAGO/KANSAS CITY
WI1675,1310 WEST CLAIREMONT BUILDING,"1310 WEST CLAIREMONT AVENUE, EAU CLAIRE, WI, 54701-6127",OSHA, - - , - - ,1310 WEST CLAIREMONT AVENUE,EAU CLAIRE,WI,54701-6127,44.7944552989,-91.5228776067,CHICAGO/KANSAS CITY
WI1676,TRI PARK CENTER,"TRI PARK CENTER, APPLETON, WI, 54914-1660",OSHA, - - , - - ,TRI PARK CENTER,APPLETON,WI,54914-1660,44.2768,-88.4534,CHICAGO/KANSAS CITY
WIJCC591,BLACKWELL JOB CORPS CIVILIAN CONSERVATION CENTER,"4155 COUNTY HIGHWAY H, LAONA, WI, 54541",JCC, - - , - - ,4155 COUNTY HIGHWAY H,LAONA,WI,54541,45.5566,-88.6193,CHICAGO/KANSAS CITY
WV0016,SIDNEY L CHRISTIE FB,"845 5TH AVENUE, HUNTINGTON, WV, 25701-2014",WHD, - - , - - ,845 5TH AVENUE,HUNTINGTON,WV,25701-2014,38.4190377372,-82.4444019776,PHILADELPHIA
WV0030,FEDERAL OFFICE BUILDING,"425 JULIANA STREET, PARKERSBURG, WV, 26101-5352",OWCP, - - , - - ,425 JULIANA STREET,PARKERSBURG,WV,26101-5352,39.2664225179,-81.5622263827,PHILADELPHIA
WV0050,FB & GARAGE,"100 BLUESTONE ROAD, MOUNT HOPE, WV, 25880-1006",MSHA, - - , - - ,100 BLUESTONE ROAD,MOUNT HOPE,WV,25880-1006,37.8958,-81.1677,PHILADELPHIA
WV0060,VENERI BLDG,"10 GOTT ROAD, PRINCETON, WV, 24740-0000",MSHA, - - , - - ,10 GOTT ROAD,PRINCETON,WV,24740-0000,37.3673,-81.1177,PHILADELPHIA
WV0073,JOO BUILDING,"820 ARBUCKLE ROAD, SUMMERSVILLE, WV, 26651-1704",MSHA, - - , - - ,820 ARBUCKLE ROAD,SUMMERSVILLE,WV,26651-1704,38.2784,-80.8482979144,PHILADELPHIA
WV0114,MSHA BUILDING,"RTE 85 SOUTH, UNEEDA, WV, 25130-0000",MSHA, - - , - - ,RTE 85 SOUTH,UNEEDA,WV,25130-0000,38.3462,-81.6378,PHILADELPHIA
WV0143,MSHA BLDG.,"RT.17-5, MT. GAY, LOGAN, WV, 25601-0000",MSHA, - - , - - ,"RT.17-5, MT. GAY",LOGAN,WV,25601-0000,37.8479,-82.0094,PHILADELPHIA
WV0203,EASTPOINTE BUSINESS PARK,"105 PLATINUM DRIVE, SUITE B, BRIDGEPORT, WV, 26330-2004",MSHA, - - , - - ,"105 PLATINUM DRIVE, SUITE B",BRIDGEPORT,WV,26330-2004,39.2802,-80.2777,PHILADELPHIA
WV0211,CLARKSBURG FED CTR,"320 WEST PIKE STREET, CLARKSBURG, WV, 26301-2793","ATELS, WHD", - - , - - ,320 WEST PIKE STREET,CLARKSBURG,WV,26301-2793,39.2805941061,-80.3389518032,PHILADELPHIA
WV0227,CHARLESTON FEDERAL CENTER,"500 QUARRIER STREET, CHARLESTON, WV, 25301-2183","OWCP, WHD", - - , - - ,500 QUARRIER STREET,CHARLESTON,WV,25301-2183,38.3519,-81.6373,PHILADELPHIA
WV0239,PEIRPONT PROFESSIONAL BUILDING,"604 CHEAT ROAD, MORGANTOWN, WV, 26508-4210",MSHA, - - , - - ,604 CHEAT ROAD,MORGANTOWN,WV,26508-4210,39.6503400851,-79.8895100213,PHILADELPHIA
WV0261,BOULEVARD PLAZA,"115-15 AIKENS CENTER, MARTINSBURG, WV, 25404-6210",ATELS, - - , - - ,115-15 AIKENS CENTER,MARTINSBURG,WV,25404-6210,39.4859,-77.9606,PHILADELPHIA
WV0292,94 ADENA DRIVE,"94 ADENA DRIVE, MOUNT CARBON, WV, 25139",MSHA, - - , - - ,94 ADENA DRIVE,MOUNT CARBON,WV,25139,38.1418899891,-81.2876899891,PHILADELPHIA
WV0303,,"4750 APPALACHIAN HIGHWAY, PINEVILLE, WV, 24874-0000",MSHA, - - , - - ,4750 APPALACHIAN HIGHWAY,PINEVILLE,WV,24874-0000,37.6222,-81.5399,PHILADELPHIA
WV9001,ATRIUM,"405 CAPITAL ST., CHARLESTON, WV, 25301-1749","ATELS, OSHA", - - , - - ,405 CAPITAL ST.,CHARLESTON,WV,25301-1749,38.4762,-81.6571,PHILADELPHIA
WVJCC553,CHARLESTON JOB CORPS CENTER,"1000 KENNAWA DRIVE, CHARLESTON, WV, 25311",JCC, - - , - - ,1000 KENNAWA DRIVE,CHARLESTON,WV,25311,38.3327319937,-81.5799319937,PHILADELPHIA
WVJCC558,HARPERS FERRY JOB CORPS CIVILIAN CONSERVATION CORPS,"237 JOB CORPS ROAD, HARPERS FERRY, WV, 25425",JCC, - - , - - ,237 JOB CORPS ROAD,HARPERS FERRY,WV,25425,39.3465,-77.8092,PHILADELPHIA
WY0004,FOB,"308 WEST 21ST ST, CHEYENNE, WY, 82001-3663",ATELS, - - , - - ,308 WEST 21ST ST,CHEYENNE,WY,82001-3663,41.1369,-104.81939675,DALLAS/DENVER
WY0030,DICK CHENEY FB,"100 EAST B ST, CASPER, WY, 82601-1962",WHD, - - , - - ,100 EAST B ST,CASPER,WY,82601-1962,42.852,-106.3252,DALLAS/DENVER
WY1243,JAMAR BUILDING,"50 SHOSHONE AVE., GREEN RIVER, WY, 82935-5322",MSHA, - - , - - ,50 SHOSHONE AVE.,GREEN RIVER,WY,82935-5322,41.5084811146,-109.472109443,DALLAS/DENVER
WY1341,BEST IV,"620 NORTH HIGHWAY 14-16, GILLETTE, WY, 82716-2531",MSHA, - - , - - ,620 NORTH HIGHWAY 14-16,GILLETTE,WY,82716-2531,44.4646,-105.6951,DALLAS/DENVER
